X,Y,NAME,WEB_URL,RELIGION,ADDRESS,PLACE_OF_WORSHIP,IS_PLACE_OF_WORSHIP,MAR_ID,GIS_ID,XCOORD,YCOORD,SE_ANNO_CAD_DATA,GLOBALID,CREATED,EDITED,OBJECTID
-8575595.59883786,4719914.87560884,FIRST UNITED CHR-CHRIST APSTLC,<Null>,CHRISTIAN,7901 16TH ST NW,CHURCHES,1,,PlacesofWorshipPt_419,396891.14,146644.42,,{A37E0530-9101-4A11-9925-D9C02BE50B83},,,1
-8574980.39637941,4719811.82575995,ST MARY'S BAPTIST CHURCH,STMARYSBAPTIST.ORG,CHRISTIAN,8008 EASTERN AVE NW,CHURCHES,1,,PlacesofWorshipPt_425,397369.91,146564.37,,{761F7F22-4001-4357-BF41-AF88B0174873},,,2
-8574855.78018323,4719704.59434846,INTERNATIONAL ETHIOPIAN,EECDC.ORG,CHRISTIAN,7930 EASTERN AVE NW,CHURCHES,1,,PlacesofWorshipPt_447,397466.87,146481.22,,{6633E7DE-A5BC-4EB7-ADEB-94169649E976},,,3
-8574806.04175551,4719618.85772616,SHEPHERD PARK CHRISTIAN CHURCH,SHEPHERDPARKCHRISTIANCHURCH.ORG,CHRISTIAN,7900 EASTERN AVE NW,CHURCHES,1,,PlacesofWorshipPt_462,397505.56,146414.75,,{7BAF3E76-1F0D-4BF8-8EA6-83816C6522D5},,,4
-8575707.32070444,4719564.70982162,FABRANGEN,FABRANGEN.ORG,JEWISH,7750 16TH ST NW,SYNAGOGUES,1,,PlacesofWorshipPt_476,396804.08,146373.03,,{822EF918-D018-4D41-BE1A-283D2519439E},,,5
-8575712.36618542,4719395.42472236,OHEV SHOLOM - THE NATIONAL SYNAGOGUE,OSTNS.ORG,JEWISH,1600 JONQUIL ST NW,SYNAGOGUES,1,,PlacesofWorshipPt_450,396800.1,146241.81,,{B0ED09F7-0A98-46DA-B06A-1C0C0EB33907},,,6
-8574687.60751944,4719334.08578871,Northminster Presbyterian Church,NORTHMINSTERDC.ORG,CHRISTIAN,7720 ALASKA AVENUE NW,CHURCHES,1,253620,PlacesofWorshipPt_613,397597.67,146193.98,,{8E4F6D34-BC17-4B1D-9C6E-A96D6EC05DB9},,,7
-8575693.45151892,4719313.5629345,HANAFI MADHAB CENTER,,ISLAMIC,7700 16TH STREET NORTHWEST,MOSQUES,1,,PlacesofWorshipPt_750,396814.78125,146178.34375,,{EFA05243-C36E-4793-8E77-D59447419A1F},,,8
-8575585.67510848,4719311.57024702,TIFERETH ISRAEL CONGREGATION,TIFERETH-ISRAEL.ORG,JEWISH,7701 16TH ST NW,SYNAGOGUES,1,,PlacesofWorshipPt_392,396898.68,146176.77,,{11AC42B3-7035-4542-A95C-0BE7EE69160E},,,9
-8575585.67510848,4719311.57024702,HOPE TABERNACLE CHURCH OF GOD,HOPETABERNACLECOG.ORG,CHRISTIAN,7701 16TH ST NW,CHURCHES,1,,PlacesofWorshipPt_571,396898.68,146176.77,,{4FF24E58-E153-4E9D-B083-8F4C327A0A28},,,10
-8574590.11831143,4719168.70589851,NEW DIMENSIONS KINGDOM MNSTRS,,CHRISTIAN,7612 GEORGIA AVE NW # 14,CHURCHES,1,,PlacesofWorshipPt_482,397673.51,146065.76,,{9A23CD2D-FA2F-4207-A15C-410727242CCB},,,11
-8575143.88173548,4718545.82206435,NATI SPIRITUAL,NSSDC.ORG,CHRISTIAN,1325 FERN ST NW,CHURCHES,1,,PlacesofWorshipPt_449,397242.33,145583.04,,{96730FA7-53EC-45C9-B8DA-6CE16F8EDE49},,,12
-8574508.93400105,4718545.2246697,Shepherd Park Church Of God,,CHRISTIAN,7239 GEORGIA AVENUE NW,CHURCHES,1,254714,PlacesofWorshipPt_719,397736.56,145582.42,,{410C37B2-4EB8-47F8-848D-EC162E72B4F0},,,13
-8574506.58978418,4718478.96065956,New Second Baptist,,CHRISTIAN,7205 GEORGIA AVENUE NW,CHURCHES,1,254723,PlacesofWorshipPt_655,397738.37,145531.05,,{FA199805-DA23-4689-AE12-AF65FB15F4CD},,,14
-8575431.93699513,4718430.27984283,OUR LADY OF LEBANON,MARONITESEMINARY.ORG,CHRISTIAN,7164 ALASKA AVE NW,CHURCHES,1,,PlacesofWorshipPt_390,397018.08,145493.55,,{6966B974-91C4-460A-8884-18AEEBB06C16},,,15
-8574185.11499086,4718372.71824943,LIGHTHOUSE MINISTRIES,,CHRISTIAN,7114 7TH ST NW,CHURCHES,1,,PlacesofWorshipPt_559,397988.58,145448.62,,{A0CD522A-8995-4252-85D7-F3BCB6628DC2},,,16
-8573774.09963631,4718244.54486671,CENTER FOR SPIRITUAL LIVING DC,CSLDC.ORG,CHRISTIAN,400 E ST SW,CHURCHES,1,,PlacesofWorshipPt_494,398308.49,145349.18,,{9C634872-750C-46F7-A720-C263E0AFEE3D},,,17
-8573904.46255926,4718180.77118444,TRINITY EPISCOPAL CHURCH,TRINITYCHURCHDC.ORG,CHRISTIAN,7005 PINEY BRANCH ROAD NORTHWEST,CHURCHES,1,,PlacesofWorshipPt_757,398207,145299.765625,,{AC7F4A08-64E5-47A4-ADD2-2B3059EDEB3C},,,18
-8574477.09792259,4718132.61180701,Zen Buddhist Center,,BUDDHISM,7004 9TH STREET NW,TEMPLES,1,253852,PlacesofWorshipPt_709,397761.25,145262.54,,{0FFAC5CD-8354-42B1-BAFA-915B755960A2},,,19
-8573408.69208437,4718070.13135457,SEEKERS CHURCH,SEEKERSCHURCH.ORG,CHRISTIAN,276 CARROLL ST NW,CHURCHES,1,,PlacesofWorshipPt_433,398592.9,145213.91,,{31808452-12C0-4DCE-AAF2-8FCB8228DCE3},,,20
-8573654.76226148,4717845.85173955,New Testament Church,,CHRISTIAN,400 BUTTERNUT STREET NW,CHURCHES,1,259597,PlacesofWorshipPt_705,398401.32,145040.07,,{45D2C8BA-D461-44D8-8838-A65DA29DA474},,,21
-8573785.5613995,4717817.78012916,BRIGHT PEARL ZEN GROUP OF WASHINGTON,,BUDDHIST,6813 FIFTH STREET,TEMPLES,1,,PlacesofWorshipPt_771,398299.5,145018.328125,,{9DB818D7-8197-48A9-BA72-0C8DCE9237CE},,,22
-8574115.75304713,4717743.08779273,TAKOMA PARK BAPTIST CHURCH,TAKOMAPARKBAPTISTCHURCH.ORG,CHRISTIAN,635 ASPEN ST NW,CHURCHES,1,,PlacesofWorshipPt_483,398042.45,144960.48,,{3EAF2DCD-2D97-477C-AA8D-56730BBE528D},,,23
-8572702.21285178,4717422.5719155,VAN BUREN UNITED METHODIST CHR,VANBURENCHURCH.ORG,CHRISTIAN,35 VAN BUREN ST NW,CHURCHES,1,,PlacesofWorshipPt_408,399142.78,144711.79,,{671AF3D6-0B01-49FD-B6A7-6FC98558F38E},,,24
-8573632.01392207,4717406.76968721,PROMISED LAND BAPTIST CHURCH,THEPLBC.ORG,CHRISTIAN,401 VAN BUREN ST NW,CHURCHES,1,,PlacesofWorshipPt_426,398418.96,144699.65,,{57FEB2F0-75F9-4BBD-B31F-85F938BBD853},,,25
-8574568.25577075,4717153.19701404,NEW BETHEL CHR-GOD IN CHRIST,,CHRISTIAN,6440 PINEY BRANCH RD NW,CHURCHES,1,,PlacesofWorshipPt_461,397690.07,144503.23,,{CE70AD27-FFEC-445F-8A35-D67D55D302F2},,,26
-8579965.04041131,4717150.04671534,SHRINE-THE MOST BLESSED SCRMNT,BLESSEDSACRAMENTDC.ORG,CHRISTIAN,3630 QUESADA ST NW,CHURCHES,1,,PlacesofWorshipPt_477,393488.75,144503.13,,{1F9E7B57-A988-41EE-AB28-54CEDC87A9AF},,,27
-8572873.64051208,4717015.14682392,OVERCOMING FAITH MINISTRIES,,CHRISTIAN,6401 CHILLUM PL NW,CHURCHES,1,,PlacesofWorshipPt_391,399009.29,144395.92,,{C9D55304-999E-4D82-995B-BE33DDE365A8},,,28
-8580032.71068709,4716979.57351802,CHEVY CHASE PRESBYTERIAN CHR,CHEVYCHASEPC.ORG,CHRISTIAN,1 CHEVY CHASE CIR NW,CHURCHES,1,,PlacesofWorshipPt_448,393435.96,144371,,{1487FAFA-7DBC-49C6-B100-293BEDA76AC6},,,29
-8574863.92874285,4716980.9606758,St John United Baptist Church,STJOHNUNITEDBAPTIST.ORG,CHRISTIAN,6343 13TH STREET NW,CHURCHES,1,253260,PlacesofWorshipPt_626,397459.85,144369.76,,{EF93D213-C205-4B8A-8F56-B8C149928E3A},,,30
-8580304.02850402,4716844.81013082,MISSION INTERNATIONALE POUR LA,,CHRISTIAN,5671 WESTERN AVE NW,CHURCHES,1,,PlacesofWorshipPt_578,393224.65,144266.69,,{5C11F266-2EC1-48C3-BC87-CE9A229745B1},,,31
-8580304.02850402,4716844.81013082,CHEVY CHASE BAPTIST CHURCH,CHEVYCHASEBAPTIST.ORG,CHRISTIAN,5671 WESTERN AVE NW,CHURCHES,1,,PlacesofWorshipPt_432,393224.65,144266.69,,{7042F569-7F3C-48B8-9461-9856C4D301F6},,,32
-8572847.15414138,4716809.75767846,IGLESIA DE JESUCRISTO PALABRA,MIELVISION.ORG,CHRISTIAN,6210 CHILLUM PL NW,CHURCHES,1,,PlacesofWorshipPt_456,399029.89,144236.67,,{6C1BF2E6-8AD3-4284-A83E-98D5EDBD8DE2},,,33
-8572847.15414138,4716809.75767846,OMEGA GOSPEL MISSION,OMEGAGOSPELMISSION.COM,CHRISTIAN,6200 KANSAS AVE NE,CHURCHES,1,,PlacesofWorshipPt_406,399029.89,144236.67,,{6DFFDE4F-F98B-4E37-98E3-0A2493CE2248},,,34
-8575129.41370586,4716794.05197108,St. John United Baptist Church,,CHRISTIAN,1348 SHERIDAN STREET NW,CHURCHES,1,257635,PlacesofWorshipPt_710,397253.12,144224.91,,{400730D5-ADB3-467F-A779-3000C11075EB},,,35
-8572822.948362,4716761.69229793,CELESTIAL CHURCH OF CHRIST,CCCUSADIOCESE.ORG,CHRISTIAN,6200 CHILLUM PL NW,CHURCHES,1,,PlacesofWorshipPt_409,399048.73,144199.4,,{02DED448-92F7-4DD4-963F-3AFDA0B72DD7},,,36
-8573427.30864311,4716745.72341184,MOUNT HEBRON BAPTIST CHURCH,,CHRISTIAN,6218 3RD STREET NORTHWEST,CHURCHES,1,,PlacesofWorshipPt_764,398578.21875,144187.09375,,{C8F874C3-063A-4D1B-BDE3-2312CF816C97},,,37
-8573686.35795709,4716684.07742574,Albright Memorial United Methodist,,CHRISTIAN,411 RITTENHOUSE STREET NW,CHURCHES,1,249042,PlacesofWorshipPt_707,398376.54,144139.33,,{88CCB3DF-D418-4C4A-822E-1DC4FF6A1A53},,,38
-8572706.81768912,4716648.9581174,BETHEL CAPITOL CHURCH,BETHELCAPITOLCHURCH.ORG,CHRISTIAN,6130 N CAPITOL ST NW,CHURCHES,1,,PlacesofWorshipPt_418,399139.13,144111.98,,{6FD4E680-C379-4BA9-9E74-F33ED43DCE72},,,39
-8574626.49474438,4716625.60932464,BROTHERHOOD OF THE CROSS-STAR,OOO-BCSUSA.ORG/WASHINGTON-DC-BETHEL,CHRISTIAN,916 RITTENHOUSE ST NW,CHURCHES,1,,PlacesofWorshipPt_395,397644.61,144094.18,,{67F55524-C191-4D09-8CDA-E883640B05AF},,,40
-8574731.94264366,4716600.09256043,EMORY UNITED METHODIST CHURCH,EMORYFELLOWSHIP.ORG,CHRISTIAN,6120 GEORGIA AVE NW,CHURCHES,1,,PlacesofWorshipPt_492,397562.51,144074.42,,{FFC6E084-A50D-4885-AE92-1920CECCB6F8},,,41
-8574835.01131886,4716404.85159102,CHURCH OF THE NATIVITY,NATIVITYCHURCH.NET,CHRISTIAN,6001 13TH ST NW,CHURCHES,1,,PlacesofWorshipPt_438,397482.22,143923.06,,{DE4CB070-8463-4503-B031-BC7C24ADA878},,,42
-8572424.42886657,4716386.91820762,Riggs Park Baptist,,CHRISTIAN,5998 CHILLUM PLACE NE,CHURCHES,1,285291,PlacesofWorshipPt_649,399358.96,143908.78,,{27CECA98-1BDC-41AD-80EE-865276C8EBDF},,,43
-8573320.50814761,4716365.03577779,Peabody St Mennonite Church,,CHRISTIAN,245 PEABODY STREET NW,CHURCHES,1,295748,PlacesofWorshipPt_664,398661.32,143891.9,,{29FA8AD3-DBFA-419D-9E71-D2B4C8721643},,,44
-8574743.25965537,4716352.40335316,CHURCH-THE NATIVITY-OUR LORD,,CHRISTIAN,6000 GEORGIA AVE NW,CHURCHES,1,,PlacesofWorshipPt_440,397553.64,143882.37,,{8AA65683-7B27-4CAF-906B-3DDD0DAE9CAA},,,45
-8572100.35368411,4716209.04212388,WASHINGTON DC CHRISTIAN,,CHRISTIAN,207 ONEIDA ST NE,CHURCHES,1,,PlacesofWorshipPt_484,399611.26,143770.84,,{92E220D4-8D7C-4B5D-841A-A1BAA9547051},,,46
-8572308.70039864,4716207.35313258,MT CALVARY HOLY CHURCH,MTCALVARYHOLY.ORG,CHRISTIAN,5900 CHILLUM PL NE,CHURCHES,1,,PlacesofWorshipPt_400,399449.05,143769.54,,{9A638C45-5E9C-4064-A41B-03908D7FA7D5},,,47
-8572145.46253526,4716205.11922931,WASHINGTON DC CHRISTIAN RFRMD,,CHRISTIAN,5911 NEW HAMPSHIRE AVE NE,CHURCHES,1,,PlacesofWorshipPt_485,399576.14,143767.8,,{A9DD1719-4A95-4009-B840-2F2B7F31FD8A},,,48
-8574134.50392834,4716172.96214363,HOLY COMFORTER EPISCOPAL CHR,HOLYCOMFORTERDC.ORG,CHRISTIAN,701 OGLETHORPE ST NW,CHURCHES,1,,PlacesofWorshipPt_481,398027.55,143743.1,,{D6EE0FF1-9100-42FB-9752-E54911F27FF1},,,49
-8571316.45749115,4716130.83287883,BETHLEHEM CHURCH-GOD HOLINESS,,CHRISTIAN,5898 EASTERN AVE NE,CHURCHES,1,,PlacesofWorshipPt_389,400221.57,143710.19,,{3C91A86B-2B9A-4827-BDCF-73A97C9D6987},,,50
-8578603.97242335,4716023.9397301,TEMPLE SINAI,TEMPLESINAIDC.ORG,CHRISTIAN,3100 MILITARY RD NW,CHURCHES,1,,PlacesofWorshipPt_393,394547.72,143629.18,,{3B05A7AB-2493-463B-92D4-A0CB4F5B8000},,,51
-8574825.56284825,4716014.57757061,BALM IN GILEAD MINISTRIES,,CHRISTIAN,5825 COLORADO AVE NW,CHURCHES,1,,PlacesofWorshipPt_584,397489.48,143620.44,,{2AF47BF9-6DB2-4475-A696-AE68A2DCD54A},,,52
-8575356.16239922,4715945.27033347,EVANGLICAL CHURCH APOSTLES,,CHRISTIAN,1409 MANCHESTER LN NW,CHURCHES,1,,PlacesofWorshipPt_431,397076.35,143566.84,,{DC1A278D-128E-4604-8ADE-24E081082214},,,53
-8572463.2824805,4715919.75096286,GREATER ST PAUL BAPTIST CHURCH,GREATERSTPAULDC.COM,CHRISTIAN,5720 SOUTH DAKOTA AVE NE,CHURCHES,1,,PlacesofWorshipPt_413,399328.68,143546.54,,{8DDDA089-C84C-44C4-A026-164E42FD09E2},,,54
-8579688.39612329,4715847.88391349,WESLEY UNITED METHODIST CHURCH,WESLEYDC.ORG,CHRISTIAN,5312 CONNECTICUT AVE NW,CHURCHES,1,,PlacesofWorshipPt_388,393703.31,143493.29,,{A30F0E47-F4DA-4911-9CB8-19174A90E931},,,55
-8579688.39612329,4715847.88391349,RIVER CITY CHURCH,RIVERCITYCH.COM,CHRISTIAN,5312 CONNECTICUT AVE NW,CHURCHES,1,,PlacesofWorshipPt_572,393703.31,143493.29,,{FF31E3D6-F9EF-4302-9D9F-74DFAAE123CD},,,56
-8574785.70549664,4715801.31240907,NEW REDEEMER BAPTIST CHURCH,,CHRISTIAN,5714 GEORGIA AVE NW,CHURCHES,1,,PlacesofWorshipPt_454,397520.46,143455.06,,{4EEFDEB6-D5FC-44B0-A0F6-5C54678E3C83},,,57
-8571671.2623698,4715785.46112603,FAITH MORAVIAN CHR-THE NATIONS,FAITHMORAVIANCHURCH.ORG,CHRISTIAN,405 RIGGS RD NE,CHURCHES,1,,PlacesofWorshipPt_443,399945.33,143442.38,,{3E59CBD7-19F6-4AD0-A58A-DB60B53CAF1F},,,58
-8575355.15498336,4715685.74938486,Ky Vien Pagoda,,BUDDHIST,1400 MADISON STREET NW,TEMPLES,1,255969,PlacesofWorshipPt_700,397077.06,143365.6,,{A7AD160A-84E6-49CA-A8A3-511A1F86A22C},,,59
-8575123.95046369,4715591.84727798,FELLOWSHIP BAPTIST CHURCH,FELLOWSHIPBAPTISTCHURCH.ORG,CHRISTIAN,5605 COLORADO AVE NW,CHURCHES,1,,PlacesofWorshipPt_463,397257.05,143292.72,,{2617DFFA-0D13-4528-92C6-476FBFE3632E},,,60
-8574184.92204217,4715531.68804227,Universal Meditation Temple,,CHRISTIAN,734 LONGFELLOW STREET NW,CHURCHES,1,250300,PlacesofWorshipPt_714,397988.17,143245.85,,{D0526FA4-8EA3-4BE8-85D7-CCC182F7F27D},,,61
-8575707.50678107,4715526.85175295,FOURTH CHURCH CHRIST SCIENTIST,CHRISTIANSCIENCEDC.ORG,CHRISTIAN,5510 16TH ST NW,CHURCHES,1,,PlacesofWorshipPt_423,396802.67,143242.49,,{9065B293-B4A6-466F-BD4C-DE6955ADDD0A},,,62
-8572961.50559534,4715499.58399585,CHRIST UNIVERSAL CHURCH,CHRISTUNIVERSALCHURCH.ORG,CHRISTIAN,111 KENNEDY ST NW,CHURCHES,1,,PlacesofWorshipPt_439,398940.73,143220.77,,{ABCCA487-E317-49F1-BD5E-F96D1539A7AF},,,63
-8573897.43343819,4715467.34327925,TRIUMPHANT CHURCH,,CHRISTIAN,519 KENNEDY ST NW,CHURCHES,1,,PlacesofWorshipPt_568,398212,143195.9,,{3443F1EF-A79D-40E0-BF47-B7E38E8FFE8B},,,64
-8572935.42422164,4715428.2873168,FAITH MISSION TEMPLE,FAITHMISSIONTEMPLE.ORG,CHRISTIAN,102 KENNEDY ST NW,CHURCHES,1,,PlacesofWorshipPt_442,398961.03,143165.48,,{28B45C51-1578-4030-8DE3-F5249001380F},,,65
-8573427.17924805,4715420.27970618,CALVARY LIFE CTR,,CHRISTIAN,304 KENNEDY ST NW,CHURCHES,1,,PlacesofWorshipPt_414,398578.14,143159.33,,{1D85796B-78C0-4808-9480-B190BBDAC786},,,66
-8580700.19675085,4715405.21203951,FRENCH SPEAKING PARISH OF ST L0UIS,,CHRISTIAN,4125 GARRISON ST NW,CHURCHES,1,,PlacesofWorshipPt_259,392915.23,143150.69,,{5B298959-A0E4-4CAE-AC4B-6556F04F95FE},,,67
-8580700.19675085,4715405.21203951,ST LOUIS DE FRANCE,,CHRISTIAN,4125 GARRISON ST NW,CHURCHES,1,,PlacesofWorshipPt_574,392915.23,143150.69,,{0FFE3CF4-C613-4FE7-9D72-1B3A3650E4D3},,,68
-8572807.88813892,4715408.98570742,EVANGELICAL CHURCH LA PENA,,CHRISTIAN,24 KENNEDY ST NW,CHURCHES,1,,PlacesofWorshipPt_430,399060.33,143150.5,,{0978DE5D-8B97-4B21-ADBF-7920C9D3C36D},,,69
-8572807.88813892,4715408.98570742,FROM THE HEART CHR MINISTRIES,,CHRISTIAN,24 KENNEDY ST NW,CHURCHES,1,,PlacesofWorshipPt_424,399060.33,143150.5,,{4E307D75-D72C-47C3-BEEB-B10E38232029},,,70
-8573020.14800224,4715404.1609991,FAITH FULL GOSPEL DELIVERANCE CHURCH OF GOD,,CHRISTIAN,125 MISSOURI AVE NW,CHURCHES,1,,PlacesofWorshipPt_446,398895.06,143146.78,,{455EB168-9F7E-41BB-A869-DB55D11471B5},,,71
-8573785.3926048,4715367.91713457,ARK FOUNDATION CHURCH,<Null>,CHRISTIAN,5421 5TH ST NW,CHURCHES,1,,PlacesofWorshipPt_488,398299.22,143118.78,,{6E05F9D3-BA11-4293-B72E-02176CACED34},,,72
-8575599.86500362,4715360.01233156,SIXTH PRESBYTERIAN CHURCH,,CHRISTIAN,5413 16TH ST NW,CHURCHES,1,,PlacesofWorshipPt_487,396886.43,143113.08,,{70E6FDB4-0219-43B3-B19B-7F95C3E56389},,,73
-8572071.73337051,4715303.38074843,DOMINION CHURCH OF WASHINGTON DC,,CHRISTIAN,5335 1ST PL NE,CHURCHES,1,,PlacesofWorshipPt_581,399633.51,143068.56,,{6B206B05-3781-4A09-8403-027A434110F0},,,74
-8575585.28070227,4715275.61712507,BUDDHIST CONGREGATIONAL CHURCH,www.GIACHOANGTEMPLE.COM,CHRISTIAN,5401 16TH ST NW,CHURCHES,1,,PlacesofWorshipPt_404,396897.76,143047.63,,{6ABA07DC-EA80-4C82-8F80-AF4B18DCB9E3},,,75
-8572572.26378227,4715253.80080329,PLYMOUTH CONGREGATIONAL CHURCH,PLYMOUTH-UCC.ORG,CHRISTIAN,5301 N CAPITOL ST NE,CHURCHES,1,,PlacesofWorshipPt_398,399243.78,143030.14,,{84DA7117-CBEF-4810-AAFD-CB7CCE8416B3},,,76
-8574118.5272392,4715242.28944247,Christ Memorial Baptist,,CHRISTIAN,702 JEFFERSON STREET NW,CHURCHES,1,250210,PlacesofWorshipPt_654,398039.81,143021.42,,{A1BE5DC3-CAC8-4F45-A4F5-C0CEC8E52E20},,,77
-8575358.27660928,4715234.09047321,STAR-BETHLEHEM CHR-GOD,,CHRISTIAN,5331 COLORADO AVE NW,CHURCHES,1,,PlacesofWorshipPt_489,397074.5,143015.36,,{4F6C4346-AB7E-494B-98E1-B70A090220A7},,,78
-8580695.40065921,4715226.07223224,ST MARY ARMENIAN APOSTOLIC CHR,STMARYAAC.ORG,CHRISTIAN,4125 FESSENDEN ST NW,CHURCHES,1,,PlacesofWorshipPt_415,392918.84,143011.77,,{2C388456-E528-4A02-805F-BA41A992FB00},,,79
-8572339.96868607,4715217.75205455,UNITED CHRISTIAN CHR WORLDWIDE,,CHRISTIAN,33 RIGGS RD NE,CHURCHES,1,,PlacesofWorshipPt_577,399424.65,143002.17,,{FEE0EB6A-0A2F-4C6C-8F60-57B31717640C},,,80
-8581403.89285013,4715072.1503735,Washington International Church,http://internationalchurch.org/,CHRISTIAN,4420 RIVER ROAD NW,CHURCHES,1,267907,PlacesofWorshipPt_641,392367.07,142892.92,,{B4D7A5BF-2142-467B-945A-B5C20274892B},,,81
-8574943.5476551,4715072.60651613,GREATER NEW ST PAUL BAPTIST,,CHRISTIAN,1300 INGRAHAM ST NW,CHURCHES,1,,PlacesofWorshipPt_412,397397.38,142890.02,,{E68205A5-58C7-4C1B-9E8B-C5F9079373CF},,,82
-8575482.70956221,4715056.75933251,FIRST SUPERET BRANCH CHURCH,SUPERETLIGHTCHURCH.COM,CHRISTIAN,1420 INGRAHAM ST NW,CHURCHES,1,,PlacesofWorshipPt_480,396977.56,142877.88,,{AC451E43-6249-44FF-9DD3-494D558E09B4},,,83
-8579427.61865249,4715048.58425676,ST PAUL'S LUTHERAN CHURCH,STPAULSLUTHERANDC.360UNITE.COM,CHRISTIAN,4900 CONNECTICUT AVE NW,CHURCHES,1,,PlacesofWorshipPt_150,393905.87,142873.31,,{C68AF585-29AB-4821-9D87-38A752657D66},,,84
-8574642.7128723,4715015.44697746,NEW HOPE CME CHURCH,NEWHOPECMEC.COM,CHRISTIAN,5219 GEORGIA AVE NW,CHURCHES,1,,PlacesofWorshipPt_453,397631.61,142845.62,,{0F2F741D-B173-4757-B3FB-9309802760D3},,,85
-8578209.21059921,4714932.68824019,OBLATE SISTERS-THE MOST HOLY,,CHRISTIAN,2907 ELLICOTT TER NW,CHURCHES,1,,PlacesofWorshipPt_147,394854.52,142782.76,,{C92B9DD2-8551-48AF-83C6-717BE37CB4F9},,,86
-8573501.55254174,4714926.46610947,GETHSEMANE BAPTIST CHURCH,GETHSEMANEBAPTISTCHURCH.ORG,CHRISTIAN,5119 4TH ST NW,CHURCHES,1,,PlacesofWorshipPt_428,398520.16,142776.4,,{9BFDC7EC-2C84-4DBE-A00D-8B8FA1FD5112},,,87
-8575281.79060733,4714897.90279649,JEHOVAH'S WITNESS NORTH UNIT,,CHRISTIAN,5113 14TH ST NW,CHURCHES,1,,PlacesofWorshipPt_444,397133.96,142754.63,,{ED1F6F1D-49AF-4595-954C-E9D6E07E6404},,,88
-8575606.19258141,4714826.08387703,BEREAN ETHIOPIAN ADVENTIST GRP,BEREANETHIOPIANDC.ADVENTISTCHURCH.ORG,CHRISTIAN,5101 16TH ST NW,CHURCHES,1,,PlacesofWorshipPt_587,396881.34,142699.03,,{920AA15C-EA89-49A0-9D2A-519FCBB478D5},,,89
-8575606.19258141,4714826.08387703,IGLESIA MISIONERA CUERPO DE,CUEPRODECRISTO.ORG,CHRISTIAN,5101 16TH ST NW,CHURCHES,1,,PlacesofWorshipPt_586,396881.34,142699.03,,{D35C8893-7B5F-4567-BD9B-6FF965B4374F},,,90
-8575606.19258141,4714826.08387703,CHRIST LUTHERAN CHURCH,CHRISTLUTHERANDC.ORG,CHRISTIAN,5101 16TH ST NW,CHURCHES,1,,PlacesofWorshipPt_436,396881.34,142699.03,,{31CD19C3-0BF0-4452-B3F2-1D9F285C5816},,,91
-8575289.95561866,4714818.86691725,MT ZION BAPTIST CHURCH,,CHRISTIAN,5101 14TH ST NW,CHURCHES,1,,PlacesofWorshipPt_401,397127.58,142693.34,,{0733973C-14A4-41EB-871A-C5910183513D},,,92
-8575403.57110278,4714812.8029649,ST LUKE BAPTIST CHURCH,,CHRISTIAN,1415 GALLATIN ST NW,CHURCHES,1,,PlacesofWorshipPt_460,397039.11,142688.67,,{0CAF0656-F11F-40AC-8D4D-222FF80F6CA1},,,93
-8574423.23646258,4714760.11324804,MIRACLE TEMPLE OF GOD & CHRIST,,CHRISTIAN,822 GALLATIN ST NW,CHURCHES,1,,PlacesofWorshipPt_490,397802.45,142647.56,,{D6052008-EA61-4956-BD53-50F9C51F6AFD},,,94
-8581433.89818851,4714703.6479944,ZEN BUDDHIST CTR OF WASHINGTON,,CHRISTIAN,4705 45TH ST NW,CHURCHES,1,,PlacesofWorshipPt_561,392343.43,142607.17,,{2A9DEFF4-6CDF-4336-82ED-89FA2F35D2D6},,,95
-8575712.40857263,4714623.60670764,Nipponzan Myohoji,,BUDDHISM,4900 16TH STREET NW,TEMPLES,1,258782,PlacesofWorshipPt_643,396798.57,142542.04,,{291B4B52-93C3-4E83-BDDA-E332475C7D24},,,96
-8575136.36055877,4714600.65274669,Macedonia Church of God in Christ,MACEDONIACOGICDC.ORG,CHRISTIAN,1320 FARRAGUT STREET NW,CHURCHES,1,255088,PlacesofWorshipPt_658,397247.12,142524.07,,{12F58C2E-0366-4B55-AD40-0C4596E88BF4},,,97
-8578721.39884503,4714542.23563361,WASHINGTON ETHIOPIAN SEVENTH,ETHIOPIAN22.ADVENTISTCHURCHCONNECT.OR,CHRISTIAN,3150 CHESAPEAKE ST NW,CHURCHES,1,,PlacesofWorshipPt_149,394455.49,142480.23,,{2E10D319-D4DC-4671-9E0F-AE83F198F821},,,98
-8578721.39884503,4714542.23563361,CAPITAL MEMORIAL SEVENTH-DAY,CAPITALMEMORIAL.ORG,CHRISTIAN,3150 CHESAPEAKE ST NW,CHURCHES,1,,PlacesofWorshipPt_185,394455.49,142480.23,,{94282140-665F-4664-A981-5F2F83EF43F4},,,99
-8575806.44101288,4714533.37062195,Zion Baptist Church,http://www.ziondc.org/,CHRISTIAN,4850 BLAGDEN AVENUE NW,CHURCHES,1,258775,PlacesofWorshipPt_644,396725.32,142472.09,,{E06F54B2-3239-44AF-A9E8-D74A1A439B7C},,,100
-8575278.4461491,4714519.56897498,SAINT PAUL AFRICAN METHODIST EPISCOPAL CHURCH,,CHRISTIAN,4901 14TH STREET NORTHWEST,CHURCHES,1,,PlacesofWorshipPt_730,397136.46875,142461.234375,,{27D09D59-D6C7-4732-8C63-5D97A928D4F3},,,101
-8574681.7028735,4714503.00928595,ST JOSEPH BAPTIST CHURCH,,CHRISTIAN,1203 EMERSON ST NW,CHURCHES,1,,PlacesofWorshipPt_459,397601.13,142448.23,,{55304FEA-79C3-4C16-AF92-BE4FB97DC12A},,,102
-8574073.91171507,4714452.64278431,SHAMMAH MINISTRIES INC,,CHRISTIAN,4836 7TH ST NW,CHURCHES,1,,PlacesofWorshipPt_496,398074.4,142409.04,,{B9944D0A-BCBF-4C49-8434-609E85A6CD1C},,,103
-8574576.18484266,4714390.30517135,Faith Assembly Of Christ,FAITHASSEMBLYOFCHRIST.COM,CHRISTIAN,4821 GEORGIA AVENUE NW,CHURCHES,1,284969,PlacesofWorshipPt_642,397683.27,142360.8,,{F579A2EA-C73A-4FB3-A583-606BBF4587E0},,,104
-8570358.4449932,4714375.11583541,KABOD CHURCH,KABODCHURCH.ORG,CHRISTIAN,4915 SARGENT RD NE,CHURCHES,1,,PlacesofWorshipPt_599,400967.61,142348.74,,{7369BAF7-FC1B-4669-B12F-9EE14E49BBEA},,,105
-8570358.4449932,4714375.11583541,DEEPER LIFE BIBLE CHURCH,DEEPERLIFEDC.ORG,CHRISTIAN,4915 SARGENT RD NE,CHURCHES,1,,PlacesofWorshipPt_367,400967.61,142348.74,,{5BF27C8A-C44A-4493-8B08-7A217ED88DEE},,,106
-8580634.62241126,4714364.60979787,CITIZEN HEIGHTS CHURCH,CITIZENHEIGHTS.COM,CHRISTIAN,4100 RIVER RD NW,CHURCHES,1,,PlacesofWorshipPt_420,392965.57,142343.66,,{174AA228-7989-4AF8-94E1-1D71941B14E9},,,107
-8570816.66421848,4714305.50690442,FAITH UNITED CHURCH OF CHRIST,FAITHUNITEDDC.COM,CHRISTIAN,4900 10TH ST NE,CHURCHES,1,,PlacesofWorshipPt_287,400610.8,142294.72,,{254A2432-36F8-4237-85CC-FB56A2B5853D},,,108
-8575601.51711417,4714300.05294901,CHURCH OF CHRIST,COC16TH.ORG,CHRISTIAN,4801 16TH ST NW,CHURCHES,1,,PlacesofWorshipPt_437,396884.82,142291.08,,{C4849695-78D5-4EC9-8E4F-D44A88F6CBC5},,,109
-8575708.88589501,4714294.98119404,CAPITAL SPANISH SEVENTH-DAY,CAPITALSPANISHDC.ADVENTISTCHURCH.ORG,CHRISTIAN,4800 16TH ST NW,CHURCHES,1,,PlacesofWorshipPt_396,396801.21,142287.18,,{C937CE4E-86D4-4539-9E48-10950A787E5F},,,110
-8580767.42788938,4714279.35743654,SAINT COLUMBAS EPISCOPAL CHURCH,COLUMBA.ORG,CHRISTIAN,4201 ALBEMARLE STREET NORTHWEST,CHURCHES,1,,PlacesofWorshipPt_726,392862.09375,142277.640625,,{6F201A4E-1587-483B-AB2B-DE6D9B02EB98},,,111
-8578991.8421863,4714240.94629457,ONE LORD ONE SAFE CHURCH INC,ONENESSJG.ORG,CHRISTIAN,4500 CONNECTICUT AVE NW,CHURCHES,1,,PlacesofWorshipPt_170,394244.73,142246.72,,{C808BEE3-6EB4-4E60-B6E6-4D0D7F5DFC7E},,,112
-8575707.15114136,4714164.60942266,WASHINGTON SEVENTH DAY BAPT,WASHINGTONSDB.COM,CHRISTIAN,4700 16TH ST NW,CHURCHES,1,,PlacesofWorshipPt_410,396802.52,142186.07,,{727937D5-88A8-4D71-8EEC-7B235A619873},,,113
-8574955.23001072,4714121.07272656,PEOPLES CONGREGATIONAL UCC,,CHRISTIAN,4704 13TH ST NW,CHURCHES,1,,PlacesofWorshipPt_407,397388.04,142152.09,,{8B67A93B-13C6-4EDB-9E7D-472D4DB3CED5},,,114
-8580242.8666607,4714062.24986711,WISCONSIN AVENUE BAPTIST CHR,,CHRISTIAN,3920 ALTON PL NW,CHURCHES,1,,PlacesofWorshipPt_441,393270.43,142108.9,,{A1CA47EB-92D8-4A92-A0B8-AAC496563BE1},,,115
-8580242.8666607,4714062.24986711,AGAPE BAPTIST CHURCH,AGAPECHURCHDC.COM,CHRISTIAN,3920 ALTON PL NW,CHURCHES,1,,PlacesofWorshipPt_451,393270.43,142108.9,,{DF2518F1-C0A9-4419-AAED-5127620CC6BD},,,116
-8575702.2310099,4714064.38652475,NINETEENTH STREET BAPTIST CHR,EVERYBLESSING.ORG,CHRISTIAN,4606 16TH ST NW,CHURCHES,1,,PlacesofWorshipPt_455,396806.32,142108.34,,{1B81AA0D-CA92-498B-B1B3-DA3C7AF83AA7},,,117
-8572946.43920106,4714059.86358715,SAINT PAUL'S ROCK CREEK EPISCOPAL PARISH,STPAULSROCKCREEK.ORG,CHRISTIAN,ROCK CREEK CHURCH ROAD AND WEBSTER STREET NORTHWEST,CHURCHES,1,,PlacesofWorshipPt_740,398952.3125,142104.25,,{285673C1-3F19-45C1-A4DC-9377D69C62C1},,,118
-8580475.51510017,4714019.79783519,SAINT ANN'S CATHOLIC CHURCH,STANNDC.ORG,CHRISTIAN,4001 YUMA STREET NORTHWEST,CHURCHES,1,,PlacesofWorshipPt_724,393089.21875,142076.125,,{35AAFD94-581B-4E1B-B3AE-C94C32557506},,,119
-8575275.31610059,4714001.37054322,WASHINGTON D C CHURCH OF GOD,,CHRISTIAN,4604 14TH ST NW,CHURCHES,1,,PlacesofWorshipPt_575,397138.75,142059.34,,{C040AE19-A672-4462-ABBE-D83126C38F22},,,120
-8569246.55784803,4713950.562615,UNION WESLEY AME ZION CHURCH,,CHRISTIAN,1860 MICHIGAN AVE NE,CHURCHES,1,,PlacesofWorshipPt_305,401833.51,142019.63,,{63D96D89-ADB9-4E87-9D58-69389CD3B289},,,121
-8575146.50565755,4713934.71689382,Ethiopian Orthodox Tewhahedo,<Null>,CHRISTIAN,1350 BUCHANAN STREET NW,CHURCHES,1,259641,PlacesofWorshipPt_660,397239.04,142007.61,,{5B738139-700C-4867-AEA0-DE67F3082575},,,122
-8574192.27320079,4713932.35011974,New Southern Rock Baptist,NSRBC.ORG,CHRISTIAN,750 BUCHANAN STREET NW,CHURCHES,1,285402,PlacesofWorshipPt_656,397982.13,142005.55,,{3A361B22-9899-4CCA-95CF-9116A197F9B8},,,123
-8575581.58306623,4713863.26579806,SIMPSON-HAMLINE UNITED MTHDST,,CHRISTIAN,4501 16TH ST NW,CHURCHES,1,,PlacesofWorshipPt_402,396900.21,141952.32,,{5C6894EE-2C77-4AD9-9677-AD5D1ACE4D39},,,124
-8575607.61130811,4713762.3631057,Iglesia Pentecostal Emmanuel,,CHRISTIAN,4411 16TH STREET NW,CHURCHES,1,255453,PlacesofWorshipPt_706,396879.91,141874.07,,{C9EDA910-0252-4D79-9475-515352FCB22A},,,125
-8569180.53570699,4713752.47482359,RHEMA CHRISTIAN CTR CHURCH,RHEMACHRISTIANCENTER.ORG,CHRISTIAN,1825 MICHIGAN AVE NE,CHURCHES,1,,PlacesofWorshipPt_266,401884.96,141866.01,,{219DC127-8CFC-4393-B050-1A7938577CF9},,,126
-8574543.87488729,4713724.1251796,Christ Apostolic Church,<Null>,CHRISTIAN,4408 GEORGIA AVENUE NW,CHURCHES,1,252657,PlacesofWorshipPt_630,397708.28,141844.13,,{881B4709-2E6C-4A14-A7CE-8AE38B1FB952},,,127
-8580322.03632942,4713718.34563164,MARCHAR THE WA CONGRGTN FOR,,CHRISTIAN,4268 WISCONSIN AVE NW,CHURCHES,1,,PlacesofWorshipPt_579,393208.55,141842.23,,{3A1FF2D3-C921-4A86-A9E9-566C054B84B0},,,128
-8575607.68200069,4713713.48379553,JEMBOLLA SISAY,,CHRISTIAN,4401 16TH ST NW,CHURCHES,1,,PlacesofWorshipPt_445,396879.84,141836.16,,{9D2D1160-6DB8-47E6-BE26-A500B8F56B7E},,,129
-8575607.68200069,4713713.48379553,ERITREAN EVANGELICAL CHURCH,ERITREANCHURCHDC.COM,CHRISTIAN,4401 16TH ST NW,CHURCHES,1,,PlacesofWorshipPt_429,396879.84,141836.16,,{4DF60A5D-883B-4010-8CDD-1FA09A13BE7B},,,130
-8574550.78883034,4713693.98468135,SAINT CHARLES BAPTIST CHURCH,,CHRISTIAN,4410 GEORGIA AVENUE NORTHEAST,CHURCHES,1,,PlacesofWorshipPt_752,397702.875,141820.75,,{CB94B765-5CF6-43C9-8EA8-D97A77302411},,,131
-8574473.4423859,4713682.57689441,FIRST MYSTERY CHURCH OF GOD,,CHRISTIAN,909 WEBSTER ST NW,CHURCHES,1,,PlacesofWorshipPt_467,397763.12,141811.89,,{17277097-FEE7-42B2-ABD5-A3A0B6445828},,,132
-8574160.61037964,4713641.49219875,MOORISH SCIENCE TEMPLE-AMER,,ISLAMIC,732 WEBSTER ST NW,MOSQUES,1,,PlacesofWorshipPt_399,398006.73,141779.96,,{B6C3F5CC-EF2B-4B50-AE3C-8111EBA653CB},,,133
-8575603.2170304,4713624.81751262,ST GEORGE ANTIOCHIAN ORTHODOX,SAINTGEORGE.ORG,CHRISTIAN,4335 16TH ST NW,CHURCHES,1,,PlacesofWorshipPt_458,396883.29,141767.39,,{671967E3-E772-4EF1-818C-87402E637159},,,134
-8569273.57397623,4713622.47916952,OUR REDEEMER CHURCH,OURREDEEMERCHURCH.ORG,CHRISTIAN,1725 MICHIGAN AVE NE,CHURCHES,1,,PlacesofWorshipPt_251,401812.53,141765.17,,{B8793307-984B-49BC-A041-9D0E95E40D6B},,,135
-8573849.06663612,4713607.86295491,ST GABRIEL CATHOLIC CHURCH,SGDC.ORG,CHRISTIAN,26 GRANT CIR NW,CHURCHES,1,,PlacesofWorshipPt_457,398249.34,141753.82,,{6DC1FD7C-B825-4FC8-AA38-709DEA557F27},,,136
-8574521.93300006,4713602.21143209,First Hijra Foundation,FIRSTHIJRAHFOUNDATION.COM,CHRISTIAN,4324 GEORGIA AVENUE NW,CHURCHES,1,252611,PlacesofWorshipPt_694,397725.34,141749.57,,{1B1A8B8A-791F-4AE4-BA9F-42FA96201307},,,137
-8580262.11503893,4713591.96434858,RESTORATION CHURCH,RESTORATIONCHURCHDC.COM,CHRISTIAN,3950 CHESAPEAKE ST NW,CHURCHES,1,,PlacesofWorshipPt_422,393255.13,141744.17,,{0F4847FD-D67D-494A-9F89-EF21AEFE734F},,,138
-8570418.90559365,4713593.16483583,JOSEPHITE PASTORAL CTR,JOSEPHITEPASTORALCENTER.ORG,CHRISTIAN,1200 VARNUM ST NE,CHURCHES,1,,PlacesofWorshipPt_323,400920.6,141742.28,,{E6228318-4ABD-483D-90A5-F4130368893B},,,139
-8575691.96557211,4713539.45409262,OROMO EVANGELICAL LUTHERAN CHR,,CHRISTIAN,4300 16TH ST NW,CHURCHES,1,,PlacesofWorshipPt_403,396814.15,141701.21,,{1529FB0A-7F29-476F-8919-1917634FC4EE},,,140
-8575691.96557211,4713539.45409262,GRACE LUTHERAN CHURCH,,CHRISTIAN,4300 16TH ST NW,CHURCHES,1,,PlacesofWorshipPt_466,396814.15,141701.21,,{752CFBE0-0E40-4329-B59C-F27AE6A6E820},,,141
-8575715.87433921,4713530.60478563,GRACE EVANGELICAL LUTHERAN CHURCH,GRACEELCADC.ORG,CHRISTIAN,4300 16TH STREET NORTHWEST,CHURCHES,1,,PlacesofWorshipPt_729,396795.53125,141694.359375,,{93B248E7-A0CA-40E5-8A7C-03D2B7637A65},,,142
-8568825.76866336,4713530.82384914,Northeastern Presbyterian,http://www.nepc-dc.org/,CHRISTIAN,2112 VARNUM STREET NE,CHURCHES,1,51647,PlacesofWorshipPt_612,402161.28,141694.17,,{EF1C182E-8948-4319-9D93-ED815FD358A0},,,143
-8573835.62994168,4713467.71625218,PETWORTH UNITED METHODIST CHR,UMC.ORG,CHRISTIAN,32 GRANT CIR NW,CHURCHES,1,,PlacesofWorshipPt_486,398259.78,141645.12,,{3100E273-DE22-4414-9819-682DD96D1997},,,144
-8573152.70124665,4713449.53574606,VICTORY CHURCH OF JESUS CHRIST,VICTORYONTHEHILL.COM,CHRISTIAN,4210 2ND ST NW,CHURCHES,1,,PlacesofWorshipPt_405,398791.62,141630.92,,{77ED41EE-594B-433E-910B-79036123A34E},,,145
-8573187.15060618,4713433.5429182,ST MARY ORTHODOX CHURCH,,CHRISTIAN,211 UPSHUR ST NW,CHURCHES,1,,PlacesofWorshipPt_560,398764.79,141618.52,,{A4D4F6BA-5F97-43C3-986C-341FB357D464},,,146
-8581765.0540438,4713416.88198972,ARABIC BAPTIST CHURCH,ABCDC.ORG,CHRISTIAN,4605 MASSACHUSETTS AVE NW,CHURCHES,1,,PlacesofWorshipPt_434,392084.57,141609.46,,{4FE6E4C3-68F3-4045-AEC5-5AED39A715F0},,,147
-8581765.0540438,4713416.88198972,NORTHWEST BAPTIST CHURCH,NWBCDC.COM,CHRISTIAN,4605 MASSACHUSETTS AVE NW,CHURCHES,1,,PlacesofWorshipPt_417,392084.57,141609.46,,{09CBB5EF-4BAE-432A-B16D-8E7D99B0D76A},,,148
-8574358.89034534,4713409.73569344,Praise Temple Church Of Christ,,CHRISTIAN,4211 9TH STREET NW,CHURCHES,1,284852,PlacesofWorshipPt_670,397852.27,141600.25,,{3E6BDA5E-61AC-42B0-B618-52A89E0E5756},,,149
-8574285.57761495,4713395.87986952,CHRIST OUR REDEEMER AFRICAN METHODIST EPISCOPAL CHURCH,,CHRISTIAN,809 UPSHUR STREET NORTHWEST,CHURCHES,1,,PlacesofWorshipPt_751,397909.375,141589.484375,,{CFE5357C-3701-42D7-A0DB-F584C5BFFD71},,,150
-8570933.45657745,4713391.43329119,DIVINE WORD HOUSE,,CHRISTIAN,832 VARNUM ST NE,CHURCHES,1,,PlacesofWorshipPt_207,400519.9,141585.78,,{E305234D-5A20-49BA-BB20-1DE2633CDD95},,,151
-8580616.66306549,4713383.79059603,NATIONAL PRESBYTERIAN CHURCH,NATIONALPRES.ORG,CHRISTIAN,4101 NEBRASKA AVE NW,CHURCHES,1,,PlacesofWorshipPt_416,392978.88,141582.95,,{3EB25C47-C440-4828-AEC7-EDD09DF383A2},,,152
-8575782.40496223,4713384.95706233,UNIFICATION CHURCH,,CHRISTIAN,1611 UPSHUR ST NW,CHURCHES,1,,PlacesofWorshipPt_576,396743.67,141581.41,,{6BD24501-9DC0-4315-807C-37EE86D971B0},,,153
-8570974.87342798,4713301.2364069,RELIGIOUS THE SACRED HEART,,CHRISTIAN,821 VARNUM ST NE,CHURCHES,1,,PlacesofWorshipPt_348,400487.65,141515.82,,{AF134BAD-94BB-4CBC-8D79-5F7385FF9653},,,154
-8570092.05743046,4713292.2214046,OLD WAY BAPTIST CHURCH,,CHRISTIAN,1335 MICHIGAN AVE NE,CHURCHES,1,,PlacesofWorshipPt_236,401175.17,141508.9,,{D51F9317-EF2F-4DAC-8DAB-A1063DDA01BD},,,155
-8571203.02587152,4713286.84651596,TRANSFORMATION CHURCH DC INC,,CHRISTIAN,4323 VARNUM PL NE,CHURCHES,1,,PlacesofWorshipPt_562,400309.97,141504.65,,{FB842D13-C0D3-4128-9373-20387E3A6F2A},,,156
-8573654.90416112,4713255.80596193,DEBRE HAIL KEDUS GABRIEL,KEDUSGABRIEL.ORG,CHRISTIAN,4100 ILLINOIS AVE NW,CHURCHES,1,,PlacesofWorshipPt_493,398400.49,141480.73,,{670F0AE4-C2C7-4310-8909-3CABA7BBA5FA},,,157
-8573654.90416112,4713255.80596193,KEDUS YOHANNES METEMIK,,CHRISTIAN,4100 ILLINOIS AVE NW,CHURCHES,1,,PlacesofWorshipPt_588,398400.49,141480.73,,{EA34C0C6-123B-4729-ABA4-760F103BD8D4},,,158
-8574354.0177412,4713244.88723591,CENTRO EVANGELISTICO,CENTROEVANGELISTICODC.ORG,CHRISTIAN,4101 9TH ST NW,CHURCHES,1,,PlacesofWorshipPt_479,397856.03,141472.39,,{F49E4179-2EE8-4F3B-B5F7-2FAD0C7176A2},,,159
-8575707.94903181,4713243.74500653,NORTHWEST COMMUNITY CHURCH,,CHRISTIAN,4100 16TH ST NW,CHURCHES,1,,PlacesofWorshipPt_394,396801.61,141471.86,,{A0123EE6-ED86-453A-ABAB-A4ADAEF75DDA},,,160
-8569619.76824456,4713222.35070699,MICHIGAN PARK CHRISTIAN CHURCH,MICHIGANPARKCC.COM,CHRISTIAN,1600 TAYLOR ST NE,CHURCHES,1,,PlacesofWorshipPt_319,401542.99,141454.77,,{63FAE453-5ECB-4B0C-8E3C-339338B87BAE},,,161
-8570326.98660162,4713208.14045262,REDEEMER CITY CHURCH OF FL INC,,CHRISTIAN,4200 13TH ST NE,CHURCHES,1,,PlacesofWorshipPt_597,400992.22,141443.66,,{0853177F-08AA-49AD-AF46-F6FCDAFEE18C},,,162
-8581029.28398995,4713130.84253445,TEMPLE BAPTIST CHURCH,TEMPLE-BAPTIST.COM,CHRISTIAN,3850 NEBRASKA AVE NW,CHURCHES,1,,PlacesofWorshipPt_452,392657.36,141387.05,,{766DA65C-0AE8-4EF4-8370-640B4D7BAC6F},,,163
-8572043.82095966,4713135.16029654,ST JOSAPHAT'S UKRAINIAN SMNRY,SJUCS.ORG,CHRISTIAN,201 TAYLOR ST NE,CHURCHES,1,,PlacesofWorshipPt_234,399655.17,141387,,{6CB4188B-1530-4013-B080-37245946F85A},,,164
-8575809.22897816,4713104.21619883,RUSSIAN ORTHODOX CHURCH,STJOHNDC.ORG,CHRISTIAN,4001 17TH ST NW,CHURCHES,1,,PlacesofWorshipPt_491,396722.69,141363.67,,{28D92629-64B6-4391-A9A6-B0501624083D},,,165
-8575214.83559571,4713067.01844101,Iglesia Primitiva Pentecostal,,CHRISTIAN,4001 14TH STREET NW,CHURCHES,1,255304,PlacesofWorshipPt_677,397185.59,141334.64,,{C3A7D3F1-EDE5-4D09-9E4A-B1038F82BB85},,,166
-8574931.5391394,4713065.001247,NEW CHRIST HOLY TEMPLE FWB,HTCONLINE.ORG,CHRISTIAN,4000 13TH ST NW,CHURCHES,1,,PlacesofWorshipPt_563,397406.22,141333,,{F736B69D-8CF7-42CE-9525-53B50696FC4A},,,167
-8581573.18055193,4713055.10519375,UNITED METHODIST PUB HSE,UMPH.ORG,CHRISTIAN,4500 MASSACHUSETTS AVE NW,CHURCHES,1,,PlacesofWorshipPt_216,392233.72,141328.71,,{25E3E590-EDAB-40C7-BAD9-E5508DDD481D},,,168
-8571985.5855056,4713022.4033074,UKRAINIAN CATHOLIC NATL SHRINE,UCNS-HOLYFAMILY.ORG,CHRISTIAN,4250 HAREWOOD RD NE,CHURCHES,1,,PlacesofWorshipPt_262,399700.52,141299.54,,{D9E557F0-476F-421F-AC1A-E3F738F78E93},,,169
-8574228.48181023,4713018.83341385,FIRST CHURCH 7TH DAY ADVENTIST,FIRSTSDACHURCH.ORG,CHRISTIAN,810 SHEPHERD ST NW,CHURCHES,1,,PlacesofWorshipPt_465,397953.75,141297.03,,{D2B8FC72-3A86-49A1-B1D9-E267DC77E0B5},,,170
-8573956.81535592,4712940.41043003,ISRAEL METROPOLITAN CHRISTIAN,ISRAELCME.ORG,CHRISTIAN,557 RANDOLPH ST NW,CHURCHES,1,,PlacesofWorshipPt_435,398165.31,141236.15,,{87663528-AF43-4822-92D0-73D631B4248A},,,171
-8574082.47534194,4712860.56319933,FIRST BAPTIST CHURCH,1FBC.ORG,CHRISTIAN,712 RANDOLPH ST NW,CHURCHES,1,,PlacesofWorshipPt_464,398067.43,141174.24,,{062FCB4C-4CEF-400F-BC6C-0E61CA35EA3A},,,172
-8575215.14285728,4712846.98156673,CAPITAL WESLEYAN CHURCH,WESLEYAN.ORG,CHRISTIAN,3831 14TH ST NW,CHURCHES,1,,PlacesofWorshipPt_397,397185.29,141163.97,,{525BCE48-4647-46D7-949F-5641DB0E8AF3},,,173
-8570556.28329675,4712791.8008221,Little Rock Faith Baptist,,CHRISTIAN,3926 12TH STREET NE,CHURCHES,1,29095,PlacesofWorshipPt_676,400813.68,141120.71,,{B4E59B85-EA16-4CCA-AAC4-9C30119232AC},,,174
-8571696.63874086,4712755.84605471,MARIAN FATHERS,,CHRISTIAN,3885 HAREWOOD RD NE,CHURCHES,1,,PlacesofWorshipPt_261,399925.55,141092.78,,{7C876544-9378-4893-A4C2-A90D94ECF18E},,,175
-8569955.67896224,4712725.44182944,FRANCISCAN MONASTERY,MYFRANCISCAN.ORG,CHRISTIAN,1400 QUINCY ST NE,CONVENTS & MONASTERIES,1,,PlacesofWorshipPt_249,401281.45,141069.3,,{0687D8F0-9B59-4AFB-9E36-C7299E7FE930},,,176
-8570251.30459638,4712723.87402841,MONASTERY OF THE HOLY CROSS,,CHRISTIAN,1302 QUINCY ST NE,CHURCHES,1,,PlacesofWorshipPt_326,401051.21,141068.05,,{EC93942B-7B00-4B3C-AFAC-CC3B0B35B535},,,177
-8570195.86233406,4712721.42985331,SERVANTS OF THE LORD,,CHRISTIAN,1326 QUINCY ST NE,CHURCHES,1,,PlacesofWorshipPt_299,401094.39,141066.16,,{AE5CD34C-FBA6-46A2-9230-1C4D1A61AC60},,,178
-8570345.88411746,4712715.98325849,POOR CLARES OF PERPETUAL ADRTN,,CHRISTIAN,3900 13TH ST NE,CONVENTS & MONASTERIES,1,,PlacesofWorshipPt_340,400977.55,141061.92,,{20568737-CD3C-4EF7-BC37-F2CD63CD40F4},,,179
-8573929.56343822,4712692.9867362,True Temple Missionary Baptist Church,,CHRISTIAN,617 ROCK CREEK CHURCH ROAD NW,CHURCHES,1,247811,PlacesofWorshipPt_712,398186.49,141044.23,,{4A9F5A27-DD86-41EF-B792-6C9472F3A3CF},,,180
-8575182.14747758,4712674.08202219,ABBAS HOUSE CHR-GOD-PROPHECY,ABBASHOUSECOGOP.ORG,CHRISTIAN,1371 SPRING RD NW,CHURCHES,1,,PlacesofWorshipPt_164,397210.94,141029.85,,{F3DCFB73-7366-4688-828C-FD3C8C0D4245},,,181
-8568238.38463629,4712643.52553225,SHARON BAPTIST CHURCH,,CHRISTIAN,3825 26TH ST NE,CHURCHES,1,,PlacesofWorshipPt_178,402618.94,141006.09,,{956B4D76-CD2B-41FB-A944-A35BEE8E0B65},,,182
-8578004.91076426,4712622.77109221,ADAS ISRAEL CONGREGATION,ADASISRAEL.ORG,JEWISH,2850 QUEBEC ST NW,SYNAGOGUES,1,,PlacesofWorshipPt_199,395012.47,140991.13,,{A60D4D87-2F51-4E6A-AF98-E1EB721B0E7C},,,183
-8574217.95035645,4712608.84659778,Faith Deliverance Center,,CHRISTIAN,807 ROCK CREEK CHURCH ROAD NW,CHURCHES,1,228318,PlacesofWorshipPt_696,397961.87,140979.02,,{196F3240-82F7-46DC-BE61-38DFC4F0453A},,,184
-8578200.96777422,4712543.95843758,SHAMBHALA MEDITATION CENTER OF WASHINGTON DISTRICT OF COLUMBIA,,BUDDHIST,3520 CONNECTICUT AVENUE NORTHWEST,TEMPLES,1,,PlacesofWorshipPt_723,394859.75,140930.09375,,{1F079BCD-FF23-4A95-87B8-46EC73191FEF},,,185
-8574262.89702116,4712441.11014179,Fisherman Of Men,FISHERMANOFMENCHURCH.ORG,CHRISTIAN,3641 GEORGIA AVENUE NW,CHURCHES,1,228340,PlacesofWorshipPt_617,397926.83,140848.92,,{4EBA79DE-988A-4122-BB56-443A8E455E1F},,,186
-8578065.76995309,4712418.16242691,WILLIAMS CORNER WORSHIP CTR,WILLIAMSCORNER.COM,CHRISTIAN,3435 CONNECTICUT AVE NW,CHURCHES,1,,PlacesofWorshipPt_189,394964.97,140832.45,,{01A08AD0-ECD4-4C29-BF8F-F276019DC392},,,187
-8581374.82579863,4712360.43380867,METROPOLITAN MEMORIAL UNITED METHODIST CHURCH,NATIONALCHURCH.ORG,CHRISTIAN,3401 NEBRASKA AVE NW,CHURCHES,1,,PlacesofWorshipPt_478,392387.68,140789.73,,{D8E2B4A5-8D52-4A09-9FA2-93161ABA786C},,,188
-8574254.3612719,4712352.12011741,INTERNATIONAL HOUSE-PRAYER,,CHRISTIAN,3613 GEORGIA AVE NW,CHURCHES,1,,PlacesofWorshipPt_585,397933.46,140779.89,,{B1FA98E4-C74B-4299-AAF7-B9E7B69EAF00},,,189
-8575163.56432184,4712331.8715463,GREATER TRIED STONE BAPTIST,,CHRISTIAN,1363 OTIS PL NW,CHURCHES,1,,PlacesofWorshipPt_161,397225.32,140764.4,,{E670E72D-EB14-4659-872F-D954ACB2D562},,,190
-8567722.72260904,4712315.33174572,MOUNTAIN OF FIRE MIRACLES,MFMWASHINGTONDC.ORG,CHRISTIAN,3010 RHODE ISLAND AVE NE # C,CHURCHES,1,,PlacesofWorshipPt_296,403020.65,140751.66,,{95F5F759-0FD5-4C32-BA56-D0B12C377860},,,191
-8575617.50190102,4712301.94745861,TRINITY AME ZION CHURCH,TRINITYAMEZ.ORG,CHRISTIAN,3505 16TH ST NW,CHURCHES,1,,PlacesofWorshipPt_142,396871.76,140741.32,,{583DA10C-39EE-46E7-B9B1-78A90160755A},,,192
-8570673.93273892,4712260.99760505,GUILDFIELD BAPTIST CHURCH,MAPQUEST.COM,CHRISTIAN,1023 OTIS ST NE,CHURCHES,1,,PlacesofWorshipPt_301,400722.09,140708.97,,{D7E53BBB-63B0-4212-BB06-F18CE1D3BB56},,,193
-8569359.7798317,4712200.31739562,New Light Missionary Baptist,,CHRISTIAN,3518 18TH STREET NE,CHURCHES,1,156289,PlacesofWorshipPt_692,401745.64,140662.06,,{4B534F9A-F155-40EB-9FF7-4A8F38900BE4},,,194
-8569359.24409582,4712184.33173193,Resurrection Church of God in Christ,,CHRISTIAN,3516 18TH STREET NE,CHURCHES,1,33828,PlacesofWorshipPt_673,401746.06,140649.66,,{8C96C95F-C3AE-40DD-9292-C7534C27931A},,,195
-8575580.47762756,4712148.66794377,ST STEPHEN & INCARNATION CHR,SAINTSTEPHENSDC.ORG,CHRISTIAN,1525 NEWTON ST NW,CHURCHES,1,,PlacesofWorshipPt_146,396900.55,140622.41,,{7CD15030-9269-4AE1-9371-19FDE392372B},,,196
-8571676.02604691,4712130.75750829,BASILICA-THE NATIONAL SHRINE,NATIONALSHRINE.COM,CHRISTIAN,400 MICHIGAN AVE NE,CHURCHES,1,,PlacesofWorshipPt_421,399941.6,140607.91,,{3D7C29EB-9D69-498E-8169-B974C5905520},,,197
-8575712.57215516,4712098.06763285,CANAAN BAPTIST CHURCH,CANAANBAPT.COM,CHRISTIAN,1607 MONROE ST NW,CHURCHES,1,,PlacesofWorshipPt_156,396797.65,140583.2,,{1B01CE91-142E-468F-A027-1C0F927A8F70},,,198
-8575612.65736732,4712062.95280646,TRUTHABOUTIT.NET,KYLEWEIDIE.COM,CHRISTIAN,3355 16TH ST NW,CHURCHES,1,,PlacesofWorshipPt_143,396875.46,140555.93,,{5EF12744-0196-4686-8632-157A83A71074},,,199
-8575763.76427578,4712041.64676008,SPANISH CATHOLIC CTR,CATHOLICCHARITIESDC.ORG,CHRISTIAN,1618 MONROE ST NW,CHURCHES,1,,PlacesofWorshipPt_141,396757.76,140539.45,,{2D5516F9-889D-469B-9BFC-A26263D0E7BE},,,200
-8569299.53681252,4712035.70551941,MASJID HADEETH,MAQWH.COM,ISLAMIC,3415 18TH ST NE,MOSQUES,1,,PlacesofWorshipPt_219,401792.59,140534.38,,{7FAE26EF-0B53-4A5E-8FEC-3A778E1B12F1},,,201
-8569703.69114413,4711993.40259075,St Paul Temple Church Of God,,CHRISTIAN,3420 16TH STREET NE,CHURCHES,1,289759,PlacesofWorshipPt_675,401477.81,140501.5,,{71F10643-E31C-4980-BF24-27DCA06E7A9F},,,202
-8569351.99498695,4711986.67864641,Progressive Pentecostal (Purity),,CHRISTIAN,3406 18TH STREET NE,CHURCHES,1,35162,PlacesofWorshipPt_672,401751.74,140496.34,,{6DB54BC2-F356-4F9C-B414-77CB61496F04},,,203
-8579024.06228012,4711981.91127551,CLEVELAND PARK CONGREGATIONAL,CPCCHURCH.ORG,CHRISTIAN,3400 LOWELL ST NW,CHURCHES,1,,PlacesofWorshipPt_427,394218.36,140494.56,,{AB280457-E68C-4422-BA88-1875126F806C},,,204
-8583393.41909621,4711977.24633212,SAINT DAVIDS EPISCOPAL CHURCH,STDAVIDSDC.ORG,CHRISTIAN,5150 MACOMB STREET NORTHWEST,CHURCHES,1,,PlacesofWorshipPt_721,390815.15625,140494.15625,,{E89F19EF-BBF5-480B-A17B-858F597F7024},,,205
-8570675.44769104,4711978.71306013,ST ANTHONYS CATHOLIC CHURCH,,CHRISTIAN,1029 MONROE ST NE,CHURCHES,1,,PlacesofWorshipPt_233,400720.93,140490,,{67FF2568-D56B-4E25-AD7A-B11013E8DA7D},,,206
-8569352.58871133,4711972.45967219,PURITY PENTECOSTAL MINISTRY,,CHRISTIAN,3400 18TH ST NE,CHURCHES,1,,PlacesofWorshipPt_328,401751.28,140485.31,,{90EE3823-728F-480B-8952-F224F1899F8E},,,207
-8574879.72371825,4711971.43040503,MT RONA MISSIONARY BAPTIST CHR,MTRONACHURCH.ORG,CHRISTIAN,3431 13TH ST NW,CHURCHES,1,,PlacesofWorshipPt_167,397446.3,140484.73,,{F1B839F0-7527-4924-BFA1-F2F1282A8148},,,208
-8574697.10254543,4711970.80468799,PARK ROAD COMMUNITY CHURCH,PARKROADCOMMUNITYCHURCH.ORG,CHRISTIAN,1019 PARK RD NW,CHURCHES,1,,PlacesofWorshipPt_173,397588.54,140484.2,,{3DEB3BD0-ED27-4F84-99F0-2FD77CA09B65},,,209
-8570140.51903947,4711937.82335973,Bunton Memorial CME,,CHRISTIAN,1348 LAWRENCE STREET NE,CHURCHES,1,289604,PlacesofWorshipPt_684,401137.58,140458.33,,{13D7F5A2-89B7-4CD8-86B1-1615D0836FDA},,,210
-8568400.84007252,4711926.58134263,MCKENDREE UNITED MTHDST CHR,MSBUMC.ORG,CHRISTIAN,2421 LAWRENCE ST NE,CHURCHES,1,,PlacesofWorshipPt_248,402492.59,140449.92,,{9DD865EC-443D-4B8C-ABAD-275B828B9ACE},,,211
-8569388.65194407,4711919.38141001,JONES R L AME ZION CHURCH,,CHRISTIAN,1723 LAWRENCE ST NE,CHURCHES,1,,PlacesofWorshipPt_208,401723.2,140444.13,,{A2FC5AD0-3A0D-401F-BF33-FDA717DA0D96},,,212
-8580073.2916628,4711854.66430653,CHRIST CHURCH ON EMBASSY ROW,www.REPRESENTJESUS.COM,CHRISTIAN,3855 MASSACHUSETTS AVENUE NORTHWEST,CHURCHES,1,,PlacesofWorshipPt_728,393401.0625,140396.484375,,{D9568065-7110-4C90-B3EC-1E11A9B427B5},,,213
-8579631.28275317,4711854.41750965,PROTESTANT EPISCOPAL CATHEDRAL,CATHEDRAL.ORG,CHRISTIAN,3101 WISCONSIN AVENUE NW,CHURCHES,1,,PlacesofWorshipPt_566,393745.33,140396.02,,{FE00EC58-D90E-4B23-BACE-CEE94665A4D4},,,214
-8575573.74334866,4711805.39591026,SHRINE OF THE SACRED HEART,SACREDHEARTDC.ORG,CHRISTIAN,3211 SACRED HEART WAY NORTHWEST,CHURCHES,1,,PlacesofWorshipPt_763,396905.6875,140356.125,,{C53B03CC-AF19-4BCD-A07B-8F29FF2364D1},,,215
-8570557.57894417,4711798.56014152,TRUE PENTECOSTAL CHR OF CHRIST,,CHRISTIAN,3311 12TH ST NE,CHURCHES,1,,PlacesofWorshipPt_260,400812.75,140350.26,,{B22B420E-49AC-4511-B66A-803008BF9A2D},,,216
-8575212.33919898,4711782.28100104,LA RED CHURCH,IGLESIALARED.NET,CHRISTIAN,3333 14TH ST NW,CHURCHES,1,,PlacesofWorshipPt_166,397187.18,140338.09,,{6B70B501-DF8C-4B4F-9FAF-B3A1ACDB310D},,,217
-8575357.91488489,4711776.09186304,KELSEY TEMPLE CHR-GOD IN CHRST,KELSEYTEMPLE.ORG,CHRISTIAN,1435 PARK RD NW,CHURCHES,1,,PlacesofWorshipPt_153,397073.79,140333.33,,{46C52669-5BE6-4CFD-9FE5-C63387F82A56},,,218
-8570740.9954725,4711767.13609727,IMMANUEL BIBLE ASSEMBLY,,CHRISTIAN,3303 10TH ST NE,CHURCHES,1,,PlacesofWorshipPt_206,400669.89,140325.87,,{CFB1F32F-FA43-4B53-9434-8E62DD752F26},,,219
-8568423.26927647,4711762.66475868,RISING SUN BAPTIST CHURCH,RISINGSUNDC.ORG,CHRISTIAN,3126 SOUTH DAKOTA AVE NE,CHURCHES,1,,PlacesofWorshipPt_278,402475.16,140322.76,,{48DFBABC-3F24-4917-AB50-180F146A1DA6},,,220
-8568331.8463863,4711758.66520845,PENTECOSTAL CHURCH OF GOD,,CHRISTIAN,3115 SOUTH DAKOTA AVE NE,CHURCHES,1,,PlacesofWorshipPt_294,402546.37,140319.68,,{A57E62C8-42E3-44FB-8221-4437FB856903},,,221
-8574521.11908762,4711745.77751705,Greater Harvest Baptist,,CHRISTIAN,3231 SHERMAN AVENUE NW,CHURCHES,1,242951,PlacesofWorshipPt_631,397725.56,140309.6,,{88AD75D1-D19B-443E-A399-94C74042824B},,,222
-8568525.24050593,4711741.06513067,SPIRIT OF THE LORD BAPTIST CHR,,CHRISTIAN,2385 RHODE ISLAND AVE NE,CHURCHES,1,,PlacesofWorshipPt_267,402395.74,140305.98,,{6CD9FCCF-A420-4A1A-820B-FD712500FB93},,,223
-8568761.8599632,4711729.32611101,Evangel Missionary Baptist Church,<Null>,CHRISTIAN,3200 22ND STREET NE,CHURCHES,1,39025,PlacesofWorshipPt_614,402211.44,140296.82,,{B6507F6E-66BD-45F2-8FCE-491D83D5D502},,,224
-8579491.38077486,4711724.58559174,WASHINGTON NATIONAL CATHEDRAL,NATIONALCATHEDRAL.ORG,CHRISTIAN,3101 WISCONSIN AVE NW,CHURCHES,1,,PlacesofWorshipPt_495,393854.22,140295.22,,{0E2E51AC-CC3F-4042-AB6D-173C8FBDC2D2},,,225
-8568760.44247523,4711702.02263568,Evangelical Missionary Baptist Church,,CHRISTIAN,2026 JACKSON STREET NE,CHURCHES,1,52405,PlacesofWorshipPt_690,402212.55,140275.64,,{0A6C15E2-6EC4-4C27-9A32-C6660D0EE15D},,,226
-8579918.25931532,4711686.0091777,Sikh Cultural Society - Sikh Temple,,SIKHISM,3801 MASSACHUSETTS AVENUE NW,TEMPLES,1,222174,PlacesofWorshipPt_708,393521.7,140265.56,,{42CCFDCB-DAF7-4D3C-8C05-B6BE145D1599},,,227
-8580041.01022576,4711672.02402154,ANNUNCIATION CATHOLIC CHURCH,ANNUNCIATIONDC.ORG,CHRISTIAN,3810 MASSACHUSETTS AVENUE NW,CHURCHES,1,263608,PlacesofWorshipPt_686,393426.08,140254.79,,{F1EADD5A-D465-47A3-A47B-9DA3C90E33AB},,,228
-8580151.07115424,4711651.87338339,CHURCH OF THE ANNUNCIATION,<Null>,CHRISTIAN,3125 39TH ST NW,CHURCHES,1,,PlacesofWorshipPt_411,393340.34,140239.23,,{17097CA0-01D6-4CFC-90A0-8F6FECD8B7DF},,,229
-8575722.94434221,4711648.71591139,Meridan Hill Baptist,http://meridianhill.tripod.com/,CHRISTIAN,3146 16TH STREET NW,CHURCHES,1,236414,PlacesofWorshipPt_669,396789.43,140234.63,,{4A8A5F1B-CAEB-4C1B-AAFA-62881B4DB153},,,230
-8568721.9910402,4711610.46062161,NEW COVENANT CHURCH,,CHRISTIAN,2119 RHODE ISLAND AVE NE,CHURCHES,1,,PlacesofWorshipPt_269,402242.52,140204.62,,{6E036D5F-38FA-424A-8513-2EF4ADB47FB1},,,231
-8568905.93522635,4711582.80888988,OASIS COMMUNITY PARTNERS,,CHRISTIAN,2006 RHODE ISLAND AVE NE,CHURCHES,1,,PlacesofWorshipPt_565,402099.25,140183.13,,{B4089C6F-4508-4759-BFAF-F8E56440DA80},,,232
-8569503.70607698,4711582.46053873,CONCORD BAPTIST CHURCH,,CHRISTIAN,3108 17TH ST NE,CHURCHES,1,,PlacesofWorshipPt_318,401633.64,140182.75,,{1261596C-311B-43DA-84A9-C78BEAE771F2},,,233
-8579644.07104453,4711573.7489565,SAINT ALBANS EPISCOPAL CHURCH,STALBANSDC.ORG,CHRISTIAN,3001 WISCONSIN AVENUE NORTHWEST,CHURCHES,1,,PlacesofWorshipPt_727,393735.1875,140178.296875,,{9BA4DDEC-64AB-4832-8390-4D0000A7590F},,,234
-8570494.37308995,4711569.64915963,GRACE UNITED BAPTIST CHURCH,,CHRISTIAN,1219 JACKSON ST NE,CHURCHES,1,,PlacesofWorshipPt_288,400862,140172.69,,{A9F5E8DE-A3B1-423A-909D-26D18AAFA079},,,235
-8570650.74656913,4711554.18321791,GUIDING STAR BAPTIST CHURCH,GUIDINGSTARBAPTIST.ORG,CHRISTIAN,1025 JACKSON ST NE,CHURCHES,1,,PlacesofWorshipPt_300,400740.2,140160.68,,{03DD0DAA-2A60-48AD-AA45-77E454363414},,,236
-8568784.15949208,4711547.50655335,Daughter Of Zion Baptist,,CHRISTIAN,2964 MILLS AVENUE NE,CHURCHES,1,42596,PlacesofWorshipPt_688,402194.11,140155.77,,{52D4F52B-3EC6-4EA7-9412-D4DFFEA3015A},,,237
-8569566.70115837,4711546.78397497,CHURCH OF OUR SAVIOUR,,CHRISTIAN,1616 IRVING STREET NORTHEAST,CHURCHES,1,,PlacesofWorshipPt_738,401584.59375,140155.0625,,{7902DABE-35EE-4EEE-BC11-AFCC0230CDDB},,,238
-8569333.90285511,4711533.5421204,CAPITOL TEMPLE CHR-GOD,,CHRISTIAN,3100 18TH ST NE,CHURCHES,1,,PlacesofWorshipPt_217,401765.91,140144.83,,{C00D062D-ECB9-4CDA-8BC7-EA0162A63E79},,,239
-8568871.15320779,4711516.01381492,SAINT FRANCIS DE SALES CATHOLIC CHURCH,,CHRISTIAN,2015 RHODE ISLAND AVENUE NORTHEAST,CHURCHES,1,,PlacesofWorshipPt_773,402126.34375,140131.328125,,{B745FC73-27C0-4E65-9BB3-AD9F8F98DEE5},,,240
-8570011.51601806,4711511.8342978,BROOKLAND UNION BAPTIST CHURCH,BROOKLANDUNIONBAPTIST.ORG,CHRISTIAN,3101 14TH ST NE,CHURCHES,1,,PlacesofWorshipPt_218,401238.11,140127.89,,{320A09AD-0714-43C7-BCAA-BF603CBC608F},,,241
-8574941.78410199,4711491.72341819,SOUTHWEST CHURCH OF CHRIST,13THSTCOC.WORDPRESS.COM,CHRISTIAN,3100 13TH ST NW,CHURCHES,1,,PlacesofWorshipPt_140,397397.84,140112.62,,{B0CA40FD-FFD2-40A3-86C3-3CC0EA8E88EF},,,242
-8567382.81754694,4711466.27217078,DEBRE MEHERET ST MICHAEL'S,,CHRISTIAN,3010 EARL PL NE,CHURCHES,1,,PlacesofWorshipPt_339,403285.66,140093.13,,{E27CF3DA-A529-43EF-A0D8-DF3E2C131DFA},,,243
-8569254.73813439,4711436.03185304,PLEASANT GROVE BAPTIST CHURCH,,CHRISTIAN,1800 HAMLIN ST NE,CHURCHES,1,,PlacesofWorshipPt_265,401827.59,140069.2,,{7614C6C2-5F94-4B8D-BF41-4E516B251F0D},,,244
-8569096.36716387,4711376.41362927,INTERNATIONAL HOUSE OF PRAYER,,CHRISTIAN,1915 RHODE ISLAND AVE NE,CHURCHES,1,,PlacesofWorshipPt_354,401950.96,140022.98,,{5EC3609E-864B-4BE9-A559-566D12BCCE11},,,245
-8567396.81840962,4711355.50915407,MT HOREB BAPTIST CHURCH,MTHOREB.ORG,CHRISTIAN,2914 BLADENSBURG RD NE,CHURCHES,1,,PlacesofWorshipPt_297,403274.79,140007.2,,{E2BBA994-409A-41DA-9A39-F0332727587B},,,246
-8571452.97031648,4711345.1663475,ST THOMAS AQUINAS CHURCH,,CHRISTIAN,3015 4TH ST NE,CHURCHES,1,,PlacesofWorshipPt_564,400115.34,139998.5,,{D1835489-385D-4F89-9FEE-0565F2BB2EFF},,,247
-8574137.43646701,4711334.29216127,Iglesia de Dios El Jardin Del Eden,, ,4917 GEORGIA AVENUE NW,CHURCHES,1,237964,PlacesofWorshipPt_697,398024.33,139990.31,,{2D4511FD-35D6-43F4-86E8-71EF9E668707},,,248
-8575451.6318767,4711319.50453506,TABLE CHURCH-COHI PARISH,THETABLECHURCHDC.ORG,CHRISTIAN,1459 COLUMBIA RD NW,CHURCHES,1,,PlacesofWorshipPt_171,397000.66,139979.16,,{4D79ADE7-B78D-4001-9B2A-F8A376A69AF1},,,249
-8569545.00888416,4711319.9253493,ST PAUL BAPTIST CHURCH,,CHRISTIAN,1611 BRENTWOOD RD NE,CHURCHES,1,,PlacesofWorshipPt_279,401601.51,139979.08,,{E9C13D0B-D1E2-4342-823F-8C8D2ED2D536},,,250
-8574266.43016382,4711319.57674443,Old Pentecost,<Null>,CHRISTIAN,727 HOBART PLACE NW,CHURCHES,1,285391,PlacesofWorshipPt_615,397923.85,139978.92,,{F9F66AD1-3400-46F0-B9E2-0E9595CCB420},,,251
-8577487.90314759,4711306.33049484,ALL SOULS MEMORIAL EPISCOPAL,<Null>,CHRISTIAN,2300 CATHEDRAL AVE NW,CHURCHES,1,,PlacesofWorshipPt_183,395414.54,139969.7,,{7C092847-0259-468C-A25F-3907D379888B},,,252
-8570424.10276245,4711284.32048795,FIRST CHURCH OF WASHINGTON DC,FIRSTCHURCHWASH.ORG,CHRISTIAN,1219 HAMLIN ST NE,CHURCHES,1,,PlacesofWorshipPt_292,400916.76,139951.35,,{E6ECF562-AA54-4E57-95F8-8DCEF35358C5},,,253
-8570578.70000982,4711272.00114295,GATE OF HEAVEN HOLY CHURCH,,CHRISTIAN,2932 12TH ST NE,CHURCHES,1,,PlacesofWorshipPt_235,400796.34,139941.78,,{2193F03A-A999-4D48-B5B1-C5366E38CAEA},,,254
-8579433.05380854,4711254.8683101,ST SOPHIA GREEK ORTHODOX,,CHRISTIAN,3601 MASSACHUSETTS AVE NW,CHURCHES,1,,PlacesofWorshipPt_187,393899.37,139930.8,,{B1B59F80-5D7E-405A-B067-19F506F9AC7F},,,255
-8579440.7693835,4711254.75921295,ST SOPHIA CATHEDRAL,,CHRISTIAN,2815 36TH ST NW,CHURCHES,1,,PlacesofWorshipPt_548,393893.36,139930.72,,{E8FF1AC9-110E-4034-8647-4B4307DA26EC},,,256
-8575613.91822744,4711220.98450205,NATIONAL BAPTIST MEMORIAL CHR,NBMCHURCHDC.ORG,CHRISTIAN,1501 COLUMBIA RD NW,CHURCHES,1,,PlacesofWorshipPt_152,396874.22,139902.78,,{CA3891CA-6919-4844-97EF-9195199AF4D4},,,257
-8579708.66397641,4711210.47596766,TEMPLE MICAH,TEMPLEMICAH.ORG,JEWISH,2829 WISCONSIN AVE NW,SYNAGOGUES,1,,PlacesofWorshipPt_184,393684.66,139896.53,,{42D98858-28EF-4006-9667-C54318F4A6B3},,,258
-8570002.802209,4711161.95906866,MARY'S MISSIONARY BAPT CHR INC,,CHRISTIAN,2811 14TH ST NE,CHURCHES,1,,PlacesofWorshipPt_600,401244.94,139856.47,,{596682A0-A930-49D8-8A8A-91FD790DE379},,,259
-8569879.00757963,4711153.80500667,CHURCH-THE REDEEMER,REDEEMERPRESBYDC.ORG,CHRISTIAN,1423 GIRARD ST NE,CHURCHES,1,,PlacesofWorshipPt_276,401341.37,139850.16,,{B16A9EEA-1EDB-4A71-AD03-2AE7C340FAAA},,,260
-8567599.22766873,4711151.80697601,NEW CANAAN BAPTIST CHURCH,NEWCANAANBAPTISTCHURCH.ORG,CHRISTIAN,2826 BLADENSBURG RD NE,CHURCHES,1,,PlacesofWorshipPt_268,403117.19,139849.11,,{CF328784-65AC-4FA5-A931-3A6C352BD12F},,,261
-8577722.58164586,4711095.563297,SAINT THOMAS APOSTLE CATHOLIC,STTHOMASAPOSTLEDC.ORG,CHRISTIAN,2665 WOODLEY ROAD NORTHWEST,CHURCHES,1,,PlacesofWorshipPt_725,395231.65625,139806.296875,,{53418B51-0BFF-4297-9362-53890403BA5B},,,262
-8575607.04693193,4711082.63600508,ALL SOULS CHURCH UNITARIAN,ALL-SOULS.ORG,CHRISTIAN,1500 HARVARD ST NW,CHURCHES,1,,PlacesofWorshipPt_155,396879.53,139795.45,,{5467723E-5C11-48EB-A8C1-F7B0C043FC08},,,263
-8575720.00055682,4711060.64644369,DC SPANISH SEVENTH-DAY ADVENTIST,DCSPANISHDC.ADVENTISTCHURCH.ORG,CHRISTIAN,1610 COLUMBIA RD NW,CHURCHES,1,,PlacesofWorshipPt_139,396874.22,139902.78,,{1762FFB5-C2E6-4430-9BCD-A5D56A53039C},,,264
-8568449.66769372,4711049.06320359,SECOND NEW ST PAUL BAPTIST,SNSPBC.ORG,CHRISTIAN,2400 FRANKLIN ST NE,CHURCHES,1,,PlacesofWorshipPt_203,402454.77,139769.17,,{46E1872A-1BDC-43B9-B6E6-EAA0B0349D6E},,,265
-8568466.85234773,4711049.02471256,SECOND NEW SAINT PAUL BAPTIST CHURCH,SNSPBC.ORG,CHRISTIAN,2400 FRANKLIN STREET NORTHEAST,CHURCHES,1,,PlacesofWorshipPt_747,402441.375,139769.140625,,{F8230344-429F-4CEE-ABCD-0176209BF79B},,,266
-8574393.11011366,4711014.21043054,Cherubim and Seraphim Church Ayo,,CHRISTIAN,774 GIRARD STREET NW,CHURCHES,1,301933,PlacesofWorshipPt_685,397825.11,139742.05,,{E303AC31-2318-4E33-B757-24ED7BB01612},,,267
-8579174.66880786,4710986.39392863,SGI BUDDHIST ASSN,SGI-VA.ORG,BUDDHIST,3417 MASSACHUSETTS AVE NW,CHURCHES,1,,PlacesofWorshipPt_194,394100.48,139722.37,,{38E48A7F-AAEB-4BEC-91DA-49C7CC7A8132},,,268
-8579320.77034606,4710980.72792246,REORGANIZED CHURCH-JESUS CHRST,COFCHRISTDC.ORG,CHRISTIAN,3526 MASSACHUSETTS AVE NW,CHURCHES,1,,PlacesofWorshipPt_193,393986.67,139718.06,,{576B03EF-EECA-48BD-99D5-7F5A88C9BE5D},,,269
-8574859.09510614,4710937.32380428,GREATER FIRST BAPTIST CHURCH,,CHRISTIAN,2701 13TH ST NW,CHURCHES,1,,PlacesofWorshipPt_168,397462.11,139682.51,,{E2330849-2599-4EF8-B08A-52C130D88101},,,270
-8568695.21032722,4710932.90696569,MEKANE HIWOT,,CHRISTIAN,2715 22ND ST NE,CHURCHES,1,,PlacesofWorshipPt_222,402263.53,139679,,{56866DD4-DFF6-4B5D-9BDA-E76F560EF9F6},,,271
-8579242.70997113,4710919.66271206,ST NICHOLAS CATHEDRAL,STNICHOLASDC.ORG,CHRISTIAN,3500 MASSACHUSETTS AVE NW,CHURCHES,1,,PlacesofWorshipPt_175,394047.44,139670.64,,{1F3DD06D-A2F3-4711-BAB6-6CF5F7CCC1FE},,,272
-8567808.60096633,4710910.1206084,UNITY BAPTIST CHURCH,UNITY-BAPTIST-CHURCH.COM,CHRISTIAN,2706 BLADENSBURG RD NE,CHURCHES,1,,PlacesofWorshipPt_241,402954.17,139661.55,,{A945BF85-1404-4F92-B44A-B5D7557B0FEE},,,273
-8568583.85319745,4710901.52597675,WOODRIDGE CHURCH OF OUR LORD,,CHRISTIAN,2226 EVARTS ST NE,CHURCHES,1,,PlacesofWorshipPt_253,402350.28,139654.68,,{248673DB-91B5-4153-8A35-B9BE607A6E48},,,274
-8578913.50471299,4710887.29434537,SECRETARIAT REGISTRIES CHR,,CHRISTIAN,3339 MASSACHUSETTS AVE NW,CHURCHES,1,,PlacesofWorshipPt_580,394303.86,139645.34,,{B91C1A5B-03F1-4645-A472-ADC4C1D6A8C8},,,275
-8573936.68251797,4710867.83121684,ANDREW RANKIN MEMORIAL CHAPEL,CHAPEL.HOWARD.EDU,CHRISTIAN,2455 6TH ST NW,CHURCHES,1,,PlacesofWorshipPt_504,398180.62,139628.4,,{739EED68-9339-4FF5-BF9D-30922A3C7A47},,,276
-8576534.47768339,4710846.3774794,SEVENTH PILLAR,SEVENTHPILLAR.NET,CHRISTIAN,2707 ADAMS MILL RD NW,CHURCHES,1,,PlacesofWorshipPt_159,396157.02,139612.48,,{79AF4402-E563-49D7-BC51-65D272E4D99D},,,277
-8569924.10823167,4710834.59006424,Historic Berean Baptist Church,,CHRISTIAN,1400 MONTANA AVENUE NE,CHURCHES,1,286125,PlacesofWorshipPt_646,401306.28,139602.51,,{1DFEE9B1-3E24-4074-9DEB-D26DA32BE93B},,,278
-8568210.86479901,4710801.09881521,KEDUS GABRIEL ETHIOPIAN ORTHDX,,CHRISTIAN,2601 EVARTS ST NE,CHURCHES,1,,PlacesofWorshipPt_320,402640.85,139576.86,,{9341F4E2-124C-489E-A357-DA4E6A1B987E},,,279
-8580186.29366202,4710789.82681753,SEVENTH SON,TIMOHYNES.COM,CHRISTIAN,2605 39TH S,CHURCHES,1,,PlacesofWorshipPt_547,393312.34,139570.5,,{2C5EEB88-5389-4432-B40E-82D815D9BEAA},,,280
-8570393.31619086,4710749.27478278,LIGHT OF THE WORLD CHURCH,,CHRISTIAN,1222 RHODE ISLAND AVE NE,CHURCHES,1,,PlacesofWorshipPt_221,400940.79,139536.27,,{01EBCFCB-B304-4B78-982B-357AC3545F3B},,,281
-8568021.6224399,4710743.15851,WHOLE TRUTH CHR-THE LORD JESUS,,CHRISTIAN,2800 DOUGLAS ST NE,CHURCHES,1,,PlacesofWorshipPt_304,402788.28,139531.96,,{7B7E4AC2-A011-496B-838C-D6E8BC41E1F8},,,282
-8570490.07323863,4710734.53998656,Isle Of Patmos Baptist,ISLEOFPATMOSBC.ORG,CHRISTIAN,1200 RHODE ISLAND AVENUE NE,CHURCHES,1,302176,PlacesofWorshipPt_715,400865.42,139524.83,,{9DF2E6B9-7D63-4F47-9939-CFA91B89B77D},,,283
-8579607.08607993,4710633.00837904,ST LUKES UNITED METHODIST CHR,GBHEM.ORG,CHRISTIAN,3655 CALVERT ST NW,CHURCHES,1,,PlacesofWorshipPt_174,393763.43,139448.47,,{0175023F-D045-4552-9E46-EA060CC4FD0B},,,284
-8575428.48341578,4710563.0893513,UNCION PODER Y FUEGO,,CHRISTIAN,1432 CLIFTON ST NW # 2,CHURCHES,1,,PlacesofWorshipPt_583,397018.47,139392.33,,{A99CC513-1EED-48BE-9962-68A24869C08E},,,285
-8570964.94082348,4710525.20211578,GREAT MT CALVARY HOLY CHURCH,GMCNATION.ORG,CHRISTIAN,610 RHODE ISLAND AVE NE,CHURCHES,1,,PlacesofWorshipPt_356,400495.52,139362.39,,{1BDFB736-8709-4724-AA26-449EB2D1D34A},,,286
-8571693.53683101,4710525.07986374,VERDADERA FE BAPTIST CHURCH,,CHRISTIAN,2432 4TH ST NE,CHURCHES,1,,PlacesofWorshipPt_124,399927.95,139362.28,,{1C1095EB-5DD1-4946-B668-D6BF75CD9053},,,287
-8569115.37118643,4710518.66556024,RESTORATION TEMPLE MINISTRIES,,CHRISTIAN,1839 CHANNING ST NE,CHURCHES,1,,PlacesofWorshipPt_557,401936.32,139357.54,,{FBC2DEDD-C529-43C0-965C-FFFC47CEBFCA},,,288
-8570415.78952222,4710460.20284775,ISRAEL BAPTIST CHURCH,ISRAELBAPTISTCHURCH.ORG,CHRISTIAN,1251 SARATOGA AVE NE,CHURCHES,1,,PlacesofWorshipPt_355,400923.31,139312,,{723F29A2-C0ED-414F-91E5-FB218A159C87},,,289
-8567532.57620039,4710436.08620097,Victory Christian Baptist Church,,CHRISTIAN,3100 ADAMS STREET NE,CHURCHES,1,40688,PlacesofWorshipPt_667,403169.33,139293.87,,{BC655098-2C75-4623-9B6F-B42769CD6C36},,,290
-8571360.94317646,4710393.25759485,GREATER MT CALVARY HOLY CHURCH,GMCHC.ORG,CHRISTIAN,610 RHODE ISLAND AVE NE,CHURCHES,1,,PlacesofWorshipPt_81,400187.04,139260.01,,{81B8B8BD-5C54-4FCC-8C8B-A361A4427967},,,291
-8576081.88336415,4710332.13983922,KING EMMANUEL BAPTIST CHURCH,KINGEMMANUELBAPTISTCHURCH.COM,CHRISTIAN,2324 ONTARIO RD NW,CHURCHES,1,,PlacesofWorshipPt_169,396509.4,139213.36,,{2057E496-7D66-4DA2-B223-FCCA95C81BD9},,,292
-8573826.41884395,4710270.15546034,SUNDAY MORNING GOSPEL,,CHRISTIAN,529 BRYANT ST NW,CHURCHES,1,,PlacesofWorshipPt_594,398266.41,139164.69,,{A88795E2-90B4-44A8-88FC-54C0E949E532},,,293
-8568489.29872302,4710246.43798469,FIRST CHRIST APOSTOLIC CHURCH,,CHRISTIAN,2130 24TH PL NE,CHURCHES,1,,PlacesofWorshipPt_258,402424.09,139146.47,,{C54B3C40-EAA6-4688-AA94-0E0A3B4442B3},,,294
-8570424.22289773,4710242.31086542,MANIFEST SONS-GOD MINISTRIES,NETSCAPE.NET,CHRISTIAN,1215 BRENTWOOD RD NE # 2246,CHURCHES,1,,PlacesofWorshipPt_569,400916.76,139142.95,,{84231F8A-994F-4ECC-91C3-9E1493634476},,,295
-8582517.68007903,4710228.25509081,ST PATRICKS EPISCOPAL CHR,STPATRICKSCHURCHDC.ORG,CHRISTIAN,4925 MACARTHUR BLVD NW,CHURCHES,1,,PlacesofWorshipPt_176,391495.79,139136.56,,{256F8EB7-A798-460B-BA8A-CBB88B17FDC8},,,296
-8576479.73875653,4710122.06963473,GOODWILL BAPTIST CHURCH,GOODWILLBAPTISTCHURCHDC.ORG,CHRISTIAN,1862 KALORAMA RD NW,CHURCHES,1,,PlacesofWorshipPt_157,396199.39,139050.52,,{AE4A263D-F1A6-471C-B200-40A632AD0C6D},,,297
-8574832.12119518,4710079.66784487,MANUEL DE JESUS FERNANDEZ TRRS,,CHRISTIAN,1220 W ST NW # 102,CHURCHES,1,,PlacesofWorshipPt_582,397482.91,139017.11,,{74627131-B116-4E5D-8990-F47B7AB0521A},,,298
-8573681.9016618,4710078.53907483,HIGHWAY CHRISTIAN CHR-CHRIST,,CHRISTIAN,432 W ST NW,CHURCHES,1,,PlacesofWorshipPt_27,398378.96,139016,,{42BFCA5D-9814-46FC-8A04-EFEBD4F7546E},,,299
-8574657.06846071,4710077.4537746,TRUE GOSPEL BAPTIST CHURCH,TRUEGOSPELBC.COM,CHRISTIAN,1106 W ST NW,CHURCHES,1,,PlacesofWorshipPt_158,397619.28,139015.35,,{1F4C385B-471B-44BA-BBE7-CAE59353B26F},,,300
-8573299.74229373,4710064.08464739,TRUE GRACE CHURCH OF JESUS,,CHRISTIAN,205 V ST NW,CHURCHES,1,,PlacesofWorshipPt_38,398676.67,139004.73,,{968B80BB-A59C-4302-8E25-3C38DA0DC92C},,,301
-8575548.65896819,4710016.88972296,AUGUSTANA LUTHERAN CHURCH,AUGUSTANADC.ORG,CHRISTIAN,2100 NEW HAMPSHIRE AVE NW,CHURCHES,1,,PlacesofWorshipPt_138,396924.69,138968.6,,{54679515-FDE0-4F70-A12D-FE557B7785A6},,,302
-8575392.83315049,4709982.33380131,SAINT AUGUSTINE ROMAN CATHOLIC CHURCH,SAINTAUGUSTINE-DC.ORG,CHRISTIAN,1419 V STREET NORTHWEST,CHURCHES,1,,PlacesofWorshipPt_734,397046.0625,138941.75,,{1C62C412-60B1-4B88-A9F7-23A7C28D36E0},,,303
-8571695.90652777,4709971.91693401,Greater Victory Baptist,,CHRISTIAN,2100 4TH STREET NE,CHURCHES,1,51876,PlacesofWorshipPt_682,399926.1,138933.11,,{0E4CF2E3-64D4-435C-907F-85D61B2EAB3F},,,304
-8574583.41809459,4709921.50812273,CHRISTIAN TABERNACLE CHURCH OF GOD,CTCOGINC.ORG,CHRISTIAN,2033 11TH ST NW,CHURCHES,1,,PlacesofWorshipPt_2,397676.62,138894.34,,{9196E330-2534-44A8-AFFA-42A336FEF80B},,,305
-8575476.86440149,4709915.08322651,HANDMAIDS-THE HOLY CHILD JESUS,,CHRISTIAN,2028 15TH ST NW,CHURCHES,1,,PlacesofWorshipPt_145,396980.59,138889.59,,{1DA3811F-A590-442B-8FA1-CD6B7C693114},,,306
-8574938.08554175,4709879.17400812,Walker Memorial Baptist,http://www.wmbcdc.org/,CHRISTIAN,2020 13TH STREET NW,CHURCHES,1,240352,PlacesofWorshipPt_620,397400.31,138861.58,,{4184261B-4BD1-4FEC-A286-1B4597796B87},,,307
-8573543.37962695,4709861.51949001,SONS-DAUGHTERS IN CHRIST A M E,,CHRISTIAN,345 ELM ST NW,CHURCHES,1,,PlacesofWorshipPt_35,398486.84,138847.6,,{D49302A2-45F3-4169-B7CA-EE8375A6A8FD},,,308
-8572575.61110659,4709829.94008046,ALL NATIONS BAPTIST CHURCH,ALLNATIONSBAPTISTCHURCH.COM,CHRISTIAN,2001 N CAPITOL ST NE,CHURCHES,1,,PlacesofWorshipPt_68,399240.77,138822.99,,{35F94425-761A-463D-918A-5676636D7A16},,,309
-8575564.82141733,4709822.07038037,FREEDOM BAPTIST CHURCH,FREEDOMBAPTISTDC.ORG,CHRISTIAN,1519 U ST NW,CHURCHES,1,,PlacesofWorshipPt_151,396912.04,138817.45,,{067034EB-EE7E-49DE-A106-BA220F8E5B93},,,310
-8572378.89499672,4709819.96845377,Franklin P Nash United Methodist,,CHRISTIAN,2001 LINCOLN ROAD NE,CHURCHES,1,286579,PlacesofWorshipPt_704,399394.02,138815.24,,{2562755B-B39C-4334-9730-E11EDC8FC3CC},,,311
-8573179.95492465,4709752.75155953,ST GEORGE'S EPISCOPAL CHURCH,STGEORGESDC.ORG,CHRISTIAN,160 U ST NW,CHURCHES,1,,PlacesofWorshipPt_22,398769.95,138763.16,,{56557A1D-DBA9-4E6F-8610-A65D6FBA8A48},,,312
-8568683.31364031,4709707.35755671,SEAN BETHEL,MISTERBETHEL.COM,CHRISTIAN,1920 BLADENSBURG RD NE,CHURCHES,1,,PlacesofWorshipPt_527,402273.07,138728.17,,{3BF317D6-083B-4DC9-8429-407DD39C6654},,,313
-8582146.84675391,4709701.41968589,OUR LADY OF VICTORY CHURCH,OLVPARISHDC.COM,CHRISTIAN,4835 MACARTHUR BLVD NW,CHURCHES,1,,PlacesofWorshipPt_182,391784.25,138727.5,,{022AF094-7674-416C-8166-EC0C9B1F547A},,,314
-8582153.76374729,4709691.131361,SAINT BLAISE CHURCH,,CHRISTIAN,4835 MACARTHUR BOULEVARD NORTHWEST,CHURCHES,1,,PlacesofWorshipPt_722,391778.84375,138719.515625,,{F57F0C10-BFB5-4236-BD1C-B5B61985D06A},,,315
-8574519.36142843,4709685.74319186,ST JAMES HEALING CHURCH,,CHRISTIAN,1920 10TH ST NW,CHURCHES,1,,PlacesofWorshipPt_540,397726.47,138711.4,,{26946094-58D2-468B-B8BB-45BD51D17165},,,316
-8572899.23171289,4709676.99441556,MT BETHEL BAPTIST CHURCH,<Null>,CHRISTIAN,75 RHODE ISLAND AVE NW,CHURCHES,1,,PlacesofWorshipPt_49,398988.64,138704.35,,{33632B13-37B1-4C94-8BC4-BA1C3B0C1BAC},,,317
-8573920.40187424,4709670.53520962,FLORIDA AVENUE BAPTIST CHURCH,FLORIDAAVENUE.ORG,CHRISTIAN,623 FLORIDA AVE NW,CHURCHES,1,,PlacesofWorshipPt_13,398193.09,138699.48,,{C68224D9-6E21-4235-A2C9-5D566C7D0505},,,318
-8581773.77610347,4709660.05594258,ST PATRICKS EPISCOPAL CHURCH,STPATSDC.ORG,CHRISTIAN,4700 WHITEHAVEN PKWY NW,CHURCHES,1,,PlacesofWorshipPt_179,392074.86,138695.11,,{60EBB789-AA6C-4833-A879-8D689EE718F4},,,319
-8572639.6057387,4709636.60640398,ST MARTIN OF TOURS CATHOLIC CHURCH,STMARTINSDC.ORG,CHRISTIAN,1908 N CAPITOL ST NW,CHURCHES,1,,PlacesofWorshipPt_120,399190.9,138672.99,,{84E3A6A9-3D66-4BA6-8577-B0543FA20FE8},,,320
-8577085.49854768,4709621.15094824,OUR LADY QUEEN-THE AMERICAS,OURLADYQUEENOFTHEAMERICASDC.ORG,CHRISTIAN,2200 CALIFORNIA ST NW,CHURCHES,1,,PlacesofWorshipPt_144,395727.28,138662.11,,{BF98FD86-8449-4001-AA97-1630E010DAB3},,,321
-8576976.21474317,4709590.27888238,AMERICAN FAZAL MOSQUE,AHMADIYYA.US,ISLAMIC,2141 LEROY PLACE NORTHWEST,MOSQUES,1,,PlacesofWorshipPt_765,395812.40625,138638.109375,,{CE886BE8-35EF-4FAB-B6CA-C26E969E55E2},,,322
-8571720.76565473,4709546.46663506,GRACE FELLOWSHIP BAPTIST MSN,,CHRISTIAN,319 T ST NE,CHURCHES,1,,PlacesofWorshipPt_92,399906.73,138603.01,,{63FCD5B7-5610-4DEB-92B1-A2D580E19A63},,,323
-8573244.86996105,4709530.36524279,MT PLEASANT BAPTIST CHURCH,MPBCDC.COM,CHRISTIAN,215 RHODE ISLAND AVE NW,CHURCHES,1,,PlacesofWorshipPt_65,398719.35,138590.62,,{1DE85A83-BF3F-4519-AF46-1AAF2740A7E8},,,324
-8576796.93160114,4709517.69430825,ST MARGARET'S EPISCOPAL CHURCH,STMARGARETSDC.ORG,CHRISTIAN,1820 CONNECTICUT AVE NW,CHURCHES,1,,PlacesofWorshipPt_165,395952.05,138581.72,,{EE05FB39-9A71-4F75-893E-91B685DA3512},,,325
-8575415.65960743,4709465.85432179,ST JAMES APOSTLE CHURCH,,CHRISTIAN,1819 15TH ST NW,CHURCHES,1,,PlacesofWorshipPt_160,397028.14,138541.02,,{69DB6BD2-0491-40E1-A39D-444F0FE217EA},,,326
-8574770.37648849,4709457.01662455,12TH STREET CHRISTIAN CHURCH,12THSTCC.ORG,CHRISTIAN,1812 12TH ST NW,CHURCHES,1,,PlacesofWorshipPt_154,397530.86,138533.99,,{87BCFFD3-77E7-4A0D-A986-845165925CC5},,,327
-8575706.41896214,4709410.11542436,UNIVERSALIST NATIONAL MEML CHR,UNIVERSALISTCHURCH.ORG,CHRISTIAN,1810 16TH ST NW,CHURCHES,1,,PlacesofWorshipPt_163,396801.6,138497.86,,{195F62CE-EA36-4FEF-916D-263AE3C427F0},,,328
-8571776.88168046,4709404.79910961,FIRST JERICHO BAPTIST CHURCH,FIRSTJERICHOBAPTISTCHURCH.ORG,CHRISTIAN,304 S ST NE,CHURCHES,1,,PlacesofWorshipPt_59,399863.01,138493.09,,{8D0E9EA4-5D79-4A26-9E54-943AF01F21CA},,,329
-8574872.33656262,4709394.28355911,Beginning Church of God,,CHRISTIAN,1235 S STREET NW,CHURCHES,1,278992,PlacesofWorshipPt_633,397451.41,138485.34,,{75699864-BA58-4A95-9ACC-2BFDB330210A},,,330
-8573143.31031355,4709345.28209381,MEDHANE ALEM ERITREAN ORTHODOX,MEDHANEALEMORTHODOX.ORG,CHRISTIAN,150 S ST NW,CHURCHES,1,,PlacesofWorshipPt_6,398798.45,138447,,{068B2988-E415-469B-ADF5-F8B18E40CBDE},,,331
-8574223.86292779,4709337.7006544,NEW BETHEL BAPTIST CHURCH,NBBC-DC.ORG,CHRISTIAN,1739 9TH ST NW,CHURCHES,1,,PlacesofWorshipPt_46,397956.61,138441.29,,{34F3FF47-1605-414C-AEAC-4253BEBBC0C1},,,332
-8569931.58535504,4709308.66020737,Masjid of Ivy City,,ISLAMIC,2001 GALLAUDET STREET NE,MOSQUES,1,286578,PlacesofWorshipPt_703,401300.65,138418.6,,{150826BB-5A37-446C-8057-E7713746E78B},,,333
-8571799.85528448,4709286.79613906,JAMES MEMORIAL BAPTIST CHURCH,,CHRISTIAN,1723 3RD ST NE,CHURCHES,1,,PlacesofWorshipPt_80,399845.11,138401.53,,{48900A78-5AE2-4ECF-B33D-073797D1D864},,,334
-8572648.71381256,4709208.37263533,METROPOLITAN WESLEY AME ZION,METROPOLITANWESLEY.ORG,CHRISTIAN,1712 N CAPITOL ST NW,CHURCHES,1,,PlacesofWorshipPt_75,399183.77,138340.72,,{D4AF14C3-3E8A-4444-B264-2A6630400E1F},,,335
-8574465.7479093,4709192.50441327,WAY BACK TO PENTECOST CHURCH,THEWAYBACKTOPENTECOST.ORG,CHRISTIAN,945 R ST NW,CHURCHES,1,,PlacesofWorshipPt_69,397768.13,138328.68,,{52D92171-F55A-4F9C-B5B0-FCA2E7F81683},,,336
-8575405.90471827,4709191.33110829,FIFTEENTH ST PRESBYTERIAN CHR,<Null>,CHRISTIAN,1701 15TH ST NW,CHURCHES,1,,PlacesofWorshipPt_162,397035.66,138328.01,,{5E18BCBE-F914-47F4-90AC-A37FD6F8EEF3},,,337
-8575016.59219435,4709188.55735334,LIFE CHURCH,LIFECHURCHOFATLANTA.COM,CHRISTIAN,1323 R ST NW,CHURCHES,1,,PlacesofWorshipPt_148,397338.97,138325.75,,{5786C145-0901-4012-BE96-39B7921C9A2D},,,338
-8574570.77402306,4709126.88827855,TENTH STREET BAPTIST CHURCH,10THSTREETBAPTISTCHURCH.INFO,CHRISTIAN,1000 R ST NW,CHURCHES,1,,PlacesofWorshipPt_36,397686.29,138277.79,,{B24E1F79-36C3-43E1-8FEB-30EC509320B9},,,339
-8569990.76777793,4709080.1044434,Trinity Baptist Church,http://www.trinitybaptistchurchdc.org/,CHRISTIAN,1814 CENTRAL PLACE NE,CHURCHES,1,286491,PlacesofWorshipPt_638,401254.57,138241.25,,{6B9ADAD5-C44D-4F45-973F-71040E9AE5D9},,,340
-8569894.00863688,4709043.34591175,GATEWAY TO HEAVEN PENTACOSTAL,,CHRISTIAN,1910 W VIRGINIA AVE NE,CHURCHES,1,,PlacesofWorshipPt_78,401329.96,138212.74,,{08619840-ED37-469C-A2C2-5D96AEA8DEAF},,,341
-8564253.04965481,4709036.33784322,Bethel Commandment Church of Living God,<Null>,CHRISTIAN,1627 KENILWORTH AVENUE NE,CHURCHES,1,150101,PlacesofWorshipPt_611,405724.86,138209.26,,{7AC7DFF4-118A-4CD2-9794-AAEE3C11F3AE},,,342
-8575622.06921278,4709035.91193319,CHURCH OF THE HOLY CITY,SWEDENBORGCENTER.ORG,CHRISTIAN,1611 16TH ST NW,CHURCHES,1,,PlacesofWorshipPt_172,396867.2,138207.48,,{A0E099AE-A6AC-468F-9C73-0E511ECDB033},,,343
-8574072.50891483,4709034.70785892,DISTRICT CHURCH,DISTRICTCHURCH.ORG,CHRISTIAN,1616 7TH ST NW,CHURCHES,1,,PlacesofWorshipPt_5,398074.47,138206.16,,{3107A302-3CDE-452D-B46F-9DFE8B3C56B8},,,344
-8575117.83641608,4709027.33615384,JOHN WESLEY AFRICAN METHODIST EPISCOPAL ZION CHURCH,,CHRISTIAN,1615 14TH STREET NORTHWEST,CHURCHES,1,,PlacesofWorshipPt_761,397260.0625,138200.671875,,{D4E2D62B-D828-4A99-9294-B2EEB1C3E360},,,345
-8573251.37220917,4709020.14457405,MT SINAI BAPTIST CHURCH,MSBCDC.ORG,CHRISTIAN,1615 3RD ST NW,CHURCHES,1,,PlacesofWorshipPt_66,398714.22,138194.73,,{7C0FE732-6303-4971-A6B7-8B013D811D5F},,,346
-8573378.07901448,4709005.89521993,FOURTH STREET FRIENDSHIP SDA CHURCH,FSFSDA.ORG,CHRISTIAN,1611 4TH ST NW,CHURCHES,1,,PlacesofWorshipPt_26,398615.5,138183.69,,{C65AFBD0-4CD0-46F8-8E3E-C1D4BEB27354},,,347
-8574249.77810846,4708991.89684564,ANSAARU ALLAH COMMUNITY CHURCH,,ISLAMIC,818 RHODE ISLAND AVENUE NORTHWEST,MOSQUES,1,,PlacesofWorshipPt_760,397936.34375,138172.96875,,{8073D510-4490-4F36-AC35-BCC6F987CA4C},,,348
-8564298.23246743,4708960.74628258,PEACE FELLOWSHIP CHURCH,PEACEFELLOWSHIPCHURCH.ORG,CHRISTIAN,1601 KENILWORTH AVE NE,CHURCHES,1,,PlacesofWorshipPt_244,405689.7,138150.58,,{B72D8B18-94D6-4114-9F47-23D7296964C5},,,349
-8570058.40602113,4708935.14260757,BETHESDA BAPTIST CHURCH,BETHESDAWEB.ORG,CHRISTIAN,1808 CAPITOL AVE NE,CHURCHES,1,,PlacesofWorshipPt_54,401201.89,138128.76,,{E6413D4A-92C9-445E-AD16-437B7AFEAF9E},,,350
-8574701.0183223,4708928.71519365,First Genesis Baptist,,CHRISTIAN,1527 12TH STREET NW,CHURCHES,1,225725,PlacesofWorshipPt_621,397584.77,138124.05,,{8762095B-47F0-4ABF-B0F7-50CB4C0346F6},,,351
-8573741.05617649,4708921.30858452,THIRD BAPTIST CHURCH,,CHRISTIAN,1546 5TH STREET NORTHWEST,CHURCHES,1,,PlacesofWorshipPt_759,398332.6875,138118.109375,,{01C816D4-7A97-4D48-A526-B4DCEECE789F},,,352
-8575611.74208131,4708918.63296348,BET MISHPACHAH,BETMISH.ORG,JEWISH,1529 16TH STREET NORTHWEST,SYNAGOGUES,1,,PlacesofWorshipPt_762,396875.21875,138116.46875,,{F58B5054-D3DB-46E8-B70E-CD5A2B9235C3},,,353
-8576736.7632255,4708917.78304171,CHURCH OF THE SAVIOR,<Null>,CHRISTIAN,2025 MASSACHUSETTS AVE NW,CHURCHES,1,,PlacesofWorshipPt_516,395998.69,138116.21,,{A4441A3B-4A86-4DA3-A66B-37A1C472F717},,,354
-8572843.00707034,4708916.42225033,EBENEZER BAPTIST CHURCH,,CHRISTIAN,46 Q STREET NORTHWEST,CHURCHES,1,,PlacesofWorshipPt_769,399032.375,138114.203125,,{B7E72593-AC85-4AFD-8D44-7BD6C5F7BC88},,,355
-8573495.45660161,4708865.87713714,SECOND CHURCH OF GOD,,CHRISTIAN,1530 NEW JERSEY AVE NW,CHURCHES,1,,PlacesofWorshipPt_44,398524.03,138075.06,,{D50EF633-8952-4AFA-BA0B-DF401E263897},,,356
-8577091.32774188,4708837.10208932,CHURCH OF THE PILGRAMS,CHURCHOFTHEPILGRIMS.COM,CHRISTIAN,2201 P ST NW,CHURCHES,1,,PlacesofWorshipPt_503,395722.41,138053.75,,{DC37A336-F65B-4A79-9B96-7C27D17F3D34},,,357
-8573369.6423584,4708835.17639326,MASJID MUHAMMAD,MASJIDMUHAMMAD.COM,ISLAMIC,1519 4TH ST NW,MOSQUES,1,,PlacesofWorshipPt_17,398622.05,138051.22,,{B0558C52-C352-4C02-8ABF-5843C489B098},,,358
-8575488.75781953,4708821.77410164,ST LUKES EPISCOPAL CHURCH,STLUKESDC.ORG,CHRISTIAN,1514 15TH ST NW,CHURCHES,1,,PlacesofWorshipPt_134,396971,138041.28,,{D2694323-8539-4BF5-BC97-38AC2BBAE2CC},,,359
-8576169.7290234,4708819.50492897,ST THOMAS EPISCOPAL CHURCH,STTHOMASDC.ORG,CHRISTIAN,1772 CHURCH ST NW,CHURCHES,1,,PlacesofWorshipPt_502,396440.44,138039.74,,{5E27DCCD-1172-4AE4-849F-BD4BA5F8F1AE},,,360
-8575710.45830771,4708814.08425881,FOUNDRY UNITED METHODIST CHURCH,FOUNDRYUMC.ORG,CHRISTIAN,1500 16TH STREET NORTHWEST,CHURCHES,1,,PlacesofWorshipPt_737,396798.28125,138035.375,,{A524A585-6EDC-431C-B896-25ED1B3008AF},,,361
-8578844.86262915,4708808.67767636,LUTHERAN CHURCH GEORGETOWN,GEORGETOWNLUTHERAN.COM,CHRISTIAN,1556 WISCONSIN AVE NW,CHURCHES,1,,PlacesofWorshipPt_180,394356.18,138032.55,,{7E495983-B9CF-4511-8B96-3ACB472E8773},,,362
-8564749.55879269,4708801.82485764,Maranatha Chapel Fellowship,http://maranathachapelfellowship.org/, ,4459 DOUGLAS STREET NE,CHURCHES,1,288228,PlacesofWorshipPt_701,405338.15,138027.02,,{50A84F9A-6EA6-444E-ABC6-02479E8E8579},,,363
-8574309.13489225,4708776.09926689,SHILOH BAPTIST CHURCH,SHILOHBAPTIST.ORG,CHRISTIAN,1500 9TH ST NW,CHURCHES,1,,PlacesofWorshipPt_19,397890.06,138005.54,,{9603B71A-2333-4DDD-B450-27880B92343B},,,364
-8564421.94457685,4708768.42587098,RCCG NEW WINE ASSEMBLY,RCCGNEWWINEASSEMBLY.ORG,CHRISTIAN,1515 KENILWORTH AVE NE # B,CHURCHES,1,,PlacesofWorshipPt_275,405593.42,138001.28,,{7E3AA36A-2E59-4C64-B03A-423A89964BA3},,,365
-8573732.1145199,4708770.36063964,HEMMINGWAY TEMPLE AME CHURCH,HEMINGWAYTEMPLEAME.ORG,CHRISTIAN,501 P ST NW,CHURCHES,1,,PlacesofWorshipPt_24,398339.63,138000.98,,{94AA93E3-CBF6-4D71-B74F-CC2BA467D776},,,366
-8578514.49574763,4708721.19794462,GEORGETOWN PRESBYTERIAN CHURCH,GTOWNPRES.ORG,CHRISTIAN,3115 P ST NW,CHURCHES,1,,PlacesofWorshipPt_202,394613.53,137964.49,,{0412CFFC-4809-41C9-8DA1-87ADE08E909F},,,367
-8576626.02365834,4708712.56910442,UNITARIAM UNIVERSALIST SVC CMT,UUSC.ORG,CHRISTIAN,2000 P ST NW,CHURCHES,1,,PlacesofWorshipPt_589,396084.89,137956.93,,{37DB90E6-9A2F-419D-ABCE-F74FDD6EE134},,,368
-8572933.81416509,4708711.08709083,FAITH & HOPE FULL GOSPEL CHR,,CHRISTIAN,90 P ST NW,CHURCHES,1,,PlacesofWorshipPt_9,398961.6,137954.88,,{4668A75A-F8D2-4993-9DE7-0FCA43463B5B},,,369
-8573779.74082893,4708691.41620255,SPRINGFIELD BAPTIST CHURCH,SPRINGFIELDDC.ORG,CHRISTIAN,508 P ST NW,CHURCHES,1,,PlacesofWorshipPt_18,398302.51,137939.73,,{C7FD761C-40CC-47CB-B7C8-6A61ED15E743},,,370
-8573443.61963936,4708673.22187199,NEW COVENANT EVANGELISTIC CTR,,CHRISTIAN,1418 NEW JERSEY AVE NW,CHURCHES,1,,PlacesofWorshipPt_52,398564.39,137925.56,,{EFFA7E36-E643-4E17-879B-47D2131F17E1},,,371
-8575417.83897817,4708669.49956774,GRACE REFORMED CHURCH,GRACEREFORMEDCHURCHDC.ORG,CHRISTIAN,1405 15TH ST NW,CHURCHES,1,,PlacesofWorshipPt_103,397026.21,137923.1,,{E8E0B314-D575-4BA1-84F6-E6BF73A67391},,,372
-8577720.66617384,4708666.42307049,JERUSALEM BAPTIST CHURCH,JBCGDC.ORG,CHRISTIAN,2600 P ST NW,CHURCHES,1,,PlacesofWorshipPt_195,395232,137921.59,,{65D1475F-3943-45C3-9F0C-A32C2210DEB0},,,373
-8575999.0085535,4708605.15028413,SERBIAN,,CHRISTIAN,1717 MASSACHUSETTS AVE NW,CHURCHES,1,,PlacesofWorshipPt_592,396573.38,137873.35,,{85EFAC89-C3CD-4B0A-9257-628BF3BA04AA},,,374
-8577910.64483011,4708601.39402218,EPISCOPAL HERITAGE CHURCH,,CHRISTIAN,2727 O ST NW,CHURCHES,1,,PlacesofWorshipPt_553,395083.95,137871.22,,{BAE6CA32-9B40-4653-BC72-B5B13A6846AF},,,375
-8577910.64483011,4708601.39402218,PARISH OF CHRIST THE KING,PARISHOFCHRISTTHEKING.ORG,CHRISTIAN,2727 O ST NW,CHURCHES,1,,PlacesofWorshipPt_181,395083.95,137871.22,,{38EFB781-6235-47AD-A92F-AE1F57F1D628},,,376
-8575740.85212237,4708565.74233281,FIRST BAPTIST CHURCH OF WASHINGTON DISTRICT OF COLUMBIA,FIRSTBAPTISTDC.ORG,CHRISTIAN,1328 16TH STREET NORTHWEST,CHURCHES,1,,PlacesofWorshipPt_770,396774.5,137842.6875,,{D0DA0C3F-DD8E-44B0-A593-EBA7E5C2DE50},,,377
-8578210.8257977,4708546.76756932,WOOD ISLAND LIFE SAVING STA,,CHRISTIAN,1344 30TH ST NW,CHURCHES,1,,PlacesofWorshipPt_546,394850.04,137828.98,,{772FFDD1-124F-4281-9F73-B69550ABCDDC},,,378
-8578441.9537643,4708544.01981989,CHRIST CHURCH - GEORGETOWN,CHRISTCHURCHGEORGETOWN.ORG,CHRISTIAN,3112 O STREET NORTHWEST,CHURCHES,1,,PlacesofWorshipPt_720,394669.96875,137826.96875,,{251D9E4E-FF84-4E67-BB7A-5BE616E86B45},,,379
-8574235.8008427,4708545.59339217,SCRIPTURE CATHEDRAL,SCRIPTURECATHEDRAL.COM,CHRISTIAN,810 O ST NW,CHURCHES,1,,PlacesofWorshipPt_28,397947.15,137826.66,,{E2E0411A-7CA1-43BE-B6C7-0FCF3C59134F},,,380
-8578117.09104403,4708541.3256073,MT ZION COMMUNITY HOUSE,,CHRISTIAN,2906 O ST NW,CHURCHES,1,,PlacesofWorshipPt_200,394923.07,137824.71,,{5164CA52-0042-4FC4-B0AE-23BCDB87D8B8},,,381
-8576264.56601056,4708537.41313016,INTERNATIONAL CHRISTIAN,,CHRISTIAN,1314 18TH ST NW,CHURCHES,1,,PlacesofWorshipPt_591,396366.45,137820.88,,{3E4CD7DB-CFAF-4140-AEAB-FF880BB5F49E},,,382
-8578099.70169476,4708503.47486234,MT ZION UNITED METHODIST CHR,MTZIONUMCDC.ORG,CHRISTIAN,1334 29TH ST NW,CHURCHES,1,,PlacesofWorshipPt_201,394936.6,137795.33,,{49EF9EA2-A37F-41D6-BD2C-3C0C72FF69AB},,,383
-8578561.10655714,4708487.57485626,DUMBARTON UNITED METHODIST CHR,DUMBARTONUMC.ORG,CHRISTIAN,3133 DUMBARTON ST NW,CHURCHES,1,,PlacesofWorshipPt_197,394577.09,137783.23,,{79476843-7291-49C9-8966-C67C5CF7FB1B},,,384
-8575065.42967924,4708466.47523692,Mount Olivet Lutheran Church,http://www.lutheransonline.com/servlet/lo_ProcServ/dbpage=page&gid=20071437302121030801111555,CHRISTIAN,1306 VERMONT AVENUE NW,CHURCHES,1,297685,PlacesofWorshipPt_635,397300.73,137765.46,,{4D56F811-4FDC-4518-B298-86CFA59A9220},,,385
-8574116.32943619,4708466.21440838,IMMACULATE CONCEPTION PARISH,IMMACULATECONCEPTIONCHURCHDC.ORG,CHRISTIAN,1315 8TH ST NW,CHURCHES,1,,PlacesofWorshipPt_4,398040.22,137765.04,,{C578D1AF-26C2-4F04-9FEE-87DC13DC115B},,,386
-8574116.32943619,4708466.21440838,ST LUKE'S AT IMMACULATE CNCPTN,STLUKESORDINARIATE.COM,CHRISTIAN,1317 8TH ST NW,CHURCHES,1,,PlacesofWorshipPt_29,398040.22,137765.04,,{34F38AE1-8400-4335-AE55-62B92B27A794},,,387
-8576272.35390909,4708447.39430374,SPLIT THIS ROCK INC,SPLITTHISROCK.ORG,CHRISTIAN,1301 CONNECTICUT AVE NW # 600,CHURCHES,1,,PlacesofWorshipPt_593,396360.35,137751.03,,{80154B4B-10CD-43FC-BE1C-7D624A8054F0},,,388
-8577796.40823119,4708440.57076832,FIRST BAPTIST CHR/GEORGETOWN,FBCGT.ORG,CHRISTIAN,2624 DUMBARTON ST NW,CHURCHES,1,,PlacesofWorshipPt_190,395172.88,137746.37,,{FA63E3ED-DEC4-4715-A5C2-D979B3D771F5},,,389
-8574382.22780416,4708439.50763219,SALEM BAPTIST CHURCH,SALEMBAPTISTCHURCHDC.ORG,CHRISTIAN,917 N ST NW,CHURCHES,1,,PlacesofWorshipPt_41,397833.04,137744.37,,{12937183-9CA2-453B-805A-46AB4BC34727},,,390
-8577883.4819712,4708427.10186547,EPIPHANY CATHOLIC CHURCH,GEORGETOWNEPIPHANY.ORG,CHRISTIAN,2712 DUMBARTON ST NW,CHURCHES,1,,PlacesofWorshipPt_196,395105.03,137735.96,,{10E0C938-78D3-4F0A-A7BF-5798E0F51355},,,391
-8573889.70156226,4708427.42716018,SOCIETY-THE HOLY CHILD JESUS,,CHRISTIAN,611 N ST NW,CHURCHES,1,,PlacesofWorshipPt_539,398216.79,137734.9,,{599F4EE8-6B5C-4FF8-A9C3-BA324026AF00},,,392
-8574522.20977691,4708426.22050022,NEW BETHANY BAPTIST CHURCH,NEWBETHANYBAPTISTDC.ORG,CHRISTIAN,1300 10TH ST NW,CHURCHES,1,,PlacesofWorshipPt_45,397723.97,137734.09,,{EF7907D1-389E-442A-9124-4C536F5641F1},,,393
-8573740.92321768,4708422.08590158,MILES MEMORIAL CHRISTIAN,MMCMECHURCH.ORG,CHRISTIAN,501 N ST NW,CHURCHES,1,,PlacesofWorshipPt_34,398332.71,137730.73,,{AE6013C9-85FA-4D21-9A77-F9FC61CFF390},,,394
-8570378.39766808,4708403.91335402,NEW LIFE BAPTIST CHR ALEXANDER,,CHRISTIAN,1501 W VIRGINIA AVE NE,CHURCHES,1,,PlacesofWorshipPt_73,400952.63,137716.51,,{0C163854-F428-4D82-B59B-463057C91ED1},,,395
-8564317.75421046,4708368.05447752,Beauty for Ashes Multicultural Worship Center,,CHRISTIAN,1229 47TH PLACE NE,CHURCHES,1,70669,PlacesofWorshipPt_632,405674.82,137690.66,,{4AF2C6E4-C01A-4F00-A90B-83702A386208},,,396
-8574691.8128481,4708369.04286997,MT ZION PENTECOSTAL CHURCH,,CHRISTIAN,1112 N ST NW,CHURCHES,1,,PlacesofWorshipPt_137,397591.81,137689.76,,{326EF8B9-D70B-4A86-93E4-1A339C5F44F1},,,397
-8578439.0703174,4708364.74324869,Georgetown Baptist Church,GEORGETOWNDC.COM,CHRISTIAN,3101 N STREET NW,CHURCHES,1,223424,PlacesofWorshipPt_618,394672.11,137687.85,,{A4E4C1C0-FCC0-4DFF-B147-9576ECDC28C5},,,398
-8577970.81915193,4708363.14156336,KESHER ISRAEL GEORGETOWN,,JEWISH,2801 N ST NW,SYNAGOGUES ORTHODOX,1,,PlacesofWorshipPt_191,395036.95,137686.37,,{EC4F7C8A-D6B4-427F-A5E1-4FEA1E5EEF88},,,399
-8573876.55718704,4708361.48831607,FIRST RISING MT ZION BAPTIST,FIRSTRISING.ORG,CHRISTIAN,602 N ST NW,CHURCHES,1,,PlacesofWorshipPt_10,398227.02,137683.73,,{767440EA-BC7D-4F15-9D2D-3D86416FAA0C},,,400
-8579356.87708498,4708355.89838759,HOLY TRINITY CATHOLIC CHURCH,TRINITY.ORG,CHRISTIAN,3513 N ST NW,CHURCHES,1,,PlacesofWorshipPt_186,393956.99,137681.5,,{AED55DCF-8B73-4348-8C56-0A7A14F8A38C},,,401
-8575119.17930875,4708350.88761417,LUTHER PLACE MEMORIAL CHURCH,,CHRISTIAN,1226 VERMONT AVE NW,CHURCHES,1,,PlacesofWorshipPt_100,397258.82,137675.78,,{FBCD5E2F-B27E-4EB6-8ADA-D0B2BD477498},,,402
-8573681.82994067,4708342.54803996,KINGDOM HALL-JEHOVAH'S WITNESS,JW.ORG/EN,CHRISTIAN,1237 5TH ST NW,CHURCHES,1,,PlacesofWorshipPt_7,398378.74,137669,,{A481B734-ACE2-4B37-AEE6-A0816A367A54},,,403
-8573926.29556854,4708327.62352203,RAYCROW APOSTLE D,,CHRISTIAN,614 EMMANUEL CT NW,CHURCHES,1,,PlacesofWorshipPt_538,398188.26,137657.46,,{3888A9D2-5CE9-4545-8B6D-6298D036AA05},,,404
-8564912.67409788,4708318.45161338,ZION BAPTIST CHURCH EASTLAND,,CHRISTIAN,1234 KENILWORTH AVE NE,CHURCHES,1,,PlacesofWorshipPt_329,405211.31,137651.85,,{F96A307A-A685-4CF0-A436-4A356C07248D},,,405
-8563850.77459734,4708317.19161953,VICTORY MEMORIAL BAPTIST CHR,,CHRISTIAN,1215 49TH PL NE,CHURCHES,1,,PlacesofWorshipPt_472,406038.7,137651.46,,{921C2E8F-3ABC-48EF-9EAA-C83EF78D14DA},,,406
-8575230.121663,4708284.31432877,NATIONAL CITY CHRISTIAN CHURCH,NATIONALCITYCC.ORG,CHRISTIAN,5 THOMAS CIR NW # 2,CHURCHES,1,,PlacesofWorshipPt_136,397172.36,137624.15,,{610E1157-AFE4-4160-802E-7179303F0017},,,407
-8564360.119768,4708278.75410139,SEVENTH CHR-CHRIST SCIENTIST,ADHERENTSOFTRUTH.ORG,CHRISTIAN,1204 47TH PL NE,CHURCHES,1,,PlacesofWorshipPt_247,405641.86,137621.34,,{4A9D97EF-0A80-4835-A683-361E5B64B90A},,,408
-8576001.39667768,4708279.83306428,MEPT ST MATTHEWS LLC,,CHRISTIAN,1717 RHODE ISLAND AVE NW,CHURCHES,1,,PlacesofWorshipPt_590,396571.41,137620.91,,{9BB209E3-8111-441D-9CF5-489E3B154BCE},,,409
-8576084.09734593,4708271.884355,CATHEDRAL OF ST MATTHEW THE APOSTLE,STMATTHEWSCATHEDRAL.ORG,CHRISTIAN,1725 RHODE ISLAND AVE NW,CHURCHES,1,,PlacesofWorshipPt_501,396506.97,137614.77,,{56C248B5-1161-4388-9DB8-CBFB3A56B418},,,410
-8573677.68159506,4708265.52510402,METROPOLITAN COMMUNITY CHURCH,MCCNH.ORG,CHRISTIAN,474 RIDGE ST NW,CHURCHES,1,,PlacesofWorshipPt_40,398381.96,137609.23,,{D411138F-F3FB-41FD-9352-3BE7B266F3CA},,,411
-8573235.1941103,4708263.3768534,MT LEBANON BAPTIST CHURCH,MTLEBANONBAPTISTCHURCH.COM,CHRISTIAN,1219 NEW JERSEY AVE NW,CHURCHES,1,,PlacesofWorshipPt_64,398726.73,137607.5,,{CD8243ED-F5B1-47CA-B3F0-48A4F5635264},,,412
-8578441.89184858,4708246.85379297,FIFTH CHURCH OF CHRIST SCIENTIST,CSGEORGETOWN.COM,CHRISTIAN,1238 31ST ST NW,CHURCHES,1,,PlacesofWorshipPt_188,394669.85,137596.37,,{126C1F0F-7153-4B31-969F-70666BE7B6DE},,,413
-8571574.33727182,4708241.91082897,GROUND TRUTH DATA,GROUNDTRUTHDATA.COM,CHRISTIAN,1214 5TH ST NE,CHURCHES,1,,PlacesofWorshipPt_529,400020.81,137590.74,,{13BDF3CB-74EB-4068-989D-412876CD21C3},,,414
-8573328.72492489,4708231.9179468,THIRD STREET CHURCH OF GOD,THIRDSTREET.ORG,CHRISTIAN,1204 3RD ST NW,CHURCHES,1,,PlacesofWorshipPt_32,398653.85,137583.1,,{BDEDA80E-B111-4481-8AD2-D95DB0F5C192},,,415
-8573146.69564507,4708222.52728665,NEW BIRTH BAPTIST CHURCH WA,,CHRISTIAN,1200 KIRBY ST NW,CHURCHES,1,,PlacesofWorshipPt_47,398795.68,137575.79,,{0393590D-E0B3-4358-9CDE-D072C8E846CD},,,416
-8573884.44265323,4708212.4779083,UNITED HOUSE OF PRAYER FOR ALL PEOPLE,TUHOPFAP.ORG,CHRISTIAN,601 M ST NW,CHURCHES,1,,PlacesofWorshipPt_37,398220.85,137568.1,,{7DDB9CC2-0154-4E4D-8D3B-0B844561B845},,,417
-8573425.08040772,4708210.09691992,CHURCH-THE LIVING GOD PILLAR,,CHRISTIAN,1206 4TH ST NW,CHURCHES,1,,PlacesofWorshipPt_3,398578.77,137566.18,,{9CB675EA-A57F-4139-AF89-FFC6590230E3},,,418
-8576753.12655325,4708203.31835037,ST JAMES II ASSOC LLC,STGREGORYHOTELWDC.COM,CHRISTIAN,2033 M ST NW,CHURCHES,1,,PlacesofWorshipPt_500,395985.66,137561.81,,{4F7193DC-20B4-4F1A-93F4-3E33CC4455EC},,,419
-8564095.3074214,4708194.82396103,TEMPLE OF THE LIVING EPOSTLE,,CHRISTIAN,4821 MEADE ST NE,CHURCHES,1,,PlacesofWorshipPt_387,405848.24,137556.36,,{E7FE9D10-7629-4E3F-9412-D15BC8FE5E6D},,,420
-8573556.19417337,4708140.89750931,MT JOY PENTECOSTAL SSS CHURCH,,CHRISTIAN,432 M ST NW,CHURCHES,1,,PlacesofWorshipPt_543,398476.6,137512.5,,{9274DF73-3990-4487-A331-A53168BF0354},,,421
-8571481.82930337,4708135.60899606,UPON THIS ROCK TABERNACLE,UPONTHISROCKTABERNACLE.COM,CHRISTIAN,513 M ST NE,CHURCHES,1,,PlacesofWorshipPt_116,400092.89,137508.25,,{F528F624-4E8B-453B-AD99-25D2F783F2EB},,,422
-8573145.34724543,4708132.42481621,HOLY REDEEMER CHURCH,HOLYREDEEMERCHURCHDC.ORG,CHRISTIAN,206 NEW YORK AVE NW,CHURCHES,1,,PlacesofWorshipPt_15,398796.72,137505.87,,{E6831F05-6F59-4C46-BBDB-2C6F5B2BA8DA},,,423
-8575548.2079796,4708121.43786685,METRO POLITAN AFRICAN MTHDST,METROPOLITANAMEC.ORG,CHRISTIAN,1518 M ST NW,CHURCHES,1,,PlacesofWorshipPt_99,396924.47,137497.85,,{633CBD7C-F6C6-445C-B9AD-11B366B65CF8},,,424
-8572657.15935117,4708091.00605426,SAFE HAVEN OUTREACH MINISTRY,SAFEHAVENOUTREACHMINISTRY.ORG,CHRISTIAN,1140 N CAPITOL ST NW # 924,CHURCHES,1,,PlacesofWorshipPt_77,399177.1,137473.68,,{D42EC141-EB85-442E-9FBF-FF73A5E52E05},,,425
-8571460.17879799,4708089.61695394,MT OLIVE BAPTIST CHURCH,MTOBC1140.ORG,CHRISTIAN,1140 6TH ST NE,CHURCHES,1,,PlacesofWorshipPt_89,400109.76,137472.56,,{73EEA7BD-D4FA-4A07-BAD4-8D7D9C173A0A},,,426
-8573424.94171169,4708080.40722833,FIRST TABERNACLE BETH EL,,CHRISTIAN,401 NEW YORK AVE NW,CHURCHES,1,,PlacesofWorshipPt_11,398578.86,137465.54,,{C21EBED2-2F9F-4743-B7C7-B43474505C10},,,427
-8563616.41702769,4708074.40697982,ANTIOCH BAPTIST CHURCH/DC,ANTIOCHABC.ORG,CHRISTIAN,1105 50TH ST NE,CHURCHES,1,,PlacesofWorshipPt_223,406221.45,137463.2,,{5FCE40DD-1CA6-4BEB-98D0-D16CEB42D700},,,428
-8564709.75160838,4708050.53298096,Second Refreshing Church of God in Christ,,CHRISTIAN,4407 LEE STREET NE,CHURCHES,1,22292,PlacesofWorshipPt_636,405369.56,137444.05,,{4F8E36F7-424B-4E24-BFA6-CA3DF19197E3},,,429
-8574763.5860444,4708048.23253328,CHURCH OF THE ASCENSION AND SAINT AGNES,ASA-DC.ORG,CHRISTIAN,1217 MASSACHUSETTS AVENUE NORTHWEST,CHURCHES,1,,PlacesofWorshipPt_739,397535.8125,137440.828125,,{02F8D49B-2BD5-4282-95DE-E75DEECDF7E5},,,430
-8573845.50325875,4708035.56825196,GALBRAITH AME ZION CHURCH,GALBRAITHAMEZ.ORG,CHRISTIAN,1114 6TH ST NW,CHURCHES,1,,PlacesofWorshipPt_25,398251.16,137430.81,,{F600BB72-5A8B-48AF-9489-941E4AB9A6ED},,,431
-8573270.45584559,4708017.73522665,BIBLE WAY TEMPLE,BIBLEWAYWASHINGTON.ORG,CHRISTIAN,1100 NEW JERSEY AVENUE NORTHWEST,CHURCHES,1,,PlacesofWorshipPt_735,398699.21875,137416.890625,,{5132C37D-5FDC-4CE7-AE86-17678F49F4B6},,,432
-8578932.5487514,4708001.71876005,LAKE GROVE PRESBYTERIAN CHURCH,,CHRISTIAN,1027 33RD ST NW,CHURCHES,1,,PlacesofWorshipPt_549,394287.41,137406.41,,{4BBB9B06-4A16-46B2-8748-831A34028407},,,433
-8569545.10253907,4707987.67135784,COMMUNITY UNITED METHODIST CHURCH,SITES.GOOGLE.COM/SITE/COMMUNITYUMC2/,CHRISTIAN,1600 LEVIS ST NE,CHURCHES,1,,PlacesofWorshipPt_53,401601.96,137393.61,,{6E7FDFEA-1FB2-462C-9374-9384DAE41ACD},,,434
-8564545.08329611,4707950.82116109,MACEDONIA COMMUNITY CHURCH,,CHRISTIAN,1026 46TH ST NE,CHURCHES,1,,PlacesofWorshipPt_307,405497.92,137366.76,,{56015D30-13C1-4284-8199-6646A4F41F2A},,,435
-8572666.75547941,4707932.37431778,MT AIRY BAPTIST CHURCH,MOUNTAIRYBAPTIST.ORG,CHRISTIAN,1100 N CAPITOL ST NW,CHURCHES,1,,PlacesofWorshipPt_71,399169.61,137350.58,,{F287E4C4-C154-4C2B-BBF7-70A88C6261AA},,,436
-8571635.56830319,4707912.55986747,Greater Pleasant Grove Baptist,,CHRISTIAN,1101 4TH STREET NE,CHURCHES,1,149755,PlacesofWorshipPt_622,399973.1,137335.16,,{353EE277-FA6C-416C-9672-4880974A4284},,,437
-8568634.23696243,4707912.08657037,NORTHEAST COMMUNITY CHR OF GOD,,CHRISTIAN,2109 MARYLAND AVE NE,CHURCHES,1,,PlacesofWorshipPt_531,402311.71,137335.13,,{60E903BE-72D6-40D5-9D23-F6B84ABB2271},,,438
-8563546.03717584,4707909.30335893,LITTLE ROCK CHURCH OF CHRIST,,CHRISTIAN,5030 SHERIFF RD NE,CHURCHES,1,,PlacesofWorshipPt_345,406276.39,137335.12,,{8C6DFCFE-C729-40EA-8F6A-A9BD27DEFC98},,,439
-8563673.22872411,4707898.57937518,NEW MORNING STAR BAPTIST CHR,NEWMORNINGSTARBAPTIST.ORG,CHRISTIAN,5016 SHERIFF RD NE,CHURCHES,1,,PlacesofWorshipPt_315,406177.29,137326.72,,{EE5972B9-C885-42A2-8E66-7A5C2D9E03D5},,,440
-8570656.79913715,4707884.52712343,NEW SAMARITAN BAPTIST CHURCH,NEWSAMARITAN.ORG,CHRISTIAN,1100 FLORIDA AVE NE,CHURCHES,1,,PlacesofWorshipPt_74,400735.75,137313.44,,{102F7869-E9E6-4011-974C-B8E441248A5E},,,441
-8578505.41010739,4707869.84503384,GRACE EPISCOPAL CHURCH,GRACEDC.ORG,CHRISTIAN,1041 WISCONSIN AVE NW,CHURCHES,1,,PlacesofWorshipPt_198,394620.16,137303.84,,{C82CC44C-5474-432D-A07B-CA2B84A4CE62},,,442
-8571496.90831057,4707861.75178813,ENON BAPTIST CHURCH,ENONBAPTISTDC.ORG,CHRISTIAN,505 L STREET NORTHEAST,CHURCHES,1,,PlacesofWorshipPt_768,400081.15625,137295.734375,,{4A1D56F3-7F77-47F4-8329-225FA2353A09},,,443
-8576092.79748983,4707860.36619934,YORKTOWN VICTORY CTR,,CHRISTIAN,1050 CONNECTICUT AVE NW,CHURCHES,1,,PlacesofWorshipPt_610,396500.05,137295.43,,{17875937-CA50-473B-92F0-A3A13981433C},,,444
-8578325.1264928,4707858.35600458,LAS PLACITAS PRESBYTERIAN CHR,,CHRISTIAN,1050 THOMAS JEFFERSON ST NW,CHURCHES,1,,PlacesofWorshipPt_552,394760.63,137294.83,,{4B5D53EB-E979-424A-BC74-9EA6E1BBC3AB},,,445
-8573085.91097759,4707857.37543361,SOUTHERN BAPTIST CHURCH,SOUTHERNBAPTISTPWC.COM,CHRISTIAN,134 L ST NW,CHURCHES,1,,PlacesofWorshipPt_39,398843,137292.42,,{79CE5BF2-E611-464B-A9ED-39E40B0EEFC4},,,446
-8564094.47224326,4707812.30570295,ST ROSE PENTECOSTAL CHURCH,STROSEUHCA.COM,CHRISTIAN,4816 SHERIFF RD NE,CHURCHES,1,,PlacesofWorshipPt_386,405849.11,137259.52,,{303064C2-42A4-4C98-9823-DA648F5AF9DE},,,447
-8577505.63641935,4707808.59860257,ST STEPHEN MARTYR CHURCH,STSTEPHENMARTYRDC.ORG,CHRISTIAN,2436 PENNSYLVANIA AVE NW,CHURCHES,1,,PlacesofWorshipPt_499,395399.15,137255.82,,{8D2E1797-776D-472A-BEE4-7234D3C57164},,,448
-8564944.28652175,4707804.71762419,Joshua's Temple FBC,,CHRISTIAN,4318 SHERIFF ROAD NE,CHURCHES,1,23537,PlacesofWorshipPt_698,405186.94,137253.17,,{E8016504-E901-44D2-858A-DCD2AF870A50},,,449
-8564700.82056804,4707801.69386571,FIRST BAPTIST CHR OF DEANWOOD,THEFIRSTBAPTISTCHURCHOFDEANWOOD.ORG,CHRISTIAN,1008 45TH ST NE,CHURCHES,1,,PlacesofWorshipPt_333,405376.65,137250.95,,{E73FC5BD-E0BD-42D5-BC5D-A23779346F45},,,450
-8564566.42870173,4707798.01902708,RANDALL MEMORIAL METHODIST CHR,RANDALLUMC.ORG,CHRISTIAN,1002 46TH ST NE,CHURCHES,1,,PlacesofWorshipPt_274,405481.37,137248.17,,{7FC7814D-8558-4F64-8806-E1D87E861D11},,,451
-8575819.5962701,4707776.68553264,ST MARK'S SQUARE LLC,,CHRISTIAN,1629 K ST NW,CHURCHES,1,,PlacesofWorshipPt_551,396712.9,137230.4,,{363BCDA2-301A-4F6A-80B2-AEFD58D85979},,,452
-8575378.80964667,4707771.65372453,GRACE COVENANT CHURCH,GRACECOVDC.ORG,CHRISTIAN,1000 VERMONT AVE NW # 1100,CHURCHES,1,,PlacesofWorshipPt_102,397056.36,137226.36,,{645879FB-2B24-44A9-A953-B73A1DAA2CC5},,,453
-8574845.90519954,4707771.73554627,ST PAULS,,CHRISTIAN,1275 K ST NW,CHURCHES,1,,PlacesofWorshipPt_135,397471.6,137226.28,,{5D8A7974-F7C8-4A76-9FFC-692FEBF0697C},,,454
-8574383.36710342,4707769.79864289,MT VERNON PLACE UNITED MTHDST,MVPUMC.ORG,CHRISTIAN,900 MASSACHUSETTS AVE NW,CHURCHES,1,,PlacesofWorshipPt_67,397832.01,137224.67,,{D6AE6099-5072-4CBF-B552-C4F6F9A9AA33},,,455
-8574383.36710342,4707769.79864289,CHINESE COMMUNITY CHURCH,CCCDC.COM,CHRISTIAN,500 I ST NW,CHURCHES,1,,PlacesofWorshipPt_544,397832.01,137224.67,,{D8A92E02-8C35-459D-8EA3-44D9125E27E3},,,456
-8572573.97613231,4707761.82292304,Saint Phillip Baptist,<Null>,CHRISTIAN,1001 NORTH CAPITOL STREET NE,CHURCHES,1,285738,PlacesofWorshipPt_645,399241.89,137218.22,,{12503DD8-C60E-4C0C-8A0E-EFB5C01FB63E},,,457
-8564942.70076079,4707737.10357263,DIVINE LOVE BAPTIST CHURCH,DIVINELOVEBC.ORG,CHRISTIAN,4303 SHERIFF RD NE,CHURCHES,1,,PlacesofWorshipPt_293,405188.21,137200.7,,{1895F20B-2E82-4918-B53B-DF7EE4FE31B4},,,458
-8564697.43162592,4707727.06859118,NEW BEGINNING CHRISTIAN,,CHRISTIAN,4421 SHERIFF RD NE,CHURCHES,1,,PlacesofWorshipPt_271,405379.33,137193.04,,{48657310-51D8-4FDD-B79D-61416363EDFA},,,459
-8564807.79067789,4707722.62028493,GOOD SUCCESS CHRISTIAN CHURCH,,CHRISTIAN,4401 SHERIFF RD NE,CHURCHES,1,,PlacesofWorshipPt_283,405293.34,137189.53,,{6726AEF5-AADE-4AD0-B659-F7A5938295B4},,,460
-8564564.60716973,4707722.3381736,NEW BIRTH PRAYER MSSNRY BAPT,,CHRISTIAN,4515 SHERIFF RD NE,CHURCHES,1,,PlacesofWorshipPt_273,405482.83,137189.44,,{C984B1B0-BE1A-40AD-BFD8-7D3DD3BC8023},,,461
-8564724.93745645,4707721.97158304,Deanwood Seventh-Day Adventist Fellowship,,CHRISTIAN,4417 SHERIFF ROAD NE,CHURCHES,1,21764,PlacesofWorshipPt_640,405357.9,137189.07,,{F8681F67-8350-4D3F-8FE1-B5D7E9C5E568},,,462
-8564474.05373526,4707721.79803556,PILGRIM REST BAPTIST CHURCH,PILGRIMRESTBAPTISTDC.ORG,CHRISTIAN,4611 SHERIFF RD NE,CHURCHES,1,,PlacesofWorshipPt_332,405553.39,137189.07,,{9B902B04-7AFC-440B-8827-01D31F3613A8},,,463
-8569237.41323975,4707693.51723979,JESUS WAY TEMPLE,,CHRISTIAN,1700 MARYLAND AVE NE,CHURCHES,1,,PlacesofWorshipPt_94,401841.76,137165.39,,{62C22B9F-2D80-4B09-9F3D-D0F596D14347},,,464
-8577463.72615553,4707682.58500827,ST PAUL'S EPISCOPAL CHURCH,STPAULS-KST.COM,CHRISTIAN,2430 K ST NW OFC,CHURCHES,1,,PlacesofWorshipPt_498,395431.75,137158.01,,{199A22E5-A21D-444F-9793-66A7809BB7FA},,,465
-8570970.04596004,4707682.47253158,CHURCH UNITED SPANISH,IPUHDC.ORG,CHRISTIAN,811 K ST NE,CHURCHES,1,,PlacesofWorshipPt_61,400491.68,137156.62,,{6A9558FC-2897-41E6-BA85-A17A2BA6638D},,,466
-8571794.24130026,4707679.15286612,Community Holiness Church,,CHRISTIAN,305 K STREET NE,CHURCHES,1,41326,PlacesofWorshipPt_693,399849.46,137154.03,,{97FB6716-9FF9-4351-8750-77D8DADF8396},,,467
-8564931.01744287,4707665.81083386,SOUL SAVING CTR OF CHRIST,SSCOCINC.ORG,CHRISTIAN,909 43RD PL NE,CHURCHES,1,,PlacesofWorshipPt_381,405197.35,137145.38,,{DA8BB271-A5C5-4F5F-8221-8837A7691285},,,468
-8576724.69798174,4707664.98454033,MARCH-THE LIVING LONGITUDINAL,,CHRISTIAN,2020 K ST NW,CHURCHES,1,,PlacesofWorshipPt_554,396007.6,137144.04,,{15ACB6E4-6822-4253-B509-C1F399AA241E},,,469
-8576641.1882039,4707660.76124493,NUEVA VIDA INC,,CHRISTIAN,2000 K ST NW # 200,CHURCHES,1,,PlacesofWorshipPt_192,396072.67,137140.73,,{7F2B528C-B741-40F8-B15D-6291245F531F},,,470
-8563134.53670399,4707642.32958131,CONTEE AME ZION CHURCH,CONTEEAMEZ.ORG,CHRISTIAN,903 DIVISION AVE NE,CHURCHES,1,,PlacesofWorshipPt_347,406597.2,137128.2,,{31CB8D03-9114-41D6-B040-48E9B1F00A08},,,471
-8570684.80038375,4707621.77113163,HOLY NAME OF JESUS PARISH,HOLYNAMEPARISHDC.ORG,CHRISTIAN,920 11TH ST NE,CHURCHES,1,,PlacesofWorshipPt_107,400713.95,137109.53,,{31B5E11E-1724-4B8D-BD2E-8AFC4A90E6CF},,,472
-8573250.66814584,4707603.19976384,MT CARMEL BAPTIST CHURCH,THEMCBC.ORG,CHRISTIAN,901 3RD ST NW,CHURCHES,1,,PlacesofWorshipPt_50,398714.59,137095.19,,{20EFB17B-1201-42FA-A351-585ED56F48CF},,,473
-8572676.3951847,4707581.28103109,ST ALOYSIUS PARISH,STALSCHURCHDC.ORG,CHRISTIAN,19 EYE ST NW,CHURCHES,1,,PlacesofWorshipPt_21,399162.07,137078.12,,{6BCF9A25-3020-4036-8465-7061FAE626B4},,,474
-8570278.17779755,4707578.46848976,Temple Rock Of Ages Assembly of Yahweh,,CHRISTIAN,1300 I STREET NE,CHURCHES,1,68757,PlacesofWorshipPt_711,401030.8,137075.96,,{E8D74A1A-080E-454A-917A-14AA80FFCEF6},,,475
-8571151.09329071,4707577.44960796,PILGRIM BAPTIST CHURCH,PILGRIMBAPTISTDC.ORG,CHRISTIAN,700 I ST NE,CHURCHES,1,,PlacesofWorshipPt_86,400350.61,137075.11,,{96EEE0D0-8405-427B-8F56-7D7F4B875BDE},,,476
-8571014.30233772,4707572.08212282,CRUSADERS BAPTIST CHURCH,CRUSADERSBAPTISTCHURCH.ORG,CHRISTIAN,800 I ST NE,CHURCHES,1,,PlacesofWorshipPt_56,400457.2,137070.95,,{1B6B1DDA-ADCF-4280-82E1-383B70F0A806},,,477
-8562756.304293,4707543.03021605,CHURCH OF THE INCARNATION,INCARNATIONDC.ORG,CHRISTIAN,880 EASTERN AVE NE,CHURCHES,1,,PlacesofWorshipPt_349,406891.99,137051.39,,{1205CF03-38DA-49A8-9852-464230D49CE6},,,478
-8569708.70148779,4707545.62244009,CHRISTIAN LOVE BAPTIST CHURCH,,CHRISTIAN,818 BLADENSBURG RD NE,CHURCHES,1,,PlacesofWorshipPt_55,401474.55,137050.54,,{062582DA-235B-456F-92D0-B89237CFEE47},,,479
-8570873.09967898,4707526.92128472,Trinity Holy Tabernacle,,CHRISTIAN,829 9TH STREET NE,CHURCHES,1,81023,PlacesofWorshipPt_657,400567.23,137035.91,,{19204084-B676-440B-98F2-3F13915BABAD},,,480
-8570489.57610026,4707519.34830599,SACRED HEART OF JESUS INTL,,CHRISTIAN,1201 I ST NE,CHURCHES,1,,PlacesofWorshipPt_76,400866.08,137030.06,,{016F16D0-5F1A-4C2C-BDA8-98C00A303FD9},,,481
-8571460.01981754,4707518.81556463,TABLE CHURCH-H STREET PARISH,,CHRISTIAN,509 I ST NE,CHURCHES,1,,PlacesofWorshipPt_118,400109.89,137029.6,,{856FC7FB-5B27-4EF5-BBF7-BE7A266DAD30},,,482
-8564796.2434689,4707487.14986822,REVELATION KNOWLEDGE CHRISTIAN,,CHRISTIAN,801 44TH ST NE,CHURCHES,1,,PlacesofWorshipPt_246,405302.46,137006.8,,{CEABF4B9-D813-4A8F-9700-8624D51178E7},,,483
-8571461.00847618,4707482.83099853,CALVARY EPISCOPAL CHURCH,CALVARYDC.NET,CHRISTIAN,820 6TH STREET NORTHEAST,CHURCHES,1,,PlacesofWorshipPt_766,400109.125,137001.671875,,{1C9B39AE-5A67-4FCF-B883-6DB845EA6498},,,484
-8565643.43723915,4707480.49377762,BETHESDA NEW LIFE GOSPEL CHR,BNLGCHURCH.ORG,CHRISTIAN,750 KENILWORTH AVE NE,CHURCHES,1,,PlacesofWorshipPt_263,404642.31,137001.22,,{E1C0AF9A-1D26-49EF-A960-817F414A34A1},,,485
-8564728.63126031,4707477.62033286,True Vision Chruch of God In Christ Inc.,,CHRISTIAN,4410 HUNT PLACE NE,CHURCHES,1,22193,PlacesofWorshipPt_639,405355.15,136999.44,,{0C51BD1E-3D85-48C9-B8C7-7E3DC61F0752},,,486
-8573330.80311214,4707469.43244894,SECOND BAPTIST CHURCH,SECONDBAPTISTCHURCHDC.ORG,CHRISTIAN,816 3RD ST NW,CHURCHES,1,,PlacesofWorshipPt_43,398652.13,136991.39,,{782773AF-CA22-4598-A1ED-961C7DB7597C},,,487
-8575608.06056137,4707420.94262313,ST JOHN'S EPISCOPAL CHURCH,STJOHNSGEORGETOWN.ORG,CHRISTIAN,1525 H ST NW,CHURCHES,1,,PlacesofWorshipPt_133,396877.62,136954.26,,{CAB47C42-C43B-422B-A1F9-D73A295539B0},,,488
-8570686.8973672,4707421.1664854,DOUGLAS MEMORIAL UNITED MTHDST,,CHRISTIAN,800 11TH ST NE,CHURCHES,1,,PlacesofWorshipPt_62,400712.33,136953.85,,{11114BB4-86CC-407E-AF8C-74616934D4CF},,,489
-8574193.64410721,4707403.7506012,GREATER NEW HOPE BAPTIST CHR,GNHBC.ORG,CHRISTIAN,816 8TH ST NW,CHURCHES,1,,PlacesofWorshipPt_8,397979.77,136940.56,,{0A15DFA1-705D-4B40-A0B0-DB46A0481A92},,,490
-8564198.96598412,4707385.32091784,New Hope Fire Baptist Church,,CHRISTIAN,811 48TH STREET NE,CHURCHES,1,80068,PlacesofWorshipPt_691,405767.93,136928.1,,{2B61E81D-44A7-4361-852C-7B70E33E8A5E},,,491
-8573793.29232253,4707367.94612348,TEMPLE OF CUN YUM,,CHRISTIAN,805 6TH ST NW,CHURCHES,1,,PlacesofWorshipPt_42,398291.73,136912.7,,{4C718770-A048-48FC-82AE-19C5BB7C103E},,,492
-8575075.69099702,4707355.17828846,NEW YORK AVENUE PRESBYTERIAN,,CHRISTIAN,1313 NEW YORK AVE NW,CHURCHES,1,,PlacesofWorshipPt_98,397292.44,136903.07,,{686D9BC2-B14A-48FB-8ACE-EFC680A33ED0},,,493
-8570275.47366527,4707352.20907209,Saint John's Church Of God,,CHRISTIAN,1301 H STREET NE,CHURCHES,1,68809,PlacesofWorshipPt_634,401032.93,136900.37,,{2BEA0524-47A8-4444-B7FB-50F5839E869A},,,494
-8575316.11218201,4707334.77245361,KOREA TRUTH COMMISSION,<Null>,CHRISTIAN,733 15TH ST NW,CHURCHES,1,,PlacesofWorshipPt_104,397105.09,136887.3,,{D84CDB7D-E0BC-44ED-860F-CFA5C9126AD8},,,495
-8562948.8751241,4707323.85779315,NEW ZION PENTECOSTAL CHURCH,,CHRISTIAN,5425 JAMES PL NE,CHURCHES,1,,PlacesofWorshipPt_310,406742.08,136881.17,,{4B85C2F8-68D0-4EBB-85C6-83AAB196D35F},,,496
-8564203.09737689,4707298.03759689,Sacred Heart Spiritual Church,,CHRISTIAN,721 48TH STREET NE,CHURCHES,1,77706,PlacesofWorshipPt_637,405764.76,136860.36,,{4C4A9EAE-6BFE-4F57-9A33-C0FBF8793EB4},,,497
-8574116.31134129,4707299.71967173,GRACE PRESBYTERIAN CHR-WA DC,<Null>,CHRISTIAN,777 8TH ST NW,CHURCHES,1,,PlacesofWorshipPt_14,398040.01,136859.81,,{08AC2268-B8B2-4922-8130-C96532E505BC},,,498
-8573682.96260921,4707289.40668239,ST MARYS MOTHER OF GOD,SAINTMARYMOTHEROFGOD.ORG,CHRISTIAN,727 5TH ST NW,CHURCHES,1,,PlacesofWorshipPt_30,398377.69,136851.73,,{40294B71-A82D-456C-87C8-D99792B151E3},,,499
-8563253.65579772,4707283.17667297,TABERNACLE BAPTIST CHURCH,TABERNACLEBAPTISTCHURCH-DC.ORG,CHRISTIAN,719 DIVISION AVE NE,CHURCHES,1,,PlacesofWorshipPt_232,406504.61,136849.4,,{08BEC808-6938-437D-B75C-1885C688199D},,,500
-8569809.50351421,4707276.28065156,Bethlehem Fire Baptized Holiness Church,FBHCHURCH.ORG,CHRISTIAN,712 15TH STREET NE,CHURCHES,1,288893,PlacesofWorshipPt_628,401396.04,136841.5,,{51C833A6-5E91-48A2-9AC4-F023727510BD},,,501
-8574125.92932067,4707272.19401515,CALVARY BAPTIST CHURCH,CALVARYDC.ORG,CHRISTIAN,755 8TH ST NW,CHURCHES,1,,PlacesofWorshipPt_1,398032.51,136838.45,,{04B0B5C8-3249-405D-8A4B-71EF52B6A359},,,502
-8563790.91191428,4707265.16647689,LITTLE MT ZION HOLINESS CHURCH,,CHRISTIAN,736 50TH ST NE,CHURCHES,1,,PlacesofWorshipPt_573,406085.97,136835.09,,{8E66CDC4-522E-4B09-B520-BF68E730294F},,,503
-8576034.28577956,4707263.71648659,HOMBRES DE PALABRA,,CHRISTIAN,1701 PENNSYLVANIA AVE NW,CHURCHES,1,,PlacesofWorshipPt_556,396545.44,136832.38,,{D36C01C3-E7A6-4406-B65C-97E5FA5815C4},,,504
-8571631.03602419,4707263.59233893,NORTHEAST HOLY TRINITY CHURCH,NEHOLYTRINITYCHURCH.ORG,CHRISTIAN,709 4TH ST NE,CHURCHES,1,,PlacesofWorshipPt_87,399976.63,136831.53,,{37938FC1-76E4-481A-B6A2-B9DA8FBFCF69},,,505
-8565538.91879067,4707249.8968258,MT VERNON UNITED METHODIST CHR,,CHRISTIAN,4147 MINNESOTA AVE NE,CHURCHES,1,,PlacesofWorshipPt_285,404723.86,136822.31,,{67DA9D89-38A2-456D-A6DD-B93B92D579F0},,,506
-8565483.5202231,4707247.44104372,NEW JERUSALEM TEMPLE,TEMPLENEWJERUSALEM.ORG,CHRISTIAN,4024 GAULT PL NE,CHURCHES,1,,PlacesofWorshipPt_312,404767.03,136820.43,,{1318766A-4006-4BFF-B437-98764A009075},,,507
-8564638.01954513,4707245.94119014,HOLY TRINITY UNITED BAPTIST,HOLYTRINITYUNITEDBAPTISTCHURCH.COM,CHRISTIAN,4504 GAULT PL NE,CHURCHES,1,,PlacesofWorshipPt_365,405425.88,136819.69,,{148C8309-B9FC-4709-B866-9156384E1E52},,,508
-8564454.54898076,4707242.07655278,REDEEMING LOVE CHRISTIAN CTR,,CHRISTIAN,4611 NANNIE HELEN BURROUGHS AV,CHURCHES,1,,PlacesofWorshipPt_242,405568.85,136816.79,,{7453241B-6493-4EC4-A06B-75309D407ADB},,,509
-8577217.33576846,4707240.95333413,ST MARY'S EPISCOPAL CHURCH,STMARYSFOGGYBOTTOM.ORG,CHRISTIAN,728 23RD ST NW,CHURCHES,1,,PlacesofWorshipPt_497,395623.55,136815.17,,{EF5AD96F-1B3B-49C0-B321-0E16664D1808},,,510
-8571346.41356279,4707228.76003408,Saint Job Baptist Church,,CHRISTIAN,620 G STREET NE,CHURCHES,1,3889,PlacesofWorshipPt_718,400198.42,136804.5,,{2E2A0346-182A-470A-86C2-05C78156B25C},,,511
-8568867.07575345,4707213.35689771,Open Door Temple Church of God in Christ,,CHRISTIAN,1918 BENNING ROAD NE,CHURCHES,1,54117,PlacesofWorshipPt_702,402130.43,136792.83,,{3BA0862C-86C3-4C97-A071-E4A0A5D8B51F},,,512
-8562983.4454706,4707204.65868893,New Mt Carmel Freewill Baptist,,CHRISTIAN,5368 GAY STREET NE,CHURCHES,1,9476,PlacesofWorshipPt_681,406715.22,136788.64,,{92408FDD-D117-43E4-B9C0-393FB77CCDAB},,,513
-8564416.25943369,4707199.8241753,HIGHER PRAISE MINISTRIES,,CHRISTIAN,4625 GAULT PL NE,CHURCHES,1,,PlacesofWorshipPt_363,405598.71,136784.02,,{D67992D0-4245-485B-9ED9-86B52864322C},,,514
-8564416.25943369,4707199.8241753,MT SINAI PRIMITIVE BAPTIST CHR,,CHRISTIAN,4625 GAULT PL NE,CHURCHES,1,,PlacesofWorshipPt_284,405598.71,136784.02,,{B0265864-E192-4F9E-882F-6BB9C2EC8618},,,515
-8569748.03495473,4707196.58652247,The New Solid Rock Perfecting Church,,CHRISTIAN,701 15TH STREET NE,CHURCHES,1,327,PlacesofWorshipPt_653,401443.95,136779.66,,{9025C44F-97E5-4E08-8F32-E308B274D281},,,516
-8562493.78685462,4707181.42293988,NEW MT OLIVE BAPTIST CHURCH,,CHRISTIAN,710 58TH ST NE,CHURCHES,1,,PlacesofWorshipPt_309,407096.8,136770.94,,{D4A01101-0A0F-4792-B4D5-E24D2035E28F},,,517
-8563247.74909829,4707177.71804332,MACEDONIA HOLY CHURCH,,CHRISTIAN,707 DIVISION AVE NE,CHURCHES,1,,PlacesofWorshipPt_308,406509.28,136767.56,,{B86E5906-E54B-4B63-8A71-B2F61858E6AF},,,518
-8563473.36846368,4707172.64453625,Holy Christian House of Praise for all people,http://www.hchouseofpraise.org/,CHRISTIAN,5110 NANNIE HELEN BURROUGHS AVENUE NE,CHURCHES,1,288501,PlacesofWorshipPt_627,406333.47,136763.48,,{8737B738-E57E-401F-BB90-B8A89A9CB028},,,519
-8570629.50509581,4707174.21175496,PEOPLES COMMUNITY CHURCH,<Null>,CHRISTIAN,653 11TH ST NE,CHURCHES,1,,PlacesofWorshipPt_84,400757.07,136762.2,,{92C64FB1-D089-443E-96EC-0EC14DCE56E2},,,520
-8563896.84512158,4707167.60257196,SECOND NEW ST LUKE BAPTIST CHR,,CHRISTIAN,4918 NANNIE HELEN BURROUGHS AV,CHURCHES,1,,PlacesofWorshipPt_270,406003.48,136759.31,,{E7FC48D9-810C-4CB0-B15C-1930FCC7FFA1},,,521
-8574992.94447101,4707166.60289586,CHURCH OF THE EPIPHANY,EPIPHANYDC.ORG,CHRISTIAN,1317 G ST NW,CHURCHES,1,,PlacesofWorshipPt_101,397356.87,136756.7,,{EFFDE695-C5BB-4698-A9C0-5B52EF5C4FBF},,,522
-8574447.04165662,4707150.23936102,TABLE CHURCH-DOWNTOWN,THETABLECHURCHDC.ORG,CHRISTIAN,945 G ST NW,CHURCHES,1,,PlacesofWorshipPt_20,397782.26,136743.87,,{7A51BF87-9D70-42BE-89B7-8309CF62B7DA},,,523
-8574447.04165662,4707150.23936102,FIRST CONGREGATIONAL UCC,FIRSTUCCDC.ORG,CHRISTIAN,945 G ST NW,CHURCHES,1,,PlacesofWorshipPt_23,397782.26,136743.87,,{9CCC8357-972D-4744-A171-172E689970AF},,,524
-8577385.3184605,4707148.5354735,WESTERN PRESBYTERIAN CHURCH,WESTERNPRESBYTERIAN.NET,CHRISTIAN,2401 VIRGINIA AVE NW,CHURCHES,1,,PlacesofWorshipPt_545,395492.61,136743.52,,{1FC4DCB8-3091-471C-99E2-4F9BED024164},,,525
-8569807.5647414,4707135.83030207,New Mount Zion Church Of God,,CHRISTIAN,628 15TH STREET NE,CHURCHES,1,3043,PlacesofWorshipPt_716,401397.57,136732.5,,{268D0F4E-E352-452E-881E-B2B855CC3B4C},,,526
-8569152.50490809,4707111.62346553,PEACE BAPTIST CHURCH,PBC712.COM,CHRISTIAN,712 18TH ST NE,CHURCHES,1,,PlacesofWorshipPt_83,401908.03,136713.82,,{52ACA837-1C54-485C-A844-F7667CA1E557},,,527
-8570184.58669177,4707095.00530686,PURITY BAPTIST CHURCH,PURITYBAPTISTDC.ORG,CHRISTIAN,1325 MARYLAND AVE NE,CHURCHES,1,,PlacesofWorshipPt_72,401103.78,136700.77,,{1134B15F-D53E-447C-8929-8AC988E487D4},,,528
-8574688.88500804,4707091.72111613,READING FOR NASAA ASSEMBLY,NASPAA.ORG,CHRISTIAN,1120 G ST NW,CHURCHES,1,,PlacesofWorshipPt_555,397593.79,136698.51,,{2C2F1856-4F65-46CB-95CC-3ABCBC27696D},,,529
-8576575.74123184,4707089.79691687,UNITED CHURCH,THEUNITEDCHURCH.NET,CHRISTIAN,1920 G ST NW,CHURCHES,1,,PlacesofWorshipPt_97,396123.45,136697.6,,{4638265C-F024-4B3F-866A-2328DBC376FB},,,530
-8576575.74123184,4707089.79691687,THREE STRANDS COMMUNITY CHURCH,,CHRISTIAN,1920 G ST NW,CHURCHES,1,,PlacesofWorshipPt_550,396123.45,136697.6,,{6544C159-82EF-4052-B2F4-69BA1CD34106},,,531
-8563459.6442252,4707083.49349945,SARGENT MEMORIAL PRESBYTERIAN,SARGENT-MEMORIAL-PC.COM,CHRISTIAN,5109 NANNIE HELEN BURROUGHS AVENUE NE,CHURCHES,1,,PlacesofWorshipPt_306,406344.22,136694.3,,{51E0B071-5E44-461F-9A31-407A13D360A7},,,532
-8570233.13517951,4707079.98787083,Kingdom Of Zion Baptist,,CHRISTIAN,1313 MARYLAND AVENUE NE,CHURCHES,1,68235,PlacesofWorshipPt_699,401065.95,136689.11,,{7AAB9CA0-88BB-400B-8DF7-F32EB5F12E7C},,,533
-8574439.22842595,4707065.12193246,ST PATRICKS CATHOLIC CHURCH,SAINTPATRICKDC.ORG,CHRISTIAN,619 10TH ST NW,CHURCHES,1,,PlacesofWorshipPt_31,397788.33,136677.81,,{2B9C0EE5-6545-4F53-9C12-A17666F201A0},,,534
-8569579.56588717,4707059.00452091,United Pentecostal Assembly Inc.,,CHRISTIAN,619 16TH STREET NE,CHURCHES,1,3999,PlacesofWorshipPt_651,401575.25,136672.91,,{BD9880F1-3BFB-4150-9940-37E1F809F74F},,,535
-8569082.31004156,4707056.97312518,GREATER MT PISGAH BAPTIST CHR,,CHRISTIAN,1818 GALES ST NE,CHURCHES,1,,PlacesofWorshipPt_82,401962.74,136671.42,,{57470402-4C63-4D9E-A83B-7E824E43F89C},,,536
-8562815.89831272,4707041.02695272,RIGHTEOUS CHURCH OF GOD,RCGMINISTRIES.ORG,CHRISTIAN,616 56TH ST NE,CHURCHES,1,,PlacesofWorshipPt_330,406845.89,136661.76,,{8B9D5786-4E74-4E0B-A964-8B569763833C},,,537
-8573254.07535152,4707008.81931636,HOLY ROSARY CHURCH,HOLYROSARYCHURCHDC.ORG,CHRISTIAN,595 3RD ST NW,CHURCHES,1,,PlacesofWorshipPt_16,398711.86,136633.91,,{FEFD04EA-1F3B-4D24-8805-AA44515A94B8},,,538
-8570988.36162555,4707003.98800613,GALATIANS BAPTIST CHURCH,,CHRISTIAN,806 F ST NE,CHURCHES,1,,PlacesofWorshipPt_95,400477.44,136630.07,,{578AC059-ABD2-4481-944F-207952AC1252},,,539
-8569407.1608221,4706985.48494867,PILGRIM A M E OUTREACH CHURCH,,CHRISTIAN,612 17TH ST NE,CHURCHES,1,,PlacesofWorshipPt_85,401709.61,136615.88,,{41C4A002-73AC-43FB-82EC-9EDC20C60F10},,,540
-8564807.71313152,4706971.64034657,CENTRAL UNION BAPTIST CHURCH,CUBCDC.ORG,CHRISTIAN,4401 FOOTE ST NE,CHURCHES,1,,PlacesofWorshipPt_226,405293.79,136606.72,,{A47010BA-3E9B-4D91-9074-402A70DD120B},,,541
-8571957.65078236,4706948.91670223,NATIONAL COMMUNITY CHURCH,NCCPRODUCTION.COM,CHRISTIAN,205 F ST NE,CHURCHES,1,,PlacesofWorshipPt_70,399722.11,136587.32,,{C45577B9-3437-4B15-B587-275AD5B33F09},,,542
-8569396.57038251,4706942.25341111,PILGRIM AME,,CHRISTIAN,1673 ROSEDALE ST NE,CHURCHES,1,,PlacesofWorshipPt_530,401717.87,136582.33,,{A0D7C980-1D53-46EA-9B94-F51D94019810},,,543
-8572711.33454199,4706936.5826505,IOWA GENERAL ASSEMBLY,LEGIS.STATE.IA.US,CHRISTIAN,20 F ST NW # 200,CHURCHES,1,,PlacesofWorshipPt_541,399134.79,136577.79,,{FCF4CEF8-082C-478C-8605-ADA0AFB61733},,,544
-8571960.74193645,4706906.25444808,HERITAGE REVIVAL PROJECTS INC,HERITAGEREVIVAL.ORG,CHRISTIAN,521 2ND ST NE,CHURCHES,1,,PlacesofWorshipPt_542,399719.7,136554.21,,{28A57FA3-632E-4CBB-BCB9-545A6ACAAA07},,,545
-8563707.06543016,4706877.88958281,NEW BAPTIST COVENANT,PNBCAS.COM,CHRISTIAN,601 50TH ST NE,CHURCHES,1,,PlacesofWorshipPt_558,406151.54,136534.58,,{7DCFF4F1-A260-4708-B3AB-0DD9BAA82EE6},,,546
-8576827.00013633,4706850.29224437,HARDWOOD REVIVAL,,CHRISTIAN,510 21ST ST NW,CHURCHES,1,,PlacesofWorshipPt_132,395927.56,136511.82,,{58BD9D7B-452D-4D44-AAF9-1096C979D1FC},,,547
-8562477.5452647,4706845.85491203,HOLY TRUTH-GOD IN CHRIST JESUS,,CHRISTIAN,514 58TH ST NE,CHURCHES,1,,PlacesofWorshipPt_366,407109.69,136510.52,,{B595755E-8072-49D0-86C6-F245890C0DAD},,,548
-8569963.87936614,4706830.24935339,Church of God of Prophecy - Capitol Hill,,CHRISTIAN,1400 E STREET NE,CHURCHES,1,149978,PlacesofWorshipPt_661,401275.8,136495.32,,{961FC5A8-7E82-43E9-BB1D-409BE3273FDE},,,549
-8573342.93681849,4706829.76785463,METRO WASH DC SYNOD,METRODCELCA.ORG,CHRISTIAN,305 E ST NW,CHURCHES,1,,PlacesofWorshipPt_51,398642.59,136494.96,,{BEC65EC5-EF26-46F5-B5EF-8DF95E0BA2F9},,,550
-8573357.71966195,4706828.86335938,NEW HOPE BAPTIST UCC,NEWHOPEBUCC.COM,CHRISTIAN,309 E ST NW,CHURCHES,1,,PlacesofWorshipPt_33,398631.07,136494.26,,{B38BEEFE-8200-4FFB-833A-67105A784DAB},,,551
-8573357.71966195,4706828.86335938,FIRST TRINITY LUTHERAN CHURCH,FIRSTTRINITYDC.ORG,CHRISTIAN,501 4TH ST NW,CHURCHES,1,,PlacesofWorshipPt_12,398631.07,136494.26,,{730A4F5D-0F0F-46C0-9DB7-046A4150B44C},,,552
-8570875.73463782,4706746.25665676,WASHINGTON COMMUNITY FELLOWSHP,WCFCHURCH.ORG,CHRISTIAN,907 MARYLAND AVE NE,CHURCHES,1,,PlacesofWorshipPt_119,400565.22,136430.05,,{3660D439-D5FB-4252-9D75-9E064C14786E},,,553
-8562782.64394007,4706734.69753111,REFUGE TEMPLE,,CHRISTIAN,420 56TH ST NE,CHURCHES,1,,PlacesofWorshipPt_243,406872.01,136424.04,,{E492CD0A-72DB-45BA-9EFE-48890E38740C},,,554
-8562782.64394007,4706734.69753111,CHURCH OF OUR LORD JESUS CHRIST,,CHRISTIAN,420 56TH ST NE,CHURCHES,1,,PlacesofWorshipPt_350,406872.01,136424.04,,{DAE244FC-8621-4981-82D9-97E2ECEDA75B},,,555
-8569753.57283971,4706733.1391499,HWY CHRISTIAN CHURCH,,CHRISTIAN,431 15TH ST NE,CHURCHES,1,,PlacesofWorshipPt_93,401439.7,136419.98,,{D5016A0E-23BA-4849-9E38-B648670C1317},,,556
-8574003.15039149,4706704.19940698,ST PETER LUTHERAN CHURCH,,CHRISTIAN,419 7TH ST NW,CHURCHES,1,,PlacesofWorshipPt_536,398128.08,136397.61,,{1A4A8806-8480-4C83-ACD0-3BFF4BA9672C},,,557
-8574651.73501487,4706665.74430537,NO GREATER SACRIFICE,NOGREATERSACRIFICE.ORG,CHRISTIAN,1101 PENNSYLVANIA AVE NW # 6,CHURCHES,1,,PlacesofWorshipPt_535,397622.64,136367.9,,{12FA0859-896C-4E64-B230-28D6B3B906B3},,,558
-8574551.58755657,4706650.14493877,LEVI ZION,,CHRISTIAN,1001 PENNSYLVANIA AVE NW,CHURCHES,1,,PlacesofWorshipPt_532,397700.68,136355.77,,{A26F7CDF-C00F-4705-B7A1-AC4990C5BBCE},,,559
-8561823.56779113,4706613.25471568,LIFE GOSPEL ASSEMBLY INTL CHR,,CHRISTIAN,410 EASTERN AVE NE,CHURCHES,1,,PlacesofWorshipPt_570,407619.49,136330.47,,{AECBDC44-CF77-4527-B410-534EC858BD1C},,,560
-8562335.59599041,4706601.49604615,BEULAH BAPTIST OF DEANWOOD HTS,,CHRISTIAN,5820 DIX ST NE,CHURCHES,1,,PlacesofWorshipPt_264,407220.48,136320.97,,{FBD88523-47A9-42E6-8A4A-E8CA8F7E59BD},,,561
-8570709.18468808,4706585.13376089,LIVING WATER WORSHIP CTR,,CHRISTIAN,1015 D ST NE,CHURCHES,1,,PlacesofWorshipPt_91,400695.02,136305.01,,{CDBDDD2B-053D-4863-AFAC-79A4A2D8EFC7},,,562
-8571387.08219674,4706569.32278584,God's Universal Kingdom Christian Church,,CHRISTIAN,610 MARYLAND AVENUE NE,CHURCHES,1,4858,PlacesofWorshipPt_695,400166.74,136292.71,,{94750C75-C8CF-44D6-9555-0FAAC2772229},,,563
-8564688.61198548,4706556.88912109,GRACE APOSTOLIC CHURCH,GRACEAPOSTOLICCHURCH.NET,CHRISTIAN,4417 DIX ST NE,CHURCHES,1,,PlacesofWorshipPt_257,405386.82,136284.89,,{256FEF05-D3EF-475A-B5AC-3FC910CEED2C},,,564
-8564688.61198548,4706556.88912109,MORNING STAR PENTECOSTAL CHR,,CHRISTIAN,4417 DIX ST NE,CHURCHES,1,,PlacesofWorshipPt_567,405386.82,136284.89,,{F0D8CFA8-987D-4B80-8950-D93142AA3C53},,,565
-8562012.12881522,4706539.96747225,PERFECTION OF THE SAINTS,,CHRISTIAN,6041 DIX ST NE,CHURCHES,1,,PlacesofWorshipPt_331,407472.6,136273.45,,{CC06EECA-7E37-4F35-BCF6-197B0C1ED89C},,,566
-8569751.37570356,4706536.19754535,NEW ABUNDANT LIFE MISSIONARY,,CHRISTIAN,331 15TH ST NE,CHURCHES,1,,PlacesofWorshipPt_88,401441.44,136267.13,,{A822DD16-0C44-4C37-A5A5-9629F24D7816},,,567
-8561750.12724301,4706522.15431385,Lighthouse Full Gospel Mission Church,,CHRISTIAN,6217 DIX STREET NE,CHURCHES,1,3461,PlacesofWorshipPt_652,407676.79,136259.82,,{BA3DD785-2FAC-4A55-B595-B8F099805402},,,568
-8565178.98788123,4706522.02459818,ST PHILLIP AME,,CHRISTIAN,241 42ND ST NE,CHURCHES,1,,PlacesofWorshipPt_596,405004.69,136257.58,,{1E443ADD-7DB2-4A90-B8E9-F16A06E488FA},,,569
-8565178.98788123,4706522.02459818,WARD MEMORIAL AME CHURCH,WARDAMECDC.ORG,CHRISTIAN,241 42ND ST NE,CHURCHES,1,,PlacesofWorshipPt_344,405004.69,136257.58,,{B53E14FA-7623-4C7E-AC02-BE2F0C873E84},,,570
-8561722.12194445,4706501.52476967,Apostolic Evangelical Church of Jesus Christ,,CHRISTIAN,354 EASTERN AVENUE NE,CHURCHES,1,33319,PlacesofWorshipPt_683,407698.63,136243.83,,{09D1657B-4BD0-4695-B0B2-458EB1AFE151},,,571
-8562865.15330212,4706497.9632452,EVERGREEN BAPTIST CHURCH,,CHRISTIAN,325 55TH ST NE,CHURCHES,1,,PlacesofWorshipPt_370,406807.87,136240.25,,{33DBE18A-0A09-4F0D-8E98-58E2338E9EA4},,,572
-8566292.9847186,4706486.74827541,ALMAS TEMPLE,,JEWISH,260 35TH ST NE,SYNAGOGUES,1,,PlacesofWorshipPt_289,404136.57,136229.7,,{815C45E1-82D5-447F-A409-54545BCECC4F},,,573
-8568867.93982479,4706478.68369101,SAINT BENEDICT THE MOOR,STBENMOORDC.ORG,CHRISTIAN,320 21ST STREET NORTHEAST,CHURCHES,1,,PlacesofWorshipPt_742,402129.90625,136222.640625,,{AD9B676A-5D4E-4101-89B5-7166FC1323B4},,,574
-8570392.25620146,4706475.737459,CHURCH-THE LORD JESUS CHRIST,TCLJC.COM,CHRISTIAN,1230 C ST NE,CHURCHES,1,,PlacesofWorshipPt_58,400942.01,136220.13,,{FC4CA8E8-C46A-475E-9BD1-E6A96B6322B4},,,575
-8571393.03822223,4706475.21477692,IMANI TEMPLE,,CHRISTIAN,609 MARYLAND AVE NE,CHURCHES,1,,PlacesofWorshipPt_79,400162.1,136219.67,,{A8AA83B6-3B9B-4DD3-B4A4-FFE9302395A3},,,576
-8571954.36836471,4706472.57457109,SAINT JOSEPHS ON CAPITOL HILL ROMAN CATHOLIC CHURCH,ST-JOSEPHS.ORG,CHRISTIAN,313 2ND STREET NORTHEAST,CHURCHES,1,,PlacesofWorshipPt_736,399724.65625,136217.625,,{771EE6C8-C82B-4C83-BD61-81510552FB46},,,577
-8571902.80269436,4706465.23986601,MADONNA HOUSE,MADONNAHOUSE.ORG,CHRISTIAN,220 C ST NE,CHURCHES,1,,PlacesofWorshipPt_111,399764.84,136211.93,,{389DFD1E-8AE6-4624-844A-8A4774C92177},,,578
-8561802.43860966,4706420.4955812,TRUE WAY CHURCH,,CHRISTIAN,317 62ND ST NE,CHURCHES,1,,PlacesofWorshipPt_212,407636.1,136180.88,,{DF1064C1-8111-4FDD-B725-62C1B5DD3E88},,,579
-8569950.15126329,4706417.28305488,LANE MEMORIAL CME,,CHRISTIAN,1423 C ST NE,CHURCHES,1,,PlacesofWorshipPt_96,401286.55,136174.81,,{3BF6B452-EB45-4F17-9337-A641B54E2FEC},,,580
-8570080.55471778,4706416.69018539,SAINT MARY AFRICAN METHODIST EPISCOPAL ZION CHURCH,,CHRISTIAN,1339 C STREET NORTHEAST,CHURCHES,1,,PlacesofWorshipPt_743,401184.9375,136174.328125,,{74407006-4364-4565-92E5-B0A1E16F1251},,,581
-8564570.99261219,4706408.05750196,Temple United Church,,CHRISTIAN,4510 BROOKS STREET NE,CHURCHES,1,20398,PlacesofWorshipPt_680,405478.56,136169.44,,{B670D698-A50D-4D2A-9280-68A1F086D80A},,,582
-8567158.02781198,4706404.87247595,VARICK MEMORIAL AME ZION CHR,VARICKAMEZ.ORG,CHRISTIAN,255 ANACOSTIA AVE NE,CHURCHES,1,,PlacesofWorshipPt_471,403462.47,136165.83,,{D61752F7-D9E2-4E6C-9613-B07209933C30},,,583
-8564799.18313532,4706388.52619198,EAST FRIENDSHIP BAPTIST CHURCH,EFBCHURCH.ORG,CHRISTIAN,4401 BROOKS ST NE,CHURCHES,1,,PlacesofWorshipPt_280,405300.74,136154.16,,{66B8DF8E-579D-4FDA-AD3E-C55B9B7B8BC0},,,584
-8562597.44100378,4706363.8988384,ST MICHAELS CHR-GOD-CHRIST,,CHRISTIAN,313 57TH ST NE,CHURCHES,1,,PlacesofWorshipPt_385,407016.59,136136.38,,{0A35621E-BCCE-4CBD-9051-B9B549297522},,,585
-8571069.06243518,4706340.5102487,CHURCH OF ST MONICA & ST JAMES,STMONICA-STJAMES.ORG,CHRISTIAN,222 8TH ST NE,CHURCHES,1,,PlacesofWorshipPt_60,400414.58,136115.13,,{28BB02FA-938E-4AD2-8D8F-5311D92E2F55},,,586
-8565040.74592142,4706305.51781986,NEW GROVE BAPTIST CHURCH,NEWGROVEBC.ORG,CHRISTIAN,4242 BENNING RD NE,CHURCHES,1,,PlacesofWorshipPt_311,405112.53,136089.61,,{7C5A81EE-942A-4AA7-910A-1DB9EEE97D87},,,587
-8564912.03526373,4706238.84826703,NEW MT CALVARY MSSNRY BAPT CHR,,CHRISTIAN,4270 BENNING RD NE,CHURCHES,1,,PlacesofWorshipPt_316,405212.87,136037.93,,{909D83A6-0088-4499-B626-6E500203B959},,,588
-8563962.01061134,4706224.7377198,NEW BEGINNING WAY-THE CROSS,,CHRISTIAN,4928 BLAINE ST NE,CHURCHES,1,,PlacesofWorshipPt_272,405953.25,136027.5,,{62991CB9-6691-44B3-8BD8-C777A1AC954B},,,589
-8570082.18700268,4706192.07515201,BROWN MEMORIAL AME CHURCH,BROWNMEMORIALAMEC.ORG,CHRISTIAN,130 14TH ST NE,CHURCHES,1,,PlacesofWorshipPt_63,401183.68,136000,,{38DD49D4-FB89-4E88-8C73-42442DF8E265},,,590
-8570062.88854566,4706189.66292099,MITCHAM CHAPEL AME,,CHRISTIAN,130 14TH ST NE,CHURCHES,1,,PlacesofWorshipPt_537,401198.72,135998.13,,{11366140-4FE6-4F65-BD0E-085567F7840E},,,591
-8572226.32848939,4706132.54248455,UNITED CHURCH OF CHRIST,UCC.ORG,,100 MARYLAND AVE NE # 330,CHURCHES,1,,PlacesofWorshipPt_112,399512.7,135953.72,,{731A4E5B-0AFB-4E61-99B0-324C8B7B2119},,,592
-8566111.86056343,4706128.89613548,Upper Room Baptist,,CHRISTIAN,60 BURNS STREET NE,CHURCHES,1,288747,PlacesofWorshipPt_625,404277.87,135952.03,,{FB344206-58D7-4FFB-9559-70F55B5A150E},,,593
-8571970.97969552,4706127.01494279,Cosmic Church,,CHRISTIAN,113 2ND STREET NE,CHURCHES,1,285880,PlacesofWorshipPt_687,399711.7,135949.42,,{09AD036A-814C-4A4D-8375-822B20547762},,,594
-8570839.36362988,4706113.19437362,CAPITOL HILL ADVENTIST CHURCH,CAPITOLHILLSDACHURCH.ORG,CHRISTIAN,912 MASSACHUSETTS AVE NE,CHURCHES,1,,PlacesofWorshipPt_48,400593.6,135938.71,,{AF00AE32-F147-44AC-A0E7-93807A1406FD},,,595
-8566149.61065328,4706105.68675812,ST JUDAH BAPTIST CHURCH,,CHRISTIAN,43 ANACOSTIA RD NE,CHURCHES,1,,PlacesofWorshipPt_359,404248.46,135934,,{CBA9E26B-9F7D-47C2-9AB4-6B6EFCF870C2},,,596
-8571801.03754175,4706091.3956203,Faith Tabernacle United Holy Church,http://faithtabernacledc.org/,CHRISTIAN,300 A STREET NE,CHURCHES,1,42712,PlacesofWorshipPt_666,399844.14,135921.77,,{58EE2003-2F35-4500-99E1-F05E2393A5A9},,,597
-8571147.73279145,4706089.91870823,CHURCH OF GOD,WASHINGTONDCWMSCOG.COM,CHRISTIAN,700 A ST NE,CHURCHES,1,,PlacesofWorshipPt_57,400353.28,135920.63,,{2B5AE813-6B08-495A-A852-70A437D3B75E},,,598
-8570545.74556906,4706049.32824339,SEVENTH WAVE,,CHRISTIAN,114 12TH ST NE,CHURCHES,1,,PlacesofWorshipPt_525,400822.43,135889.16,,{53067DE2-6DA3-4006-92BB-30AEB916BAA1},,,599
-8571450.10862359,4706040.15724369,TOGETHER FOR THE GOSPEL,,CHRISTIAN,525 A ST NE,CHURCHES,1,,PlacesofWorshipPt_528,400117.63,135882,,{F30DCFAC-A3FC-46CE-BD43-C72BB79DD19E},,,600
-8563554.45632711,4706005.07509894,CAPITAL VIEW BAPTIST CHURCH,CAPVBC.ORG,CHRISTIAN,5201 AMES STREET NORTHEAST,CHURCHES,1,,PlacesofWorshipPt_767,406271,135857.25,,{3F796075-B431-4151-AAA5-ACA3A63D18D6},,,601
-8563338.56770943,4706004.80840106,HUGHES MEMORIAL UNITED MTHDST,HUGHESMEMORIAL.ORG,CHRISTIAN,25 53RD ST NE,CHURCHES,1,,PlacesofWorshipPt_352,406439.25,135857.18,,{C3E2CA88-821E-48F2-9426-2F0F9D997B9A},,,602
-8563897.06073773,4705998.18857604,PEACE LUTHERAN CHURCH,,CHRISTIAN,15 49TH PL NE,CHURCHES,1,,PlacesofWorshipPt_245,406004,135851.7,,{60D76627-B0D2-471F-96D4-2E54A13BFAC8},,,603
-8570265.34841035,4705978.71752247,LINCOLN PARK UNITED MTHDST CHR,UMC.ORG,CHRISTIAN,1301 N CAROLINA AVE NE,CHURCHES,1,,PlacesofWorshipPt_90,401040.96,135834.38,,{6B33FCB0-94D0-4BF9-B4AB-B0CD8F3B9302},,,604
-8571919.16007214,4705944.43958718,LUTHERAN CHURCH OF REFORMATION,REFORMATIONDC.ORG,CHRISTIAN,212 E CAPITOL ST NE,CHURCHES,1,,PlacesofWorshipPt_128,399752.08,135807.71,,{2D04E4B2-5153-4766-821C-3F88ACFEC8E2},,,605
-8569490.30088022,4705943.99269374,MT MORIAH BAPTIST CHURCH,MOUNTMORIAHCHURCH.ORG,CHRISTIAN,1636 E CAPITOL ST NE,CHURCHES,1,,PlacesofWorshipPt_129,401644.99,135807.53,,{84EF9D18-16DC-4BBD-B81E-B4BD41992DD5},,,606
-8570238.72816668,4705942.00813917,HOUSE OF GOD,<Null>,CHRISTIAN,1310 E CAPITOL ST NE,CHURCHES,1,,PlacesofWorshipPt_130,401061.71,135805.89,,{E48294C6-1076-4E30-A5CA-BCF889DBB7F3},,,607
-8562578.8786013,4705936.99658925,SUPREME COUNCIL-THE HSE-JACOB,,CHRISTIAN,5740 E CAPITOL ST NE,CHURCHES,1,,PlacesofWorshipPt_231,407031.35,135805.05,,{2F5E1973-80E0-438A-B5E3-B1B198DD508C},,,608
-8563684.08073067,4705937.26434539,EAST CAPITOL CHURCH OF CHRIST,"EASTCAPITOLSTCOC,ORG",CHRISTIAN,5026 E CAPITOL ST NE,CHURCHES,1,,PlacesofWorshipPt_254,406170.02,135804.54,,{23EAA1D7-A960-4AE0-8E05-DF1AA8067624},,,609
-8570051.71105865,4705858.85570208,HOLY COMFORTER-ST CYPRIAN CHR,PARISHESONLINE.COM,CHRISTIAN,1357 E CAPITOL ST SE,CHURCHES,1,,PlacesofWorshipPt_121,401207.47,135741.37,,{BFDC90A6-3174-48C2-96C5-2D54CC174F8A},,,610
-8563263.46289659,4705850.76053263,Christ Centered Missionary Baptist Church,,CHRISTIAN,5325 EAST CAPITOL STREET SE,CHURCHES,1,288610,PlacesofWorshipPt_629,406497.88,135737.66,,{F9D63230-B2A3-4E21-8261-8687B8CC47E6},,,611
-8563513.12925173,4705839.44515936,EPISCOPAL CHURCH OF THE ATONEMENT,ATONEMENTEPISCOPALCHURCH.ORG,CHRISTIAN,5073 E CAPITOL ST SE,CHURCHES,1,,PlacesofWorshipPt_369,406303.31,135728.72,,{BB238064-2CDA-4A6D-9D3E-39256112E7B7},,,612
-8563886.43525004,4705829.88061797,ST LUKE PARISH,STLUKECHURCHSSJ.ORG,CHRISTIAN,4925 E CAPITOL ST SE,CHURCHES,1,,PlacesofWorshipPt_384,406012.38,135721.07,,{64A9AD7B-102F-4BCB-B2D3-9849E2CB7307},,,613
-8569761.34290157,4705771.66256639,SERVANTS OF THE LORD,SSVMUSA.ORG,CHRISTIAN,28 15TH ST SE,CHURCHES,1,,PlacesofWorshipPt_115,401433.78,135673.73,,{869D4055-0A0B-487E-B693-171CC177F0FA},,,614
-8563699.88476265,4705760.38451597,LEADING COMMANDMENT CHURCH,,CHRISTIAN,5023 CENTRAL AVE SE,CHURCHES,1,,PlacesofWorshipPt_353,406157.81,135667.24,,{147BE476-341C-4001-BD7B-FEEDF386242B},,,615
-8563586.98573698,4705725.12381835,DIVINE MISSION CHURCH,DIVINEMISSIONCHURCH.COM,CHRISTIAN,1 51ST ST SE,CHURCHES,1,,PlacesofWorshipPt_177,406245.82,135639.94,,{4D897FBE-B38A-4581-AF61-4C24D2743485},,,616
-8571795.10442515,4705697.33296301,SAINT MARKS EPISCOPAL CHURCH,,CHRISTIAN,301 A STREET SOUTHEAST,CHURCHES,1,,PlacesofWorshipPt_754,399848.75,135615.90625,,{B548DAE7-3299-4B01-81AC-4A1CBBDB8B74},,,617
-8564593.67760608,4705625.98577448,GOSPEL ARK TEMPLE BIBLEWAY CHR,,CHRISTIAN,4551 BENNING RD SE,CHURCHES,1,,PlacesofWorshipPt_362,405461.3,135562.41,,{6123D251-BD7D-4FB8-9B3E-54DD764082C0},,,618
-8570975.94779453,4705612.21053595,CHRIST OUR SHEPHERD CHURCH,CHRISTOURSHEPHERD.ORG,CHRISTIAN,801 N CAROLINA AVE SE,CHURCHES,1,,PlacesofWorshipPt_109,400487.18,135549.85,,{08248EF4-D3BB-47E4-9898-38A259607CE5},,,619
-8571695.73695595,4705555.07908998,CAPITOL HILL PRESBYTERIAN CHR,CAPITOLHILLPRESCHURCH.ORG,CHRISTIAN,201 4TH ST SE,CHURCHES,1,,PlacesofWorshipPt_106,399926.2,135505.49,,{5EC22485-93F4-4DBA-BE83-0C4D18AF8CD1},,,620
-8569963.8147193,4705553.36255011,THANKFUL BAPTIST CHURCH,,CHRISTIAN,1401 INDEPENDENCE AVE SE,CHURCHES,1,,PlacesofWorshipPt_122,401276.01,135504.26,,{08847472-3BBD-48F8-AFA0-D4C7C93DDD38},,,621
-8571801.4886486,4705541.51148571,TRUTH ABOUT GW BUSH IS NOW OUT,,CHRISTIAN,300 PENNSYLVANIA AVE SE,CHURCHES,1,,PlacesofWorshipPt_534,399843.78,135494.96,,{B8338699-2863-4535-A709-F81DCE67DC51},,,622
-8563517.3828358,4705523.56007583,ST LUCILLE AME ZION CHURCH,MAPQUEST.COM,CHRISTIAN,5100 ASTOR PL SE,CHURCHES,1,,PlacesofWorshipPt_360,406300.19,135483.53,,{D1D00F85-B903-4AC0-95B2-C1581515C037},,,623
-8563873.61917631,4705471.01726004,FIRST BAPTIST CHR-MARSHALL HTS,,CHRISTIAN,4934 B ST SE,CHURCHES,1,,PlacesofWorshipPt_334,406022.58,135442.53,,{1B210CFE-CAE4-49BE-9531-D4F192B52711},,,624
-8563460.33382671,4705414.9351603,MENTROTONE BAPTIST CHURCH,METROTONE-BAPTIST-CHURCH.PLACESTARS.C,CHRISTIAN,5126 B ST SE,CHURCHES,1,,PlacesofWorshipPt_317,406344.72,135399.25,,{1CF97731-4A19-4C95-BD6A-89CFA8AD741C},,,625
-8564519.66503562,4705407.49430361,MASJID AL-ISLAM,,ISLAMIC,4603 BENNING ROAD SOUTHEAST,MOSQUES,1,,PlacesofWorshipPt_753,405519.09375,135392.859375,,{22436FAE-A92E-45C2-8E71-D459EC2E26D7},,,626
-8566811.21818912,4705395.56084049,EDGEWOOD BAPTIST CHURCH,EDGEWOODBAPTISTCHURCHDC.ORG,CHRISTIAN,3408 C ST SE,CHURCHES,1,,PlacesofWorshipPt_240,403733.11,135382.55,,{47C6C4DD-3BC4-4919-9AEF-EFC6418501D7},,,627
-8562552.63514723,4705361.97515812,TRUE BELIEVERS,,CHRISTIAN,5670 CENTRAL AVE SE,CHURCHES,1,,PlacesofWorshipPt_211,407052.2,135358.74,,{1A24B1BE-FC6E-41B3-8ECA-3B5DDA7D9EB8},,,628
-8572032.77355636,4705328.44992883,SAINT PETERS ON CAPITOL HILL,,CHRISTIAN,313 2ND STREET SOUTHEAST,CHURCHES,1,,PlacesofWorshipPt_774,399663.53125,135329.578125,,{F6598E63-34B0-4F94-944C-012EBC38A1D2},,,629
-8566760.10054712,4705315.01774022,FIRST BAPTIST CHURCH/SOUTHEAST,FBC-DC.ORG,CHRISTIAN,3440 MINNESOTA AVE SE,CHURCHES,1,,PlacesofWorshipPt_335,403772.98,135320.05,,{24F19FB7-BEEC-4B50-A45D-18F6920177F7},,,630
-8571584.10894705,4705254.01517148,CAPITOL HILL UNITED MTHDST CHR,CHUMC.NET,CHRISTIAN,421 SEWARD SQ SE,CHURCHES,1,,PlacesofWorshipPt_113,400013.2,135271.8,,{DF40C7DC-EB7D-4DB0-9A27-F2E110BA63F9},,,631
-8571706.34475836,4705234.84492924,WASHINGTON CITY CHURCH OF THE BRETHREN,WASHINGTONCITYCOB.ORG,CHRISTIAN,337 N CAROLINA AVE SE,CHURCHES,1,,PlacesofWorshipPt_110,399917.93,135256.92,,{503E6D16-263F-4A6A-974B-B893457113CE},,,632
-8570589.53315787,4705206.06626197,GREATER PEOPLE UNION BAPTIST,,CHRISTIAN,1111 S CAROLINA AVE SE,CHURCHES,1,,PlacesofWorshipPt_127,400788.37,135234.62,,{ACC2FE7E-A753-4241-83A2-E291383F6881},,,633
-8563667.83475337,4705196.50210638,The Greater New Highway Christian Church of Christ,,CHRISTIAN,5057 C STREET SE,CHURCHES,1,14124,PlacesofWorshipPt_619,406183.13,135229.57,,{0718570C-0863-4DB1-A334-EC8008A4AE1C},,,634
-8566896.15381574,4705180.21112739,MT ENON MISSIONARY BAPTIST,,CHRISTIAN,329 34TH ST SE,CHURCHES,1,,PlacesofWorshipPt_374,403666.99,135215.36,,{0644CC53-22A8-4418-86FA-72FF1D0B04B9},,,635
-8571638.15050844,4705136.65277703,EBENEZER UNITED METHODIST CHR,EBENEZERUMCCAPITOLHILL.SHUTTERFLY.COM,CHRISTIAN,400 D ST SE,CHURCHES,1,,PlacesofWorshipPt_105,399971.08,135180.7,,{0BC7EE87-E519-48A6-97DA-C0AA0C8A30E4},,,636
-8571569.0206679,4705134.74615385,Ebenezer United Methodist,,CHRISTIAN,420 D STREET SE,CHURCHES,1,25691,PlacesofWorshipPt_689,400024.96,135179.22,,{2A1E50F9-A5BF-4660-96B6-E335AD2A599F},,,637
-8563418.57384035,4705106.04710458,ST JOHN BAPTIST CHURCH,,CHRISTIAN,5228 CALL PL SE,CHURCHES,1,,PlacesofWorshipPt_378,406377.46,135159.51,,{20FABF79-2C71-485F-BF4A-7F237A6D9038},,,638
-8569648.03828744,4705063.88346216,Vineyard Baptist Church,,CHRISTIAN,401 16TH STREET SE,CHURCHES,1,28129,PlacesofWorshipPt_678,401522.19,135124.36,,{B99FF63B-96B0-4E8A-81DD-7FA75C0B30EC},,,639
-8563451.27980983,4705055.93416282,MIRACLE TEMPLENON,MIRACLETEMPLEMINISTRIES.ORG,CHRISTIAN,5219 CALL PL SE,CHURCHES,1,,PlacesofWorshipPt_342,406352,135120.59,,{F36910ED-2722-4616-AF89-BBD73C690E88},,,640
-8569699.98482324,4705053.09255161,KAGYU DRUPGYU CHODZONG,,BUDDHIST,1519 D STREET SOUTHEAST,TEMPLES,1,,PlacesofWorshipPt_772,401481.71875,135115.96875,,{1D66E360-3498-467A-9349-F4239AE531F9},,,641
-8567151.78347556,4705040.08567192,STRAIT GATE BAPTIST CHURCH,,CHRISTIAN,3236 ELY PL SE,CHURCHES,1,,PlacesofWorshipPt_598,403467.8,135106.5,,{00D03510-F78C-47A8-89D8-9C67B8305290},,,642
-8565159.1888875,4705016.49486784,GREATER DELIVERANCE CHR OF GOD,GREATERDELIVERANCECOGIC.ORG,CHRISTIAN,441 CHAPLIN ST SE,CHURCHES,1,,PlacesofWorshipPt_383,405020.86,135089.02,,{2901EF3D-8E72-476D-A1F3-C4ADBA330109},,,643
-8563121.08614919,4704956.86646853,FIRST NATIONAL BAPTIST CHURCH,,CHRISTIAN,5400 D ST SE,CHURCHES,1,,PlacesofWorshipPt_336,406609.42,135043.9,,{150F2C67-F83D-4281-9684-0C98609FAAA2},,,644
-8570542.12475846,4704958.57259844,HOLY TEMPLE CHURCH OF CHRIST,HTCONLINE.ORG,CHRISTIAN,439 12TH ST SE,CHURCHES,1,,PlacesofWorshipPt_125,400825.34,135042.51,,{E73361AA-CCAB-41DC-8B11-83814FFB8ED3},,,645
-8565792.05356503,4704946.04323189,OUR LADY QUEEN OF PEACE CHURCH,OLQPDC.ORG,CHRISTIAN,3800 ELY PLACE SOUTHEAST,CHURCHES,1,,PlacesofWorshipPt_755,404527.625,135034.03125,,{9C171508-B71C-44FC-82E0-F4C1B240B1A8},,,646
-8573928.15017983,4704924.47935779,ST DOMINICS CHURCH,STDOMINICCHURCH.ORG,CHRISTIAN,630 E ST SW,CHURCHES,1,,PlacesofWorshipPt_506,398186.21,135016.21,,{7E6E1BC0-ED6B-46F6-9847-08B96F3C0697},,,647
-8567150.63602426,4704876.32273101,FAITH SHEPARD BAPTIST CHURCH,,CHRISTIAN,3233 E ST SE,CHURCHES,1,,PlacesofWorshipPt_303,403468.75,134979.38,,{4B4718B8-2D69-423B-BC23-1017966C3645},,,648
-8571520.14826083,4704858.13425557,PLEASANT LANE BAPTIST CHURCH,,CHRISTIAN,501 E STREET SOUTHEAST,CHURCHES,1,,PlacesofWorshipPt_756,400063.0625,134964.5,,{073CF7A9-99E3-4CC0-811B-588E9C12F9BF},,,649
-8563667.3822893,4704854.32716078,GREATER GOOD SAMARITAN BAPTIST CHURCH,,CHRISTIAN,5100 E ST SE,CHURCHES,1,,PlacesofWorshipPt_282,406183.69,134963.96,,{A20906FD-9567-4AE4-8469-F6338F4AA572},,,650
-8571518.33025956,4704857.19125071,Progress For Christ Baptist,http://www.progressforchrist.org/,CHRISTIAN,501 E STREET SE,CHURCHES,1,15241,PlacesofWorshipPt_623,400064.47,134963.77,,{AED1BD8E-94E7-47A4-B1F9-AC9A1E2802A8},,,651
-8567033.59033407,4704813.4432941,POTOMAC BAPTIST CHURCH,,CHRISTIAN,3340 MINNESOTA AVE SE,CHURCHES,1,,PlacesofWorshipPt_230,403560,134930.61,,{F28F72D0-227F-41BA-BE1A-13F45834B1F9},,,652
-8571637.11004191,4704799.02773811,Mount Joy Baptist,,CHRISTIAN,514 4TH STREET SE,CHURCHES,1,277597,PlacesofWorshipPt_624,399971.89,134918.62,,{E6DF6E77-C527-4C3B-8DA3-5071E078881A},,,653
-8569850.80179917,4704797.63984788,LIBERTY BAPTIST CHURCH,LIBERTYBAPTISTCHURCHDC.ORG,CHRISTIAN,527 KENTUCKY AVE SE,CHURCHES,1,,PlacesofWorshipPt_126,401364.19,134917.66,,{A3AD563E-657F-4F0F-A9FD-83E9311095EA},,,654
-8571139.3869223,4704789.34268898,The Church of Jesus Christ of Latter Day Saints,,CHRISTIAN,522 7TH STREET SE,CHURCHES,1,303286,PlacesofWorshipPt_674,400359.83,134911.11,,{242168E4-8D60-403A-9A61-66B33B757186},,,655
-8569754.54061569,4704788.65666714,Providence Baptist,,CHRISTIAN,526 15TH STREET SE,CHURCHES,1,308993,PlacesofWorshipPt_671,401439.22,134910.7,,{E82F4078-8F96-42A8-BC0E-BF007724C844},,,656
-8571323.16367066,4704742.21318544,CHRIST CHURCH CAPITOL HILL,WASHINGTONPARISH.ORG,CHRISTIAN,620 G ST SE,CHURCHES,1,,PlacesofWorshipPt_108,400216.59,134874.52,,{C6FC1BE5-9C5C-40DF-AF2B-918829137088},,,657
-8571689.87891414,4704736.12329706,MT JOY CHURCH,,CHRISTIAN,541 4TH ST SE,CHURCHES,1,,PlacesofWorshipPt_526,399930.76,134869.79,,{F11E838A-54FA-491F-A405-5135D3423D9C},,,658
-8564337.10991991,4704580.50333542,FAITH BIBLE CHURCH,,CHRISTIAN,4625 G ST SE,CHURCHES,1,,PlacesofWorshipPt_302,405661.84,134751.01,,{5DFBEE0C-3C59-45A8-8306-3A7B33558121},,,659
-8564337.10991991,4704580.50333542,JONES MEMORIAL UNITED MTHDST,,CHRISTIAN,4625 G ST SE,CHURCHES,1,,PlacesofWorshipPt_364,405661.84,134751.01,,{58BC8724-1AAC-4885-B1FC-ECADB9CF11A2},,,660
-8571142.34800891,4704561.9857128,CAPITAL CITY CHURCH,CAPCITYCHURCH.COM,CHRISTIAN,1333 H ST NE,CHURCHES,1,,PlacesofWorshipPt_117,400357.53,134734.62,,{A330EB70-097E-40A7-8635-06B7AE52189F},,,661
-8573997.98344332,4704538.83371068,HOUSE OF THE LORD CHURCH,<Null>,CHRISTIAN,700 7TH ST SW,CHURCHES,1,,PlacesofWorshipPt_513,398131.71,134716.86,,{FBB91E2D-2FDA-4C16-AB0E-4BB2FF911FEF},,,662
-8564915.30666792,4704496.97564821,FIRST ROCK BAPTIST CHURCH,FIRSTROCKBAPTISTCHURCH.ORG,CHRISTIAN,4630 ALABAMA AVE SE,CHURCHES,1,,PlacesofWorshipPt_337,405211.21,134685.86,,{8E81FD31-6D0F-46BC-BBE4-FCDEF0249AFF},,,663
-8570618.77879549,4704486.30558014,NEW HOPE FREEWILL BAPTIST CHR,NEWHOPEFWBC.ORG,CHRISTIAN,754 11TH ST SE,CHURCHES,1,,PlacesofWorshipPt_131,400765.63,134675.9,,{20B93758-06FF-417C-A55C-CFE118FAC71A},,,664
-8567522.87797607,4704382.50270778,Tyson Temple First Born,,CHRISTIAN,3024 MASSACHUSETTS AVENUE SE,CHURCHES,1,41766,PlacesofWorshipPt_713,403178.77,134595.92,,{30DA3738-7CD8-45D5-91F6-28697115F6B4},,,665
-8571639.21252956,4704371.9752337,St Paul AUMP,,CHRISTIAN,401 I STREET SE,CHURCHES,1,288070,PlacesofWorshipPt_679,399970.25,134587.11,,{19D3B305-5403-4720-996E-31D85BEEEA3D},,,666
-8573628.40418627,4704358.07884048,WESTMINSTER PRESBYTERIAN CHR,WESTMINSTERDC.ORG,CHRISTIAN,400 I ST SW,CHURCHES,1,,PlacesofWorshipPt_468,398419.75,134576.48,,{BCB0C9EC-FF87-4703-8FE4-99B7DEABA6AE},,,667
-8572850.45759194,4704357.45767158,Bethel Pentecostal Tabernacle,,CHRISTIAN,60 I STREET SW,CHURCHES,1,276677,PlacesofWorshipPt_650,399026.13,134575.9,,{AFF85B36-8051-4B9D-92B9-AEA6EC8B40A5},,,668
-8572992.30989468,4704343.65569138,FRIENDSHIP BAPTIST CHURCH,FRIENDSHIPBAPTISTDC.ORG,CHRISTIAN,900 DELAWARE AVE SW,CHURCHES,1,,PlacesofWorshipPt_475,398915.56,134565.2,,{CF2A38B3-CB08-46FB-9F68-12E1F5FFBCC2},,,669
-8570685.12045591,4704340.79870978,CALVARY CHRISTIAN CHURCH,CALVARYCHRISTIAN.WEBS.COM,CHRISTIAN,909 11TH ST SE,CHURCHES,1,,PlacesofWorshipPt_114,400713.93,134562.94,,{8709ED0B-4F5C-47E0-B685-88A14106762B},,,670
-8573463.05591323,4704338.76224142,CHRIST UNITED METHODIST CHURCH,CUMCDC.ORG,CHRISTIAN,900 4TH ST SW,CHURCHES,1,,PlacesofWorshipPt_474,398548.63,134561.46,,{77859C74-0A6D-48D0-B2D1-4221A88534E3},,,671
-8570133.92746107,4704232.81897801,MOUNT PARAN BAPTIST CHURCH,,CHRISTIAN,1339 K STREET SOUTHEAST,CHURCHES,1,,PlacesofWorshipPt_748,401143.5625,134479.171875,,{2821C248-44E3-478B-828B-62E2D8474A89},,,672
-8574144.66566685,4704185.02612443,RIVERSIDE BAPTIST CHURCH,RIVERSIDEDC.ORG,CHRISTIAN,699 MAINE AVE SW,CHURCHES,1,,PlacesofWorshipPt_517,398017.31,134442.23,,{CCC6E6DA-141C-451F-A902-2DB7524CE1B9},,,673
-8565288.86402019,4704177.86063089,JOHNSON MEMORIAL BAPTIST CHURCH,JMBCHURCHDC.ORG,CHRISTIAN,800 RIDGE ROAD SOUTHEAST,CHURCHES,1,,PlacesofWorshipPt_746,404920.1875,134437.953125,,{7F719A41-9A39-4FC1-9F37-B0C5B024E082},,,674
-8572067.29405129,4704174.72073919,WATERFRONT CHURCH DC,WATERFRONTCHURCHDC.COM,CHRISTIAN,140 L ST SE,CHURCHES,1,,PlacesofWorshipPt_533,399636.57,134433.99,,{046EFEC2-3C58-4AB5-B2E7-569CA58D1405},,,675
-8572141.31297272,4704102.0461867,SAINT MATTHEWS BAPTIST CHURCH,,CHRISTIAN,1105 NEW JERSEY AVENUE SOUTHEAST,CHURCHES,1,,PlacesofWorshipPt_731,399578.875,134377.578125,,{A4DA5C91-2AD5-4925-9318-09DD435A2243},,,676
-8573174.04964585,4704089.8233358,SECOND UNION BAPTIST CHURCH,SECONDUNIONBAPTISTCHURCH.ORG,CHRISTIAN,1107 DELAWARE AVE SW,CHURCHES,1,,PlacesofWorshipPt_519,398773.87,134368.17,,{16E4C012-F356-422A-ADB5-031B702BBF0A},,,677
-8572533.00278744,4704019.45445751,ST VINCENT DE PAUL PARISH,STVINCENTDEPAULDC.ORG,CHRISTIAN,14 M ST SE,CHURCHES,1,,PlacesofWorshipPt_123,399273.55,134313.48,,{9ECCEA73-3CA8-4196-A1F3-53A3AC319D3E},,,678
-8573857.33480704,4703933.43459572,SAINT AUGUSTINES EPISCOPAL CHURCH,STAUGUSTINESDC.ORG,CHRISTIAN,555 WATER STREET SOUTHWEST,CHURCHES,1,,PlacesofWorshipPt_758,398241.21875,134246.859375,,{C44C9CEE-D6A6-4716-A823-C4AABF35257A},,,679
-8573240.52998629,4703932.44168766,ST MATTHEW'S LUTHERAN CHURCH,,CHRISTIAN,222 M ST SW,CHURCHES,1,,PlacesofWorshipPt_507,398722.03,134246,,{15DA7831-1EB2-4F5E-B6BE-DE241D6A5248},,,680
-8567652.88924429,4703922.78780399,NEW LIFE WORLD ASSEMBLIES,,CHRISTIAN,3001 M ST SE,CHURCHES,1,,PlacesofWorshipPt_313,403077.57,134239,,{56F650C6-411F-43DC-8729-AB54CB2DD665},,,681
-8568192.47705763,4703706.58182235,SOUTHERN FRIENDSHIP BAPTIST,,CHRISTIAN,2600 MINNESOTA AVE SE,CHURCHES,1,,PlacesofWorshipPt_607,402657.02,134071,,{52EB3090-580C-4C89-BC08-A201046ADB52},,,682
-8572925.14251733,4703607.26792339,CARRON BAPTIST CHURCH,,CHRISTIAN,1354 1ST ST SW,CHURCHES,1,,PlacesofWorshipPt_277,398967.84,133993.52,,{3AF39C36-56E6-403C-938C-CBA8F310D407},,,683
-8567287.38536787,4703584.80866872,APOSTOLIC FAITH CHURCH,APOSTOLICFAITHDC.ORG,CHRISTIAN,1325 BRANCH AVE SE,CHURCHES,1,,PlacesofWorshipPt_298,403362.59,133976.73,,{88675FE3-0813-4F37-90D1-DBC5417381C8},,,684
-8564391.89601961,4703540.4221525,New Strait Gate Baptist,,CHRISTIAN,4407 BOWEN ROAD SE,CHURCHES,1,22277,PlacesofWorshipPt_717,405619.71,133943.55,,{C89BE7F6-A0CB-4B8C-B0E2-45D5C9C08E1E},,,685
-8564520.47582189,4703464.40094019,FIRST UNITED METHODIST CHURCH,,CHRISTIAN,4323 BOWEN RD SE,CHURCHES,1,,PlacesofWorshipPt_256,405519.52,133884.46,,{50237202-CF4B-4769-B6EA-DEC0C22722EE},,,686
-8568457.71021717,4703446.49528721,GRACE MEMORIAL BAPTIST CHURCH,,CHRISTIAN,2407 MINNESOTA AVENUE SOUTHEAST,CHURCHES,1,,PlacesofWorshipPt_745,402450.34375,133869.015625,,{0A9921A2-11FD-4E74-8763-61F2B80D7FB3},,,687
-8567953.69019877,4703427.46129237,SAINT FRANCES XAVIER CHURCH,STFRANCISXAVIERDC.ORG,CHRISTIAN,2800 PENNSYLVANIA AVENUE SOUTHEAST,CHURCHES,1,,PlacesofWorshipPt_733,402843.25,133854.375,,{E28B8CBF-53A3-46A7-9217-A0938812D494},,,688
-8568654.15750159,4703415.69891906,GALILEE BAPTIST CHURCH,,CHRISTIAN,2252 MINNESOTA AVE SE,CHURCHES,1,,PlacesofWorshipPt_327,402297.2,133845.06,,{D965043D-23F9-48EC-958C-E6A1495C89D0},,,689
-8568572.23470832,4703379.50614558,SECOND ST JAMES BAPTIST CHURCH,,CHRISTIAN,2301 MINNESOTA AVE SE,CHURCHES,1,,PlacesofWorshipPt_225,402361.07,133816.98,,{35CA2003-A620-40A5-97DE-B5113B150E78},,,690
-8565705.67616283,4703309.52507201,DUPONT PARK SEVENTH-DAY ADVENTIST CHURCH,DUPONTPARK.ORG,CHRISTIAN,3985 MASSACHUSETTS AVE SE,CHURCHES,1,,PlacesofWorshipPt_252,404595.69,133763.63,,{FE9ACCDE-DA04-4A4A-A12B-91247AFCCE09},,,691
-8568703.54194284,4703294.31446782,BETHEL CHRISTIAN CHURCH,BETHELDC.ORG,CHRISTIAN,2217 MINNESOTA AVE SE,CHURCHES,1,,PlacesofWorshipPt_228,402258.73,133750.81,,{BC0FDA29-63AD-4926-AF26-42082B2884DD},,,692
-8567572.72615282,4703229.8348185,PENNSYLVANIA AVENUE BAPT CHR,PABC-DC.ORG,CHRISTIAN,3000 PENNSYLVANIA AVE SE,CHURCHES,1,,PlacesofWorshipPt_209,403140.27,133701.05,,{76537A35-51EE-4B9F-80CB-8683787201A1},,,693
-8568721.55915033,4703225.21636914,LITTLE ROCK CHR OF DELIVERANCE,,CHRISTIAN,2214 NAYLOR RD SE,CHURCHES,1,,PlacesofWorshipPt_214,402244.7,133697.16,,{C5CBBE16-0CC5-44C8-85A2-FC800F1CA62F},,,694
-8567257.48791064,4703180.06372927,SOUTHEAST CHRISTIAN FELLOWSHIP,SECF3140.ORG,CHRISTIAN,3140 Q ST SE,CHURCHES,1,,PlacesofWorshipPt_324,403386.03,133662.51,,{2C81A38F-24C8-45BF-B5ED-C485CC8253B1},,,695
-8565186.87332403,4703164.12529801,NEW MACEDONIA BAPTIST CHURCH,TNMBC.ORG,CHRISTIAN,4115 ALABAMA AVE SE,CHURCHES,1,,PlacesofWorshipPt_314,405000.19,133650.99,,{9C2AE255-2AFF-4567-937E-55CF3B4D60AD},,,696
-8568640.32898211,4703149.53411505,CHARITY BAPTIST CHURCH,,CHRISTIAN,1601 23RD ST SE,CHURCHES,1,,PlacesofWorshipPt_295,402308.04,133638.42,,{01B26CC7-866A-41EB-BFD1-970024F157B5},,,697
-8569363.7983523,4702951.15996542,GARDEN MEMORIAL PRESBYTERIAN,GARDEN.COM,CHRISTIAN,1720 MINNESOTA AVE SE,CHURCHES,1,,PlacesofWorshipPt_281,401744.09,133484.26,,{BA8BA4F8-36EC-48F6-B55B-03A82D0D6CF6},,,698
-8568448.1627749,4702917.24793762,True Unity Baptist,,CHRISTIAN,2417 NAYLOR ROAD SE,CHURCHES,1,152101,PlacesofWorshipPt_663,402457.9,133458.12,,{CDDA8CB8-60C0-40B8-B34E-D088444B2093},,,699
-8568321.67032747,4702877.39589474,MT CALVARY HOLY EVANGELISTIC,MCHEC.ORG,CHRISTIAN,2504 NAYLOR RD SE,CHURCHES,1,,PlacesofWorshipPt_368,402556.52,133427.21,,{F9513DD7-6EFF-4693-B288-A82248AB96C8},,,700
-8567116.17995902,4702820.85461529,RYLAND-EPWORTH UNITED MTHDST,,CHRISTIAN,3200 S ST SE,CHURCHES,1,,PlacesofWorshipPt_346,403496.31,133383.67,,{4593A18E-2F33-42FE-B20C-D61365BF15DC},,,701
-8569837.88245768,4702641.88084131,Ambassador Baptist,<Null>,CHRISTIAN,1412 MINNESOTA AVENUE SE,CHURCHES,1,64651,PlacesofWorshipPt_648,401374.55,133244.06,,{C2EC0565-A98F-43E7-98E5-EF87D0B251A8},,,702
-8566447.04340691,4702631.03679683,CHURCH OF JESUS CHRIST,COJC.ORG,CHRISTIAN,3456 PENNSYLVANIA AVE SE,CHURCHES,1,,PlacesofWorshipPt_377,404018.03,133236.54,,{88D13A36-DBCA-4FB8-98E6-C58DFEEC751D},,,703
-8569705.56941371,4702575.43701692,CHURCH IN THE LORD JESUS,,CHRISTIAN,1524 GOOD HOPE RD SE,CHURCHES,1,,PlacesofWorshipPt_376,401477.71,133192.49,,{3B029049-97BA-472B-A26B-5C088ED7099D},,,704
-8570104.22878152,4702538.26917484,Anacostia Full Gospel,,CHRISTIAN,1320 U STREET SE,CHURCHES,1,67782,PlacesofWorshipPt_659,401166.92,133163.58,,{FB7A19C5-9C75-457D-9296-EAA155619C6A},,,705
-8569937.58022061,4702455.18375535,AGAPE 1 CHURCH OF CHRIST,AGAPE1CHURCH.ORG,CHRISTIAN,2002 14TH ST SE,CHURCHES,1,,PlacesofWorshipPt_227,401296.85,133099.09,,{44F565D5-DF53-400A-8AFE-946B423562DC},,,706
-8569937.58022061,4702455.18375535,AGAPE CHURCH OF CHRIST INC,CHURCH-OF-CHRIST.ORG,CHRISTIAN,2002 14TH ST SE,CHURCHES,1,,PlacesofWorshipPt_604,401296.85,133099.09,,{95648CF6-5BA8-41C0-A3C8-5CC8C310FA90},,,707
-8570024.62544128,4702445.8472634,ST PHILLIPS EPISCOPAL CHURCH,STPHILIPANACOSTIA.COM,CHRISTIAN,2001 14TH ST SE,CHURCHES,1,,PlacesofWorshipPt_237,401228.99,133091.83,,{DFA58A43-A683-4CD8-B7D2-E5A55306265F},,,708
-8570238.36141742,4702442.33646415,ST TERESA OF AVILA CHURCH,STACHURCH.ORG,CHRISTIAN,1244 V ST SE,CHURCHES,1,,PlacesofWorshipPt_238,401062.36,133089.08,,{B530D877-FF05-4D62-A041-4690A0290528},,,709
-8570185.8073287,4702364.8473377,DELAWARE AVE BAPTIST CHURCH,DABAPTISTCHURCH.ORG,CHRISTIAN,1301 V ST SE,CHURCHES,1,,PlacesofWorshipPt_205,401103.34,133028.92,,{1E8F4D46-B78B-4160-A293-0FBC50442480},,,710
-8570371.12674055,4702282.66356161,Union Temple Baptist,http://www.uniontemple.com/,CHRISTIAN,1225 W STREET SE,CHURCHES,1,70732,PlacesofWorshipPt_662,400958.87,132965.09,,{98418073-1FEA-4E63-B3C8-76C3582CF8DF},,,711
-8570228.94546337,4702258.74160462,NEW COVENANT BAPTIST CHURCH,REFRESHINGSPRINGMINISTRIES.ORG,CHRISTIAN,1301 W ST SE,CHURCHES,1,,PlacesofWorshipPt_321,401069.72,132946.53,,{6611AEBC-873E-46DF-BF6A-A37CE370F9F2},,,712
-8569300.73067712,4702243.50467741,ANACOSTIA INTERNATIONAL,,CHRISTIAN,1716 V ST SE,CHURCHES,1,,PlacesofWorshipPt_204,401793.38,132934.83,,{F0123FC1-4B6B-4934-B329-D800A106D33A},,,713
-8570477.33838303,4702226.56157449,BETHEL CHRISTIAN FELLOWSHIP,,CHRISTIAN,2220 MARTIN LUTHER KING JR AVE,CHURCHES,1,,PlacesofWorshipPt_229,400876.07,132921.52,,{8DBCE260-03CC-48BF-9039-1C73E602C2FE},,,714
-8566699.57826604,4702217.89011835,CHRISTIAN PRAISE CHURCH,,CHRISTIAN,3628 ALABAMA AVE SE,CHURCHES,1,,PlacesofWorshipPt_375,403821.31,132915.66,,{83F24104-7E76-42FF-8A87-EEE7552D3D75},,,715
-8567435.06397108,4702080.89087124,WILLING HEART COMMUNITY CHURCH,WILLINGHEART.ORG,CHRISTIAN,3110 W ST SE,CHURCHES,1,,PlacesofWorshipPt_224,403247.95,132809.03,,{7FBD5708-95BA-4FDD-B47A-DAC80DCCA914},,,716
-8570998.34138562,4702073.20433298,REVIVAL TEMPLE FULL GOSPEL CHR,REVIVALTEMPLECHURCH.ORG,CHRISTIAN,2431 SHANNON PL SE,CHURCHES,1,,PlacesofWorshipPt_357,400469.89,132802.41,,{AC5D3676-2D2C-4583-B9C9-81C9BA25C0D8},,,717
-8566713.26009838,4702066.02778139,ST TIMOTHY'S EPISCOPAL CHURCH,STTIMOTHYSOFDC.ORG,CHRISTIAN,3601 ALABAMA AVE SE,CHURCHES,1,,PlacesofWorshipPt_239,403810.7,132797.74,,{76C17113-6830-4B9F-B1FE-320F0ABD1ECC},,,718
-8569647.11369051,4702052.8010071,VICTORY DELIVERANCE TEMPLE,VICTORYDELIVERANCETEMPLE.COM,CHRISTIAN,2224 16TH ST SE,CHURCHES,1,,PlacesofWorshipPt_325,401523.36,132786.7,,{D1F5D8EA-00BA-46E9-8129-561CC0BED5F2},,,719
-8569647.11369051,4702052.8010071,LITTLE FOUNTAIN CHURCH,LITTLEFOUNTAINBIBLEWAY.ORG,CHRISTIAN,2224 16TH ST SE,CHURCHES,1,,PlacesofWorshipPt_213,401523.36,132786.7,,{84884968-F258-491A-ABEF-0DF06DC464CF},,,720
-8566994.53140745,4702010.27835977,EAST WASHINGTON HEIGHTS BAPTIST CHURCH,EWHBC.ORG,CHRISTIAN,2220 BRANCH AVE SE,CHURCHES,1,,PlacesofWorshipPt_372,403591.43,132754.35,,{06E080B0-D353-4BF5-A2B6-AB2B7738E891},,,721
-8570757.13405091,4701982.22387829,BETHUEL TEMPLE CHURCH,BETHUELTEMPLE.COM,CHRISTIAN,2406 MARTIN LUTHER KING JR AVE,CHURCHES,1,,PlacesofWorshipPt_380,400657.95,132731.78,,{5840D927-A7DC-4FD5-A5D4-4501E12805E5},,,722
-8567091.69069587,4701866.81445675,LUTHERAN CHURCH-THE HOLY,HOLYCOMFORTERLCDC.ORG,CHRISTIAN,3319 ALABAMA AVE SE,CHURCHES,1,,PlacesofWorshipPt_210,403515.73,132642.92,,{DCD7EF98-E325-4FCE-971F-4BC1EFF099E0},,,723
-8570849.73821316,4701838.15726482,BETHLEHEM BAPTIST CHURCH,BETHLEHEMBAPTISTDC.ORG,CHRISTIAN,2458 MARTIN LUTHER KING JR AVE,CHURCHES,1,,PlacesofWorshipPt_379,400585.76,132619.91,,{5E06FCFC-FA60-498A-9B7D-3652DAE2F254},,,724
-8569662.09817848,4701833.49196724,VICTORY WORD & WORSHIP CTR,,CHRISTIAN,2322 16TH ST SE,CHURCHES,1,,PlacesofWorshipPt_608,401511.71,132616.41,,{FD22864B-1DFA-4760-B9B5-E562C563E3E6},,,725
-8571010.3379003,4701564.86188598,MT ZION AME,,CHRISTIAN,2562 MARTIN LUTHER KING JR AVE,CHURCHES,1,,PlacesofWorshipPt_605,400460.56,132407.69,,{8ACC07EE-9DE1-40BD-B9B5-C34EDA7F71DE},,,726
-8571010.3379003,4701564.86188598,CAMPBELL A M E CHURCH,CAMPBELLAME.ORG,CHRISTIAN,2562 MARTIN LUTHER KING JR AVE,CHURCHES,1,,PlacesofWorshipPt_373,400460.56,132407.69,,{AFF5DE0B-0B3B-4574-90B7-41375A689FBA},,,727
-8569918.02621766,4701556.38125393,New United Baptist,NEWUNITEDBAPTISTCHURCH.ORG,CHRISTIAN,2233 HUNTER PLACE SE,CHURCHES,1,49655,PlacesofWorshipPt_647,401312.21,132401.2,,{3C8FD2ED-1510-447F-80E8-06361ACF7049},,,728
-8567649.89782904,4701543.36117357,NEW REDEEMED CHURCH OF CHRIST,,CHRISTIAN,2613 30TH ST SE,CHURCHES,1,,PlacesofWorshipPt_609,403080.62,132391.58,,{608DF3CF-E616-414C-99ED-3EF93692DB43},,,729
-8571042.46019812,4701448.1744755,MATTHEWS MEMORIAL BAPTIST CHR,MMBCDC.ORG,CHRISTIAN,2616 MARTIN LUTHER KING JR AVE,CHURCHES,1,,PlacesofWorshipPt_371,400435.52,132317.08,,{6EDD9D23-F902-41A9-8F2F-BF1FAAE4D138},,,730
-8568629.7105925,4701376.83431703,INDEPENDENT CHURCH OF GOD,,CHRISTIAN,2302 AINGER PL SE,CHURCHES,1,,PlacesofWorshipPt_382,402316.72,132262.01,,{DCB144B7-E826-4D1B-88CA-DABAD1D40998},,,731
-8570705.9919871,4701376.48388585,MACEDONIA BAPTIST CHURCH,MACEDONIADC.ORG,CHRISTIAN,2625 STANTON ROAD SOUTHEAST,CHURCHES,1,,PlacesofWorshipPt_749,400697.875,132261.4375,,{4148B030-185C-4DCA-A091-3498BA4C6AFA},,,732
-8569557.82543611,4701300.36297934,OUR LADY OF PERPETUAL HELP CATHOLIC CHURCH,OLPHSEDC.ORG,CHRISTIAN,1600 MORRIS RD SE,CHURCHES,1,,PlacesofWorshipPt_341,401593.09,132202.45,,{9125F74F-3239-4CF3-8D0C-8867C76A4BC9},,,733
-8570100.38334072,4701211.44609724,ANACOSTIA RIVER BAPTIST CHURCH,ANACOSTIARIVERCHURCH.ORG,CHRISTIAN,2420 HILLSDALE PL SE,CHURCHES,1,,PlacesofWorshipPt_602,401170.07,132133.33,,{8BB9FA66-B02B-40A4-898D-E8DFE76C0493},,,734
-8568292.95675106,4701193.34845089,ALLEN CHAPEL AFRICAN MTHDST,ACAMEC.ORG,CHRISTIAN,2498 ALABAMA AVE SE,CHURCHES,1,,PlacesofWorshipPt_351,402579.33,132119.61,,{6B585B05-55A2-4C4B-8F6E-BED0D79DFF84},,,735
-8568467.9220774,4701146.64495736,EMMANUEL BAPTIST CHURCH,EMMANUELBAPTISTDC.ORG,CHRISTIAN,2409 AINGER PL SE,CHURCHES,1,,PlacesofWorshipPt_358,402442.92,132083.3,,{17CDC363-963B-4E0E-9C3D-F2D52C449D84},,,736
-8570176.01472251,4701119.62573213,St John Christian Methodist Episcopal Church Outreach Center,,CHRISTIAN,2801 STANTON ROAD SE,CHURCHES,1,44422,PlacesofWorshipPt_665,401111.11,132062.02,,{35B0ADF4-95B4-4289-BA2F-85A4635DE8F6},,,737
-8569534.74656521,4701075.48639105,GREATER MT JOY CHR OF CHRIST,,CHRISTIAN,1619 FRANKFORD ST SE,CHURCHES,1,,PlacesofWorshipPt_215,401611.12,132027.83,,{235E4F0E-A7B4-4F07-881F-F48122A30060},,,738
-8568289.73549669,4701002.13969694,CHURCH OF THE FIRST BORN,,CHRISTIAN,2451 AINGER PL SE,CHURCHES,1,,PlacesofWorshipPt_595,402581.89,131971.13,,{359AD947-3A76-40D5-AD61-2B2A0D6FB42D},,,739
-8568298.72623122,4700961.53978602,YOUNGS MEMORIAL CHURCH,CHURCH-OF-CHRIST.ORG,CHRISTIAN,2490 ALABAMA AVE SE,CHURCHES,1,,PlacesofWorshipPt_286,402574.89,131939.6,,{71777F68-5D30-46EB-8C46-CD8F8C4969A3},,,740
-8568227.07627152,4700872.45572978,FAITH TABERNACLE OF PRAYER,FAITHTABERNACLEOFPRAYER.ORG,CHRISTIAN,2465 ALABAMA AVE SE,CHURCHES,1,,PlacesofWorshipPt_290,402630.78,131870.44,,{F2C73F68-9915-43E6-A9B4-5C4F1C04E6AE},,,741
-8570071.82957467,4700812.95841634,UNIVERSAL HOLINESS CHURCH,,CHRISTIAN,2426 ELVANS RD SE,CHURCHES,1,,PlacesofWorshipPt_250,401192.38,131823.89,,{06EF1E40-63D4-4A7D-AEA4-EFD56408B404},,,742
-8569632.69593589,4700593.97050278,I AM THE WAY THE TRUTH & LIFE,,CHRISTIAN,3082 STANTON RD SE # 101,CHURCHES,1,,PlacesofWorshipPt_606,401534.82,131653.89,,{A35C9CB5-B8C4-460E-99EB-F0BFA8095F49},,,743
-8569968.66307349,4700430.81502841,BRIGHTER DAY MINISTRIES,BRIGHTERDAYDC.ORG,CHRISTIAN,2525 12TH PL SE,CHURCHES,1,,PlacesofWorshipPt_220,401272.87,131527.14,,{1983B8E9-2A5B-4A5F-A994-59D2FBEB02EA},,,744
-8568913.64085799,4700414.40375241,HIS CHURCH,,CHRISTIAN,2000 STANTON TER SE,CHURCHES,1,,PlacesofWorshipPt_361,402095.54,131514.57,,{9720945F-30BC-4537-9DCF-24C42D70388B},,,745
-8569134.19713066,4699874.52333028,NEW IMAGE COMMUNITY BAPTIST,NEWIMAGECBC.ORG,CHRISTIAN,1839 ALABAMA AVE SE,CHURCHES,1,,PlacesofWorshipPt_322,401923.66,131095.25,,{BB4BF950-6F72-4E58-B7CC-B8D7DB767DB8},,,746
-8570917.60116774,4699353.3817537,GREATER FELLOWSHIP FULL GOSPEL,GREATERFELLOWSHIPDC.ORG,CHRISTIAN,814 ALABAMA AVE SE,CHURCHES,1,,PlacesofWorshipPt_338,400532.98,130690.29,,{9586EF1F-AE84-4774-BAAB-4072458A3BDC},,,747
-8571531.69798247,4699321.49914842,TEMPLE MISSIONARY BAPTIST CHR,TEMPLEMISSIONARY.COM,CHRISTIAN,3105 MARTIN LUTHER KING JR AVE,CHURCHES,1,,PlacesofWorshipPt_511,400054.08,130665.51,,{2DD70E5D-61E5-4AF0-BD34-3079DA237627},,,748
-8571554.01525746,4699303.56636465,MASJID USH-SHURA,,ISLAMIC,3109 MARTIN LUTHER KING JUNIOR AVENUE SOUTHEAST,MOSQUES,1,,PlacesofWorshipPt_732,400036.6875,130651.578125,,{4A55C315-1D3A-43C5-B4A0-463740F4BA0D},,,749
-8570809.28869704,4699302.28404827,COMMUNITY OF HOPE CHURCH OF THE NAZARENE,COMMOFHOPENAZ.ORG,CHRISTIAN,905 ALABAMA AVE SE,CHURCHES,1,,PlacesofWorshipPt_470,400617.45,130650.61,,{E48A77AC-F7E5-4A3C-8ECF-56368CB8F4E4},,,750
-8571572.09059568,4699291.53821433,SOUTHEAST MINISTRY,SEMINISTRYDC.ORG,CHRISTIAN,3111 MARTIN LUTHER KING JR AVE,CHURCHES,1,,PlacesofWorshipPt_515,400022.58,130642.24,,{479F2314-8865-4B8E-8E60-61D93BEE21A2},,,751
-8571678.85477014,4699288.87274152,MORNING STAR BAPTIST CHURCH,MORNINGSTARCHURCH-DC.ORG,CHRISTIAN,3204 BROTHERS PL SE,CHURCHES,1,,PlacesofWorshipPt_473,399939.32,130640.17,,{270965B4-CBA3-4517-A5E2-6EFA10977748},,,752
-8570629.7625553,4699210.86617773,ANACOSTIA GOSPEL CHAPEL,,CHRISTIAN,1100 SAVANNAH ST SE,CHURCHES,1,,PlacesofWorshipPt_505,400757.46,130579.62,,{3FF6361D-E733-4F9E-A941-8CCB1327C341},,,753
-8571271.75322518,4699209.43961113,REHOBOTH BAPTIST CHURCH,RBCDC.ORG,CHRISTIAN,621 ALABAMA AVE SE,CHURCHES,1,,PlacesofWorshipPt_522,400256.8,130578.48,,{59065C37-5FB5-4766-8E48-BAD10C6BF0E8},,,754
-8571619.11229217,4699182.02056229,Jerusalem Church Of God in Christ,,CHRISTIAN,3128 MARTIN LUTHER KING JR AVENUE SE,CHURCHES,1,39939,PlacesofWorshipPt_668,399985.91,130557.18,,{E799FA0A-5BBA-45D4-AA92-FA8379D81765},,,755
-8569874.04118359,4699162.05828512,STEP OF FAITH MINISTRIES,STEPOFFAITHMINISTRIES.ORG,CHRISTIAN,3330 14TH PL SE,CHURCHES,1,,PlacesofWorshipPt_601,401346.82,130541.79,,{E55983F7-CFD5-446D-BB3B-87ED4FF9D011},,,756
-8572174.43952138,4699097.41409777,NEW DAY ASSEMBLY OF CHRIST,NEWDAYASSEMBLYOFCHRIST.COM,CHRISTIAN,201 RALEIGH ST SE,CHURCHES,1,,PlacesofWorshipPt_291,399552.83,130491.48,,{3845EF61-71AA-4C47-AE68-8CC94FDD90A4},,,757
-8572095.81887311,4699006.62295583,ASSUMPTION RC CHURCH,ASSUMPTIONDC.ORG,CHRISTIAN,220 HIGHVIEW PL SE,CHURCHES,1,,PlacesofWorshipPt_343,399614.14,130420.96,,{94DF87C1-925A-4504-A099-81B43B1CC96B},,,758
-8572061.55938576,4698950.17790928,CHURCH OF THE ASSUMPTION OF THE BLESSED VIRGIN MARY,ASSUMPTIONDC.ORG,CHRISTIAN,3411 MARTIN LUTHER KING JUNIOR AVENUE SOUTHEAST,CHURCHES,1,,PlacesofWorshipPt_744,399640.84375,130377.1171875,,{B5466A22-7850-4218-958C-39E69230E058},,,759
-8572120.14764008,4698838.0500108,RESURRECTION BAPTIST CHURCH,RESURRECTIONBC.COM,CHRISTIAN,3501 MARTIN LUTHER KING JR AVE,CHURCHES,1,,PlacesofWorshipPt_524,399595.16,130290.03,,{7C022C2A-8955-43AC-AB46-D0D171F0F372},,,760
-8572123.7682477,4698679.36858473,TABERNACLE CHURCH,,CHRISTIAN,3600 MARTIN LUTHER KING JR AVE,CHURCHES,1,,PlacesofWorshipPt_510,399592.33,130166.78,,{F6D206BF-BA10-4009-BCDD-DDEC13BCDE7E},,,761
-8572210.20323899,4698536.12915431,THE CHURCH OF THE HOLY COMMUNION,,CHRISTIAN,3640 MARTIN LUTHER KING JUNIOR AVENUE SOUTHEAST,CHURCHES,1,,PlacesofWorshipPt_741,399524.90625,130055.5234375,,{A9540521-C91E-45C4-BB6F-1F31432D4B17},,,762
-8572313.34467968,4698494.86498146,UNITY OF LOVE PRAISE TEMPLE,,CHRISTIAN,3703 MARTIN LUTHER KING JR AVE,CHURCHES,1,,PlacesofWorshipPt_509,399444.47,130023.48,,{AF2520FF-89B9-4A6A-8B61-229D6E6F5DFA},,,763
-8572375.75544718,4698238.39236058,CHURCH IN THE FIELD,THECHURCHINTHEFIELD.COM,CHRISTIAN,3754 MLK JR AVE SE # 101,CHURCHES,1,,PlacesofWorshipPt_520,399395.78,129824.27,,{66636D91-5F0F-40FA-8302-E24127C7970A},,,764
-8572685.34950478,4698017.43394906,RIGHTEOUS BRANCH COMMANDMENT,,CHRISTIAN,141 XENIA ST SW,CHURCHES,1,,PlacesofWorshipPt_469,399154.3,129652.66,,{DDB8315E-A68F-49D4-B622-9232DB653C51},,,765
-8572565.21709132,4697923.90537588,COVENANT BAPTIST CHURCH,COVENANTDC.ORG,CHRISTIAN,3845 S CAPITOL ST SW,CHURCHES,1,,PlacesofWorshipPt_521,399247.99,129580,,{6F186CC7-EB15-48DB-9234-14754B86BC88},,,766
-8571636.2511307,4697663.4423712,Paramount Baptist,http://www.paramountbaptistchurch.org,CHRISTIAN,3924 4TH STREET SE,CHURCHES,1,29051,PlacesofWorshipPt_616,399972.54,129377.64,,{D55F5FAE-DEA3-4A43-AC14-1B00D3271B2B},,,767
-8572280.47026492,4697357.75872147,REMNANT COMMUNITY CHURCH,REMNANTCOMMUNITYCHURCH.ORG,CHRISTIAN,4101 1ST ST SE,CHURCHES,1,,PlacesofWorshipPt_523,399470.05,129140.2,,{DC383651-0C06-415C-8273-CA016E960407},,,768
-8572280.47026492,4697357.75872147,SOUTHEAST BAPTIST TABERNACLE,,CHRISTIAN,4101 1ST ST SE,CHURCHES,1,,PlacesofWorshipPt_514,399470.05,129140.2,,{603DB746-6030-4DD4-BC2B-4F02C69DDD66},,,769
-8573007.55762582,4697321.99988557,LIVING WORD CHURCH,,CHRISTIAN,4101 MARTIN LUTHER KING JR AVE,CHURCHES,1,,PlacesofWorshipPt_255,398902.92,129112.48,,{472E4B44-8F67-456E-9828-5D218C4A0126},,,770
-8572531.60539555,4697283.51332755,FAITH PRESBYTERIAN CHURCH,,CHRISTIAN,4161 S CAPITOL ST SW,CHURCHES,1,,PlacesofWorshipPt_518,399274.16,129082.54,,{7A4FB2E4-528E-4CB2-B7A9-F6950C5D9741},,,771
-8571185.65621994,4696789.18868823,TEMPLE OF PRAISE,THETEMPLEOFPRAISE.ORG,CHRISTIAN,700 SOUTHERN AVE SE,CHURCHES,1,,PlacesofWorshipPt_512,400324.02,128698.5,,{1DFF2C73-1D11-4D36-A290-ADB3352D5147},,,772
-8571596.04510622,4696649.41804133,TURNING HEARTS CHURCH,TURNINGHEARTSCHURCHDC.ORG,CHRISTIAN,4275 4TH ST SE,CHURCHES,1,,PlacesofWorshipPt_603,400003.9,128589.91,,{35523FE1-BB85-4DB4-A3CE-002845DBD413},,,773
-8571596.04510622,4696649.41804133,ST THOMAS MORE CHURCH,STTHOMASMOREDC.ORG,CHRISTIAN,4275 4TH ST SE,CHURCHES,1,,PlacesofWorshipPt_508,400003.9,128589.91,,{6BF57496-219A-46EC-B453-2135CE3C480A},,,774
